{
"type": "FeatureCollection",
"name": "districts",
"crs": { "type": "name", "properties": { "name": "urn:ogc:def:crs:OGC:1.3:CRS84" } },
"features": [
{"type":"Feature","properties":{"id":98,"name":"Pategi","area_km2":3075.616369062785},"geometry":{"type":"Polygon","coordinates":[[[5.446378708011025,8.479719162109689],[5.453513621556453,8.486290931881058],[5.465723514628564,8.492395401326746],[5.476577282215828,8.499857903719317],[5.490143777413437,8.518173217719891],[5.49624919924122,8.529026031126477],[5.503032207170691,8.534453392010505],[5.51456403660103,8.5351314547529],[5.513207436274229,8.538522719947593],[5.524109840097083,8.53693008355657],[5.544442176964935,8.52310371396527],[5.554202080261859,8.512530327112927],[5.574534416230392,8.506024360735694],[5.599746703847359,8.488945008405437],[5.64285183004796,8.462919235434413],[5.688176632345744,8.452851294551635],[5.704662323307616,8.445839882204837],[5.748580933063636,8.437706946918127],[5.782739640422108,8.427947043621202],[5.805511951315566,8.425507545336984],[5.81852483735139,8.427134514246461],[5.829097747563026,8.426321030691042],[5.849430084430878,8.422254561698708],[5.912054062145273,8.423880577326827],[5.925066948181154,8.418188095404332],[5.956785678816061,8.408428192107408],[5.978744984593391,8.405175209368451],[5.990944386174533,8.401922225730175],[6.013716697967311,8.400295257720018],[6.020223140985195,8.397855759435799],[6.040555953594435,8.392975806888046],[6.060074806007549,8.393788338061427],[6.077967643691863,8.397855759435799],[6.097486972745628,8.414121628210637],[6.11131286569622,8.431200981440213],[6.113752842419785,8.445026397750098],[6.113752842419785,8.461293220705613],[6.117005825158742,8.483251572302265],[6.119445800982987,8.510904312384184],[6.123512268176682,8.538556099184689],[6.12513923618684,8.555635452414265],[6.133272170574287,8.56783485399535],[6.147911548878938,8.596301079431328],[6.154417991896878,8.617446898955279],[6.162550926284268,8.637779235823132],[6.16987037711624,8.662991524339418],[6.18369674670754,8.686576843046907],[6.208536148424571,8.732375145596563],[6.203216075761361,8.734561919996679],[6.185323238077046,8.729681969247508],[6.169057369302209,8.721549033960798],[6.149538039349068,8.720735550405379],[6.131645202564073,8.751641273226255],[6.114566325975204,8.758147239603488],[6.084474086709804,8.760587692068384],[6.058448314638042,8.758960724058227],[6.033236026121756,8.758960724058227],[5.999890804117342,8.751641273226255],[5.978744983694071,8.750014306115361],[5.974678515601056,8.756521224874689],[5.943772792780237,8.748388289587922],[5.928320407560818,8.742694856182709],[5.901481151933638,8.750014306115361],[5.886841773628987,8.746761321577765],[5.824217795914592,8.742694856182709],[5.795752048018642,8.741881370828651],[5.77460622759537,8.753267287954998],[5.760780333745458,8.773600579003585],[5.742074490045752,8.797999382165813],[5.728248118655813,8.819958687043822],[5.712795734335714,8.828905105885951],[5.691649913912443,8.828091622330533],[5.665624141840738,8.830531119715431],[5.642038344693901,8.835411073162561],[5.619266032901123,8.852490424593441],[5.60543966330988,8.86794280981286],[5.601373196116128,8.876889228655045],[5.572907924860885,8.892342567155822],[5.563148021564018,8.898848534432375],[5.548557480043712,8.912223611630395],[5.447819956126125,8.858615171952692],[5.430492112121328,8.848692122643399],[5.423211786294928,8.829359821998253],[5.430352388052313,8.784742028921528],[5.441395620311653,8.766327229218291],[5.455900353918253,8.754588883969859],[5.462146463888246,8.740009385224994],[5.451896767322012,8.720927633003896],[5.442480884385361,8.710621691038284],[5.433614187744638,8.691912280627321],[5.418641941572389,8.682082387592175],[5.413625715654291,8.686187744169104],[5.420673847320245,8.658823967951832],[5.423161506997985,8.640582085394954],[5.423990725091926,8.613218308278363],[5.420673847320245,8.591659546151163],[5.419015408434404,8.569272040772091],[5.420673847320245,8.548542022796141],[5.420673847320245,8.53361701980964],[5.425649165776406,8.516203879605428],[5.435599326947454,8.4921569820591],[5.440574168762907,8.485524177998457],[5.446378708011025,8.479719162109689]]]}},
{"type":"Feature","properties":{"id":301,"name":"Bida","area_km2":695.19742542842505},"geometry":{"type":"Polygon","coordinates":[[[6.12584499984689,9.077982999915548],[6.103851639441643,9.076549644250747],[6.087351833620289,9.076766468997391],[6.075305016413438,9.085987379813787],[6.062910198446957,9.089505274049202],[6.054832854752476,9.089810316892681],[6.044678401786882,9.102122192185448],[6.032391581606248,9.108882050666182],[6.02802179467011,9.114902691606005],[6.029580684900736,9.132830646916887],[6.025958783171347,9.147487433398396],[6.017155272897583,9.152195940090621],[6.000839111335949,9.151886030116259],[5.996841932409325,9.1349101357942],[5.936129268550928,9.157040189553129],[5.910411150054586,9.158692784644359],[5.855308645977289,9.136851712736416],[5.837449074215442,9.131628989885996],[5.829337120112029,9.105819701717905],[5.825650215385167,9.100657462771721],[5.823437690696892,9.095495223825594],[5.819750785970029,9.071898460345722],[5.809889789881936,9.046335535156857],[5.815973059609064,9.031802757091612],[5.817447918086998,9.022216422949612],[5.818116758281803,9.000449837390136],[5.824753378165894,8.990126312779182],[5.832777160037949,8.985207811691225],[5.833679218720988,8.97658638805143],[5.838103790557511,8.967737244378384],[5.856565574441731,8.963443004091403],[5.860106788097823,8.942420995132863],[5.87971105182362,8.926991399633437],[5.920919727263652,8.931726426433499],[5.944055236559961,8.922453033880458],[5.961280544361671,8.91741940338278],[5.978730678178295,8.91728219291889],[6.018045182639128,8.928208030376368],[6.019560679681661,8.932213272624494],[6.026128803601466,8.931882204300337],[6.03401150073023,8.931312252658358],[6.039607036635459,8.929047551103622],[6.045997726114194,8.929585456303812],[6.048606983125808,8.928989321799804],[6.052009291095942,8.926554246381386],[6.071618239390261,8.921759293256855],[6.072504987115508,8.920356681815463],[6.075716452652216,8.918877823153082],[6.083117156331753,8.916565772292586],[6.093621033683803,8.914766693827914],[6.095895867900026,8.912831476891199],[6.098015385601627,8.912712028937051],[6.109402468249357,8.913899572906985],[6.113366999987136,8.928878000119653],[6.11274858567873,8.96464660905383],[6.09819494244266,8.980422111691155],[6.099104077890956,8.983114724165262],[6.103208110665832,8.983296328762606],[6.106369822109627,8.981998686190479],[6.109812982683025,8.983213574946603],[6.106195568570683,8.98669755304968],[6.104063961282861,8.993354869931352],[6.101129460855987,8.995863981137859],[6.096870909265078,8.997801419400048],[6.09484146136441,9.005889962351944],[6.101360405858088,9.004869902723897],[6.09726797343825,9.012598314860384],[6.100500110791529,9.017349271351861],[6.094647778871945,9.01842205193617],[6.09280316503407,9.022146151723575],[6.096800466268576,9.027768503613572],[6.096281997216465,9.030143966570847],[6.099990384948342,9.031264497558539],[6.100892861816192,9.039276994737577],[6.104400378774528,9.048286230325346],[6.106227652784014,9.050222773762073],[6.110330742170049,9.049495068442695],[6.115416480286399,9.051725579571894],[6.125654010824007,9.070810822061844],[6.126446229010298,9.075090454660824],[6.12584499984689,9.077982999915548]]]}},
{"type":"Feature","properties":{"id":429,"name":"Lavun","area_km2":3683.3657076388608},"geometry":{"type":"MultiPolygon","coordinates":[[[[6.127210834412551,8.753330486013169],[6.127451128766609,8.80776615988043],[6.135595771427745,8.844262539784438],[6.116105135243856,8.885176403967932],[6.126000231825287,8.913256338209465],[6.126290202031271,8.927385373736058],[6.118257815445872,8.929020277363975],[6.113366999987136,8.928878000119653],[6.109402468249357,8.913899572906985],[6.098015385601627,8.912712028937051],[6.095895867900026,8.912831476891199],[6.093621033683803,8.914766693827914],[6.083117156331753,8.916565772292586],[6.075716452652216,8.918877823153082],[6.072504987115508,8.920356681815463],[6.071618239390261,8.921759293256855],[6.052009291095942,8.926554246381386],[6.048606983125808,8.928989321799804],[6.045997726114194,8.929585456303812],[6.039607036635459,8.929047551103622],[6.03401150073023,8.931312252658358],[6.026128803601466,8.931882204300337],[6.019560679681661,8.932213272624494],[6.018045182639128,8.928208030376368],[5.978730678178295,8.91728219291889],[5.961280544361671,8.91741940338278],[5.944055236559961,8.922453033880458],[5.920919727263652,8.931726426433499],[5.87971105182362,8.926991399633437],[5.860106788097823,8.942420995132863],[5.856565574441731,8.963443004091403],[5.838103790557511,8.967737244378384],[5.837032795127413,8.950893402008944],[5.837540626099042,8.944290162261211],[5.832156811287859,8.938029045304233],[5.82949053905719,8.931376391407412],[5.816842099683186,8.912624042865332],[5.821719657336359,8.870707159407914],[5.806933479996133,8.841649541593142],[5.801509274833222,8.810333235090752],[5.791196001594244,8.800419440704673],[5.778542390219172,8.794121473127518],[5.760780333745458,8.773600579003585],[5.77460622759537,8.753267287954998],[5.795752048018642,8.741881370828651],[5.824217795914592,8.742694856182709],[5.886841773628987,8.746761321577765],[5.901481151933638,8.750014306115361],[5.928320407560818,8.742694856182709],[5.943772792780237,8.748388289587922],[5.974678515601056,8.756521224874689],[5.978744983694071,8.750014306115361],[5.999890804117342,8.751641273226255],[6.033236026121756,8.758960724058227],[6.058448314638042,8.758960724058227],[6.084474086709804,8.760587692068384],[6.114566325975204,8.758147239603488],[6.127210834412551,8.753330486013169]]],[[[5.507071257632504,9.140750411402394],[5.545491299983553,9.151470195293314],[5.566311206996659,9.153932423042932],[5.576560105864246,9.156296421442732],[5.585721176690981,9.16157031661686],[5.597313086229974,9.166489761093658],[5.604178904632818,9.168119430667218],[5.608574422971287,9.171635998402678],[5.615186214372329,9.183057345220334],[5.627294539811203,9.186465263161438],[5.633532046866492,9.189400672802833],[5.642337799150141,9.189767838115301],[5.677220479641448,9.200528242584369],[5.712891042687545,9.189858422328371],[5.752207218088699,9.186904477659539],[5.769550820913707,9.187001275288651],[5.783253477965673,9.190730360917485],[5.809107530787969,9.170402410043209],[5.830348761186428,9.171737745000996],[5.847035408357442,9.206846237164143],[5.841989227820648,9.213573004190835],[5.837485491362372,9.222213730879048],[5.832723725919266,9.233946142400612],[5.833914166605553,9.249613935035143],[5.841625646306568,9.270794352377493],[5.844604218909637,9.286146947923385],[5.845783290366626,9.300163406316187],[5.856007903042325,9.314704570559513],[5.857515127221404,9.343148390286046],[5.861834758967007,9.36916250804336],[5.875264755963769,9.403013971917346],[5.895841139157312,9.418870642865897],[5.896291916238965,9.434290208226571],[5.894227676266269,9.458433828758245],[5.899247468895624,9.476935755680643],[5.908166590615735,9.488619031842916],[5.912274836714403,9.501861572353732],[5.901539803019546,9.495391845956988],[5.893920897731277,9.488788605309935],[5.890738009951235,9.489168166877448],[5.881565094153814,9.487700461607062],[5.865054131343129,9.489902495703689],[5.838269234337758,9.507881164684079],[5.833499431653479,9.509716034367557],[5.820657253129752,9.509348869055088],[5.809283257416439,9.499442101072134],[5.80304575036115,9.49210357741822],[5.798275947676871,9.482196807636626],[5.790570736250515,9.482563972049718],[5.78029727869648,9.48953533218986],[5.751677990446922,9.514118195098661],[5.742137909337089,9.526593208309976],[5.738774935015272,9.53470434762761],[5.736059425801898,9.536085542613762],[5.73523137322934,9.538341271632419],[5.736242051129807,9.540813400917784],[5.732231617095522,9.555580139411973],[5.73113059959752,9.568788528168113],[5.719756602085567,9.586033821603621],[5.713885782802663,9.601444243557069],[5.707648276646694,9.610616683613102],[5.695519676891649,9.619106790046374],[5.692536133735643,9.625025959580398],[5.685883160579465,9.625825459577356],[5.645639895664715,9.654279708741626],[5.637200832052827,9.664552688755634],[5.618121624013781,9.675193787363469],[5.601212147322769,9.679430024076396],[5.581430433867467,9.702344894601254],[5.562993940717831,9.711308060618535],[5.54749337162184,9.694582454816498],[5.541931419999059,9.695480935097123],[5.537975021729892,9.694829656863249],[5.530610451011569,9.689430559872505],[5.526517552742916,9.694948797249253],[5.51626847041365,9.703966365955068],[5.512217344754731,9.714604576839804],[5.510314310057424,9.736374445824083],[5.506632898389626,9.741009914076301],[5.50352817788314,9.747908448016517],[5.501620802158357,9.749667344772206],[5.498557175273447,9.766834392693113],[5.4931455893975,9.775540355303178],[5.490137158403172,9.782642260132263],[5.484077452712313,9.79179915360811],[5.480543081098347,9.795084904944474],[5.469023568782745,9.797704107558559],[5.458442218433674,9.796212565757344],[5.453012031879837,9.794371375638548],[5.447450949901452,9.795182141442695],[5.437901728981672,9.802518125411211],[5.433933931805541,9.804288921996203],[5.430042470883393,9.808532182414353],[5.429880501184243,9.805996391920019],[5.431088029888713,9.801849290612324],[5.4297558623432,9.797876915887002],[5.422259281940342,9.788717095117875],[5.416047155551837,9.775498579096222],[5.411294641434608,9.768122865777684],[5.407725449869645,9.764553674212721],[5.405157867441687,9.759012278393982],[5.391343972346476,9.742650844960565],[5.379929787729566,9.736038075097156],[5.373850169249977,9.731410735816837],[5.37132051842724,9.723584043069195],[5.37093837940273,9.715187601027026],[5.363640815371355,9.706381745321323],[5.360463518676511,9.695392733188157],[5.355740321558642,9.689995022052699],[5.328309070107537,9.690900232859519],[5.312467531151697,9.684732315344149],[5.306880951594678,9.685466982315404],[5.301777810697445,9.678974324105809],[5.299965511299376,9.674806577961249],[5.292052098725435,9.671087058421051],[5.287861488217175,9.662810148869312],[5.285056000034444,9.654237999983764],[5.278458125642032,9.644775953047827],[5.270878121428211,9.629467496228017],[5.272293126426689,9.61965803129317],[5.270183766567641,9.612647398658567],[5.264344983834008,9.607996598764089],[5.257709810959057,9.600896652658435],[5.254379794991621,9.59447369280673],[5.256274830219297,9.590064261956172],[5.253019049689442,9.588468771116936],[5.24306381993938,9.581136664125779],[5.229902220211329,9.574072235845051],[5.222720952010377,9.575157338940073],[5.217159888917763,9.568784724935142],[5.195720423658656,9.569631998717796],[5.180024470552894,9.578507048261713],[5.167880282848841,9.576214363402187],[5.152510180200693,9.568762535962321],[5.144481974563519,9.554106197343174],[5.136781769663003,9.542097928676526],[5.128945364237211,9.536153118571633],[5.134469122551991,9.53434489400172],[5.138332201769742,9.528295564688619],[5.147141054016458,9.523623365426033],[5.156485603627743,9.520773428251175],[5.165872433965717,9.516308845576816],[5.179872373611204,9.522303184944064],[5.188645860917802,9.523454846863729],[5.199807477233321,9.523502174585758],[5.20862881207006,9.522056480222432],[5.219015658845649,9.514483845053462],[5.22102665265794,9.508577483663998],[5.329684728867164,9.517046609813235],[5.331895135652019,9.485111636293027],[5.350763244927862,9.439180709821926],[5.350448240294099,9.436625691822258],[5.359453288638406,9.416217158994755],[5.374220947139065,9.406134668879929],[5.401624265647399,9.360279091207133],[5.411129791206974,9.355441648713168],[5.441339178860062,9.263222958272934],[5.451988265246314,9.263152932561809],[5.507367677776131,9.235214707193052],[5.497300388901863,9.206308671008401],[5.466391411434529,9.178280046686837],[5.46707325043019,9.169625152079163],[5.499950154975693,9.160805243567211],[5.507071257632504,9.140750411402394]]]]}},
{"type":"Feature","properties":{"id":520,"name":"Mokwa","area_km2":3886.6324552283609},"geometry":{"type":"Polygon","coordinates":[[[4.764554977430294,9.149931907631469],[4.768706321739387,9.153530120318862],[4.772460937322421,9.147629736723047],[4.785332679259795,9.135293961047523],[4.807594258867994,9.136369975593936],[4.812581610253176,9.132067910305864],[4.815155235225973,9.131622475197105],[4.819508033069326,9.133082530834201],[4.828239917738074,9.134222031221839],[4.848084449737598,9.141194343744019],[4.857202052732589,9.148702620729409],[4.865247250160508,9.150311470098302],[4.876071453434861,9.157646178828145],[4.876585005893332,9.161239624209315],[4.886081695613825,9.167345046936418],[4.898970127169662,9.170058250288093],[4.91118049598316,9.171414374873564],[4.962055682823575,9.193121910048148],[4.971552849184718,9.200583458260041],[4.996651172913346,9.20736694283022],[5.016323089039361,9.20533180222094],[5.032603263329975,9.197870254908366],[5.048204899136806,9.187694550063497],[5.065163611911203,9.16259670297552],[5.107899188696649,9.135462761097585],[5.159452914920109,9.106972693734861],[5.171663283733608,9.087300300968138],[5.196761608361612,9.054061889644515],[5.208971977175054,9.035068512002283],[5.225591183286554,9.026927947766637],[5.237801074559968,9.018788337711669],[5.272396562851156,9.014718055593846],[5.28664159833113,9.009969710733628],[5.297495365019131,9.00318622616345],[5.307670114784003,9.000473021912455],[5.323272228130861,8.99233245767681],[5.332090377568932,8.995724677951557],[5.348370551859546,8.998437881303232],[5.37007761039348,8.996402739794632],[5.375504493737424,8.990297317966906],[5.391106128644992,8.982835769755013],[5.408064842318652,8.978766440918548],[5.425023079351661,8.978766440918548],[5.457583427033569,8.968590736073679],[5.46640205401161,8.954345703291608],[5.473863602223503,8.947562217822167],[5.485395431653899,8.944849013571172],[5.511850834148731,8.944170951728097],[5.52541780508767,8.940100669610274],[5.539562701957152,8.930567740808613],[5.543629169150904,8.91674137121737],[5.563148021564018,8.898848534432375],[5.572907924860885,8.892342567155822],[5.601373196116128,8.876889228655045],[5.60543966330988,8.86794280981286],[5.619266032901123,8.852490424593441],[5.642038344693901,8.835411073162561],[5.665624141840738,8.830531119715431],[5.691649913912443,8.828091622330533],[5.712795734335714,8.828905105885951],[5.728248118655813,8.819958687043822],[5.742074490045752,8.797999382165813],[5.760780333745458,8.773600579003585],[5.778542390219172,8.794121473127518],[5.791196001594244,8.800419440704673],[5.801509274833222,8.810333235090752],[5.806933479996133,8.841649541593142],[5.811742459846698,8.851100090696661],[5.777059938765206,8.865539976888499],[5.788653512049962,8.882715550382386],[5.759827613553568,8.902132033866337],[5.75116612421732,8.901647282196393],[5.747129439871799,8.905179024192648],[5.739002705410599,8.90924262974363],[5.722240925278527,8.915845871290003],[5.7113208767571,8.913814544705531],[5.695574760366924,8.917877197874418],[5.684400558039385,8.916354179801601],[5.650876998674619,8.927020072718221],[5.626354445201514,8.942910750630688],[5.616571817835165,8.950806614733551],[5.608857352384973,8.952904181782628],[5.586878300193462,8.953940392335312],[5.570034634091144,8.963776754193873],[5.566506055909827,8.967682287707476],[5.560986090036067,8.971158638660313],[5.546244144052082,8.974257468607334],[5.527214372645233,8.979741367170391],[5.513506721657905,8.996752256811249],[5.505205149098401,9.00579531230386],[5.502648773122417,9.016418115103988],[5.495959282095214,9.018955231199016],[5.491895675644969,9.025050163334413],[5.485184380554756,9.018601669931172],[5.47171984509481,9.013089291637527],[5.451914135928689,9.026098725176098],[5.451938957217124,9.03547942843295],[5.444564936422751,9.048170733092888],[5.42840480723612,9.062637329149482],[5.410627365160849,9.063144684379722],[5.407071589682175,9.067208289930704],[5.408087730064722,9.070763587869351],[5.414182663099496,9.081430434966649],[5.432722091751202,9.102763175879886],[5.442372799365273,9.103271485290861],[5.463705539379191,9.109366417426259],[5.475895882089333,9.109874725038594],[5.489610195254329,9.104287148133437],[5.498244761586534,9.103779792903197],[5.502816199907727,9.105302810976013],[5.51195907565085,9.113430022977241],[5.515006541718549,9.119524956911278],[5.500276565710976,9.13882637034078],[5.507071257632504,9.140750411402394],[5.499950154975693,9.160805243567211],[5.46707325043019,9.169625152079163],[5.466391411434529,9.178280046686837],[5.497300388901863,9.206308671008401],[5.507367677776131,9.235214707193052],[5.451988265246314,9.263152932561809],[5.441339178860062,9.263222958272934],[5.411129791206974,9.355441648713168],[5.401624265647399,9.360279091207133],[5.374220947139065,9.406134668879929],[5.359453288638406,9.416217158994755],[5.350448240294099,9.436625691822258],[5.350763244927862,9.439180709821926],[5.331895135652019,9.485111636293027],[5.329684728867164,9.517046609813235],[5.22102665265794,9.508577483663998],[5.209435860976271,9.496645840832912],[5.185956881704783,9.46938511702956],[5.150313853201794,9.4522180556188],[5.098392999437408,9.4361720000378],[5.068534000243972,9.422480999998186],[5.034302114151274,9.397665993291014],[5.020715000197129,9.388746000127867],[4.993304747016509,9.375443170865708],[4.964312074642578,9.364125335116171],[4.94587939461843,9.355764717567695],[4.919206617891177,9.355203628744505],[4.913619517626671,9.356219291587081],[4.892286300972046,9.366886137785059],[4.884159564712206,9.366886137785059],[4.877556324065154,9.36841010913929],[4.865874289866611,9.368917465268851],[4.861302853344057,9.372473717388175],[4.853683948955108,9.375013350685663],[4.847080707408793,9.378568648624309],[4.839461803019844,9.386187553013201],[4.827157612433894,9.407861365409758],[4.822960442270642,9.426527244137048],[4.827047334866677,9.45484373784825],[4.84994097419667,9.493684393120304],[4.822979980941398,9.553872968962423],[4.759984818844373,9.581519848162486],[4.697919446025651,9.614911461694646],[4.567862329982574,9.599223661842586],[4.547557515966616,9.559668058134434],[4.571389712964901,9.495543573277359],[4.611859321050872,9.427962303117852],[4.613642216215339,9.393219948341994],[4.611769198190018,9.370743751822715],[4.609726906171829,9.361758232256648],[4.617050171028609,9.330439567731901],[4.639310360284924,9.308178900935559],[4.685140131911623,9.292466163782478],[4.713947295731145,9.278062819743411],[4.737516879900113,9.268896102972803],[4.754539488606554,9.247945786169169],[4.757158279331179,9.224376677741532],[4.751920699680568,9.199497222918524],[4.751920699680568,9.179856300128222],[4.764554977430294,9.149931907631469]]]}},
{"type":"Feature","properties":{"id":522,"name":"Edati","area_km2":1048.9893070123569},"geometry":{"type":"Polygon","coordinates":[[[5.837449074215442,9.131628989885996],[5.843348026090553,9.144903182935593],[5.842543839726488,9.149453813642651],[5.836307141161683,9.165005467828109],[5.830348761186428,9.171737745000996],[5.809107530787969,9.170402410043209],[5.783253477965673,9.190730360917485],[5.769550820913707,9.187001275288651],[5.752207218088699,9.186904477659539],[5.712891042687545,9.189858422328371],[5.677220479641448,9.200528242584369],[5.642337799150141,9.189767838115301],[5.633532046866492,9.189400672802833],[5.627294539811203,9.186465263161438],[5.615186214372329,9.183057345220334],[5.608574422971287,9.171635998402678],[5.604178904632818,9.168119430667218],[5.597313086229974,9.166489761093658],[5.585721176690981,9.16157031661686],[5.576560105864246,9.156296421442732],[5.566311206996659,9.153932423042932],[5.545491299983553,9.151470195293314],[5.500276565710976,9.13882637034078],[5.515006541718549,9.119524956911278],[5.51195907565085,9.113430022977241],[5.502816199907727,9.105302810976013],[5.498244761586534,9.103779792903197],[5.489610195254329,9.104287148133437],[5.475895882089333,9.109874725038594],[5.463705539379191,9.109366417426259],[5.442372799365273,9.103271485290861],[5.432722091751202,9.102763175879886],[5.414182663099496,9.081430434966649],[5.408087730064722,9.070763587869351],[5.407071589682175,9.067208289930704],[5.410627365160849,9.063144684379722],[5.42840480723612,9.062637329149482],[5.444564936422751,9.048170733092888],[5.451938957217124,9.03547942843295],[5.451914135928689,9.026098725176098],[5.47171984509481,9.013089291637527],[5.485184380554756,9.018601669931172],[5.491895675644969,9.025050163334413],[5.495959282095214,9.018955231199016],[5.502648773122417,9.016418115103988],[5.505205149098401,9.00579531230386],[5.513506721657905,8.996752256811249],[5.527214372645233,8.979741367170391],[5.546244144052082,8.974257468607334],[5.560986090036067,8.971158638660313],[5.566506055909827,8.967682287707476],[5.570034634091144,8.963776754193873],[5.586878300193462,8.953940392335312],[5.608857352384973,8.952904181782628],[5.616571817835165,8.950806614733551],[5.626354445201514,8.942910750630688],[5.650876998674619,8.927020072718221],[5.684400558039385,8.916354179801601],[5.695574760366924,8.917877197874418],[5.7113208767571,8.913814544705531],[5.722240925278527,8.915845871290003],[5.739002705410599,8.90924262974363],[5.747129439871799,8.905179024192648],[5.75116612421732,8.901647282196393],[5.759827613553568,8.902132033866337],[5.788653512049962,8.882715550382386],[5.777059938765206,8.865539976888499],[5.811742459846698,8.851100090696661],[5.821719657336359,8.870707159407914],[5.816842099683186,8.912624042865332],[5.82949053905719,8.931376391407412],[5.832156811287859,8.938029045304233],[5.837540626099042,8.944290162261211],[5.837032795127413,8.950893402008944],[5.838103790557511,8.967737244378384],[5.833679218720988,8.97658638805143],[5.832777160037949,8.985207811691225],[5.824753378165894,8.990126312779182],[5.818116758281803,9.000449837390136],[5.817447918086998,9.022216422949612],[5.815973059609064,9.031802757091612],[5.809889789881936,9.046335535156857],[5.819750785970029,9.071898460345722],[5.823437690696892,9.095495223825594],[5.825650215385167,9.100657462771721],[5.829337120112029,9.105819701717905],[5.837449074215442,9.131628989885996]]]}},
{"type":"Feature","properties":{"id":654,"name":"Rafi","area_km2":3839.6973812400506},"geometry":{"type":"Polygon","coordinates":[[[6.092243006109868,10.521783838853139],[6.081712246223219,10.468907355590034],[6.062837123134784,10.460071564151406],[6.054002284078194,10.453646659965443],[6.047576426610874,10.442401886038283],[6.045166968380954,10.432763098937926],[6.044229013258416,10.418338142391406],[6.039544582316694,10.407864571292976],[6.037938117949807,10.397423743610943],[6.041819078387789,10.384603819710549],[6.041016083625379,10.374965986790926],[6.04503200532281,10.363721213763029],[6.043425541855299,10.349263511102208],[6.041000284335723,10.339593888047546],[6.043409741666267,10.329955100947188],[6.045166969280274,10.314695357704636],[6.055608272703694,10.306663513410456],[6.058821201437354,10.297827721072508],[6.054002284977514,10.288189888152885],[6.048379898013934,10.282567977829956],[6.041954041445877,10.273732184592689],[6.037938117949807,10.247227669221616],[6.031512737123194,10.235982895294455],[6.018661976369174,10.228754043963988],[6.023480891929694,10.213493347440078],[6.025087357195844,10.195019722182508],[6.021071433699774,10.183775902436025],[6.022275925393672,10.166908264005201],[6.017457008034569,10.158876418811701],[6.019866467163752,10.149238585892078],[6.025940900152477,10.145636352335828],[6.03125185728743,10.140582377374869],[6.031994249435115,10.134928777641051],[6.031366071187279,10.132416067347663],[6.031737267261121,10.127876054936053],[6.029909841266203,10.125848753717037],[6.020306337267698,10.124104609440224],[6.016975091027689,10.121963094321416],[6.012025812441323,10.120487829349884],[6.011031628107219,10.117914199880488],[6.014244080200172,10.111488343312431],[6.024685860264299,10.111488343312431],[6.030308246328559,10.104259491082701],[6.043129108221819,10.094094707604711],[6.052528157648396,10.090943522725468],[6.0579306846534,10.084761284405772],[6.060131689026264,10.076897262598663],[6.057275848701522,10.073520024129834],[6.05164343879369,10.075175218261791],[6.043213112994806,10.084363915362474],[6.035657320329108,10.088821940180424],[6.025820938685399,10.083852568940927],[6.022275925393672,10.075345039042361],[6.005409241143639,10.075345039042361],[5.999166489242157,10.070350646864938],[5.999882697628436,10.064620018399182],[5.997373104385304,10.059600830114277],[5.992353916100399,10.053744316347149],[5.99151754389959,10.032831191906041],[5.996536732184495,10.024466514817846],[5.996536732184495,10.010245323063259],[5.999882697628436,10.009408950862451],[6.004065513712533,10.006898880978611],[6.004065513712533,10.001879691794386],[5.996536732184495,9.991841316123896],[5.994863510242851,9.987658500939119],[5.99151754389959,9.985149384336694],[5.987334727815494,9.985149384336694],[5.9814791682291,9.982639312654214],[5.979805946287456,9.975947380866955],[5.988171100915622,9.956707000827464],[5.98566150677317,9.950015068140942],[5.980642319387584,9.942486763253555],[5.968094826215292,9.936630248587164],[5.950527668117445,9.924919127615681],[5.856021808359799,9.811565283611003],[5.849307535614344,9.792747497698883],[5.907776593315191,9.78250402174325],[5.97229493086644,9.775022925867404],[6.0007598927549,9.780553612559231],[6.041590832251131,9.796683133320016],[6.07398995037596,9.817365083431923],[6.078573657248512,9.811037773674343],[6.080959304128612,9.80945241909393],[6.137955246237652,9.812912471633297],[6.14296522636414,9.821108075277493],[6.166658522173122,9.832707775643371],[6.194258162684093,9.882421076171795],[6.234438290694584,9.893507260951367],[6.235034185978975,9.904984088744754],[6.236912411978267,9.917025355335909],[6.24935744269186,9.915705487818059],[6.252847029866587,9.911152574631672],[6.260049218096981,9.913732345571361],[6.26839755989954,9.907959985864693],[6.2751724793265,9.90514374808555],[6.284515787873374,9.904731202083383],[6.294977582349588,9.89958769781407],[6.300855174426829,9.895669037795926],[6.309528081555754,9.895241120581318],[6.315037726809692,9.898644446584001],[6.324676037269342,9.909085274266033],[6.334314345930352,9.910692215273571],[6.341543198160139,9.910692215273571],[6.372867584171729,9.893021583879033],[6.394553660622989,9.87535190576591],[6.431499957856829,9.854468345637713],[6.461217880400909,9.860894203105033],[6.473265648191159,9.866516113427963],[6.480494498622249,9.876957892592714],[6.48611688558583,9.882579802915643],[6.490132809081899,9.888202667419193],[6.496558189009249,9.894628524886571],[6.50218057597283,9.901856422036303],[6.504590034202749,9.909888268129123],[6.504590034202749,9.917920113322623],[6.498164654275399,9.925148963753713],[6.498164654275399,9.937196732443283],[6.50218057597283,9.950048447377981],[6.511015415029419,9.959686279398341],[6.544347763238704,9.970128060361731],[6.549167156339252,9.974946975922251],[6.556395531028954,9.976552962749054],[6.559608458863352,9.984584807942554],[6.545151233742502,10.002255440236411],[6.544347763238704,10.026350974917591],[6.548363684936135,10.034382820111091],[6.549970150202341,10.04080772519643],[6.549167156339252,10.05205249822427],[6.540331840641954,10.068920134856398],[6.541135311145752,10.089802741703238],[6.537922382412091,10.098637580759771],[6.525874614621841,10.113095284319968],[6.517039298924544,10.119520186707291],[6.491337298977214,10.135583877993611],[6.488927840747294,10.138796805827951],[6.478486538223194,10.143615723187111],[6.475518985013196,10.142652492618481],[6.461531582816349,10.12648773731928],[6.455727453659108,10.121858114660313],[6.42949365310966,10.119200911193161],[6.422247107617977,10.117481745586133],[6.415354427365003,10.116895527006989],[6.412777954239232,10.117734489255326],[6.440091604044312,10.15805801956202],[6.434438882048823,10.17742303214726],[6.424598548784047,10.19134207867404],[6.415353413829052,10.206197723246362],[6.376431345630124,10.207116305173372],[6.364321806106489,10.255937840658873],[6.374141438776405,10.272886395590717],[6.380854821193111,10.280266289857423],[6.428451608654882,10.311369868025054],[6.44583158186208,10.309645582577616],[6.491066594947426,10.299671550701532],[6.492943764243364,10.305859566266008],[6.501779079041341,10.321120261890599],[6.505795001638091,10.330759048990956],[6.509810925134161,10.337987901220686],[6.512220383364024,10.346822740277275],[6.525874614621841,10.361279487858155],[6.541938305008841,10.374131202792796],[6.546757220569305,10.382163048885673],[6.550773620706082,10.390997887942206],[6.550773620706082,10.404651641659996],[6.553527209912829,10.42105994056385],[6.55950847943285,10.439085647684522],[6.559835007079982,10.450824968697418],[6.558382765652141,10.4625357416312],[6.554502507584687,10.474246514565039],[6.547560691972421,10.481758118142693],[6.544347763238704,10.489789963336193],[6.541938305008841,10.498624802392783],[6.540331840641954,10.510672569283713],[6.541938305008841,10.519507408340246],[6.541938305008841,10.528343200678194],[6.540331840641954,10.545209884928283],[6.532299995448454,10.553241730121783],[6.525071620758752,10.564486504048944],[6.52159309434586,10.572834969058647],[6.521055698162002,10.582156181262803],[6.524268150254954,10.595006942916143],[6.513826846831591,10.605448722980213],[6.49454360780129,10.615692841951159],[6.486457814976234,10.609221530049638],[6.482963922746876,10.604911270139041],[6.480396982434854,10.607399314726649],[6.477117002048033,10.608065125105497],[6.472410943310422,10.606102729757197],[6.46920293206972,10.600335167933679],[6.459897106366441,10.5941879231342],[6.457294513331192,10.593872522798733],[6.455775669911304,10.595733006073431],[6.450375080045944,10.595006942916143],[6.446657449981387,10.594210514103963],[6.44588588562516,10.590613388696966],[6.438684190223228,10.589947539647312],[6.435582469855149,10.590823655587258],[6.431232931154909,10.586898633764974],[6.429521637313769,10.582938515000535],[6.42442340581556,10.577085856627036],[6.409944015104259,10.574996761191642],[6.408415676642221,10.573300844858124],[6.40638351458756,10.572810191836936],[6.402426147748542,10.574422335422469],[6.397239953561041,10.572697538260854],[6.397114006206493,10.569445693164255],[6.395438364189204,10.567588193840095],[6.392738609299442,10.562005141424208],[6.391202833444083,10.56131063008155],[6.391809541277382,10.556893008205805],[6.386467063803991,10.550863813814033],[6.382946451817361,10.540433602628696],[6.369829007003091,10.527920417693167],[6.355332566045149,10.511202500195282],[6.32708856668404,10.495207666400745],[6.315423916380666,10.480156502020975],[6.323816831281761,10.453547257000366],[6.322542867859113,10.446815621943472],[6.320051984111842,10.44057002998295],[6.317028698115962,10.438961864098815],[6.310691792592195,10.433054936136443],[6.302292554557823,10.431351007742876],[6.304574280278871,10.425684821097661],[6.303736752449197,10.423976845754851],[6.300619290348038,10.422356120838344],[6.296302135335338,10.418000785108177],[6.293202790976068,10.422030808175293],[6.291405932038174,10.423096744019574],[6.288705891164,10.424041123898803],[6.286186831657005,10.42350814068817],[6.287565028303447,10.420263588194075],[6.287165725717728,10.414410187879923],[6.285906548948105,10.413759183939248],[6.254453987061879,10.427448306194435],[6.244222374063384,10.411937327445742],[6.235651125399158,10.384797583142017],[6.231892533014047,10.386461647287263],[6.225998163184727,10.384588284821518],[6.221930320028321,10.385793048110713],[6.219358076414153,10.389433821213913],[6.216713250316275,10.389381637152894],[6.213812881859042,10.382306517731649],[6.209261991247956,10.374886760115942],[6.207146641004726,10.373063161635628],[6.204627236158046,10.372502053027347],[6.196736268863788,10.378323507623804],[6.194573383155159,10.378861227563675],[6.192777929857641,10.378691566862358],[6.191293402768395,10.377154549942588],[6.184234314661921,10.375260827725072],[6.1825705571855,10.373764545597339],[6.180547147333016,10.366005872173332],[6.172112648679843,10.358661050567093],[6.169712083845639,10.358468160377356],[6.170851925975626,10.3650323218842],[6.169308028342869,10.366353168763794],[6.170092371166049,10.369018481417811],[6.169212955613432,10.371309693187811],[6.171518450416215,10.374582826136589],[6.170900483070909,10.376383035948379],[6.172357459429236,10.377104285034761],[6.173099019704068,10.380901046446183],[6.177305478065421,10.385771565105699],[6.176020699395792,10.386344164351726],[6.175100879102331,10.388062481898089],[6.172284375123866,10.388504332309139],[6.169838649933808,10.392417844607905],[6.170371053081681,10.393722339114731],[6.169572448809504,10.395471006981438],[6.166311482788728,10.39638741614641],[6.166435075718198,10.39763111108698],[6.165332243388377,10.398884151782227],[6.164381524188059,10.39862232316176],[6.162917831692653,10.403930980730252],[6.164511871026093,10.408126381927048],[6.162284812394205,10.409593277807573],[6.16156424589326,10.4125154404353],[6.162664910857018,10.414355161061906],[6.161531072600951,10.415409182687654],[6.161385986773894,10.417576424712252],[6.174896222182952,10.442200313793478],[6.158331775790884,10.500831663150791],[6.092243006109868,10.521783838853139]]]}},
{"type":"Feature","properties":{"id":661,"name":"Mashegu","area_km2":8727.2626255573668},"geometry":{"type":"Polygon","coordinates":[[[5.581430433867467,9.702344894601254],[5.587161519188783,9.728726416890652],[5.631809711149288,9.729171753074013],[5.656953586438931,9.727331616960612],[5.658159703207787,9.726898838910358],[5.658742195895684,9.725543497634362],[5.661151826795447,9.727024370778111],[5.666107655144231,9.726661682290853],[5.685347556744375,9.734190941358918],[5.710443497269637,9.74088287404544],[5.728847026668973,9.74088287404544],[5.762308597563788,9.73084449837495],[5.782384872264117,9.716623305721043],[5.799115658161156,9.713277816917753],[5.817519187560492,9.722478867106076],[5.844288349128078,9.769325255755973],[5.849440796255806,9.783678753072024],[5.849307535614344,9.792747497698883],[5.856021808359799,9.811565283611003],[5.950527668117445,9.924919127615681],[5.968094826215292,9.936630248587164],[5.980642319387584,9.942486763253555],[5.98566150677317,9.950015068140942],[5.988171100915622,9.956707000827464],[5.979805946287456,9.975947380866955],[5.9814791682291,9.982639312654214],[5.987334727815494,9.985149384336694],[5.99151754389959,9.985149384336694],[5.994863510242851,9.987658500939119],[5.996536732184495,9.991841316123896],[6.004065513712533,10.001879691794386],[6.004065513712533,10.006898880978611],[5.999882697628436,10.009408950862451],[5.996536732184495,10.010245323063259],[5.996536732184495,10.024466514817846],[5.99151754389959,10.032831191906041],[5.992353916100399,10.053744316347149],[5.997373104385304,10.059600830114277],[5.999882697628436,10.064620018399182],[5.999166489242157,10.070350646864938],[5.99151754389959,10.083023071157868],[5.982315540429909,10.090552330225933],[5.972277163860099,10.095571517611518],[5.947181225133477,10.121503830337531],[5.933796883119726,10.137397765594471],[5.902845383008071,10.157474517834771],[5.878585814683674,10.166676521304453],[5.857332947057898,10.163745988686458],[5.824619848627151,10.160637012588097],[5.807306564646296,10.16159310703631],[5.757631165146222,10.185550183893895],[5.736141047371461,10.223546167121981],[5.717135905697546,10.236945151897316],[5.697059155255886,10.228579520628443],[5.651050091188779,10.215194701973985],[5.636828899434192,10.216031075074113],[5.612569808649823,10.216031075074113],[5.580781459696652,10.218541144957896],[5.540627956115316,10.21686840055628],[5.51218605014617,10.205992699403623],[5.49963808123249,10.205156326303438],[5.467013359179248,10.19428157843214],[5.456974982609381,10.19428157843214],[5.436061859067593,10.212685585371503],[5.427696705338747,10.221887589740504],[5.415985106827293,10.23276233671254],[5.412639141383295,10.241963386900807],[5.406783580897581,10.246146202085583],[5.390052795000543,10.251165390370545],[5.379178047129244,10.25283908805352],[5.352408885561658,10.247819900667935],[5.335678576305327,10.24280071328235],[5.325640202433419,10.24280071328235],[5.293015478581538,10.251165390370545],[5.271265507097496,10.258694647639913],[5.240314006985898,10.262040138241844],[5.19095897657553,10.275424956896302],[5.167696475811738,10.28388404841013],[5.160425663013996,10.277097702197239],[5.156242846929899,10.271242141711525],[5.132820129245601,10.255348205555265],[5.108560561820525,10.23276233671254],[5.088484286220876,10.223560333242858],[5.062551497753475,10.216031074174794],[5.037455559026853,10.207666397086598],[5.009013652158387,10.200973511118718],[4.97889852514686,10.199300765817725],[4.951293468019173,10.172532081790166],[4.928707123435061,10.16416645142067],[4.921178341007703,10.144089699180313],[4.917831897124415,10.117321014253434],[4.91281270973883,10.103099823398168],[4.911976335739325,10.078840255973091],[4.909466743395512,10.063782692017696],[4.909466743395512,10.036177634890009],[4.906038320911819,10.026025471598302],[4.905891999416269,10.008759000027851],[4.903940999377653,9.984258999753081],[4.889928999823553,9.964944999412239],[4.864197999438147,9.958216999415015],[4.839851999969881,9.968361999606657],[4.820548000090184,9.98479400014304],[4.793870000100469,9.998852000019838],[4.779778999601206,9.996173999730331],[4.759529194416814,9.9904017740227],[4.736591548561194,9.97608748265128],[4.721142999849633,9.956099999815194],[4.694315017224312,9.93536933702535],[4.690875334329291,9.916607169685165],[4.683922618034444,9.894881735303898],[4.671970158595968,9.884606396368156],[4.648416650707929,9.860061581077161],[4.63676290558368,9.852526991727359],[4.621216132918221,9.819110477766401],[4.625707874219074,9.817996483051274],[4.638998542848526,9.794069198035118],[4.636675629077047,9.777193223788288],[4.63845882371578,9.761283108828479],[4.633689502168863,9.740841562787921],[4.60971542722524,9.698896035024063],[4.584631277711367,9.648563793184564],[4.567862329982574,9.599223661842586],[4.697919446025651,9.614911461694646],[4.759984818844373,9.581519848162486],[4.822979980941398,9.553872968962423],[4.84994097419667,9.493684393120304],[4.827047334866677,9.45484373784825],[4.822960442270642,9.426527244137048],[4.827157612433894,9.407861365409758],[4.839461803019844,9.386187553013201],[4.847080707408793,9.378568648624309],[4.853683948955108,9.375013350685663],[4.861302853344057,9.372473717388175],[4.865874289866611,9.368917465268851],[4.877556324065154,9.36841010913929],[4.884159564712206,9.366886137785059],[4.892286300972046,9.366886137785059],[4.913619517626671,9.356219291587081],[4.919206617891177,9.355203628744505],[4.94587939461843,9.355764717567695],[4.964312074642578,9.364125335116171],[4.993304747016509,9.375443170865708],[5.020715000197129,9.388746000127867],[5.034302114151274,9.397665993291014],[5.068534000243972,9.422480999998186],[5.098392999437408,9.4361720000378],[5.150313853201794,9.4522180556188],[5.185956881704783,9.46938511702956],[5.209435860976271,9.496645840832912],[5.22102665265794,9.508577483663998],[5.219015658845649,9.514483845053462],[5.20862881207006,9.522056480222432],[5.199807477233321,9.523502174585758],[5.188645860917802,9.523454846863729],[5.179872373611204,9.522303184944064],[5.165872433965717,9.516308845576816],[5.156485603627743,9.520773428251175],[5.147141054016458,9.523623365426033],[5.138332201769742,9.528295564688619],[5.134469122551991,9.53434489400172],[5.128945364237211,9.536153118571633],[5.136781769663003,9.542097928676526],[5.144481974563519,9.554106197343174],[5.152510180200693,9.568762535962321],[5.167880282848841,9.576214363402187],[5.180024470552894,9.578507048261713],[5.195720423658656,9.569631998717796],[5.217159888917763,9.568784724935142],[5.222720952010377,9.575157338940073],[5.229902220211329,9.574072235845051],[5.24306381993938,9.581136664125779],[5.253019049689442,9.588468771116936],[5.256274830219297,9.590064261956172],[5.254379794991621,9.59447369280673],[5.257709810959057,9.600896652658435],[5.264344983834008,9.607996598764089],[5.270183766567641,9.612647398658567],[5.272293126426689,9.61965803129317],[5.270878121428211,9.629467496228017],[5.278458125642032,9.644775953047827],[5.285056000034444,9.654237999983764],[5.287861488217175,9.662810148869312],[5.292052098725435,9.671087058421051],[5.299965511299376,9.674806577961249],[5.301777810697445,9.678974324105809],[5.306880951594678,9.685466982315404],[5.312467531151697,9.684732315344149],[5.328309070107537,9.690900232859519],[5.355740321558642,9.689995022052699],[5.360463518676511,9.695392733188157],[5.363640815371355,9.706381745321323],[5.37093837940273,9.715187601027026],[5.37132051842724,9.723584043069195],[5.373850169249977,9.731410735816837],[5.379929787729566,9.736038075097156],[5.391343972346476,9.742650844960565],[5.405157867441687,9.759012278393982],[5.407725449869645,9.764553674212721],[5.411294641434608,9.768122865777684],[5.416047155551837,9.775498579096222],[5.422259281940342,9.788717095117875],[5.4297558623432,9.797876915887002],[5.431088029888713,9.801849290612324],[5.429880501184243,9.805996391920019],[5.430042470883393,9.808532182414353],[5.433933931805541,9.804288921996203],[5.437901728981672,9.802518125411211],[5.447450949901452,9.795182141442695],[5.453012031879837,9.794371375638548],[5.458442218433674,9.796212565757344],[5.469023568782745,9.797704107558559],[5.480543081098347,9.795084904944474],[5.484077452712313,9.79179915360811],[5.490137158403172,9.782642260132263],[5.4931455893975,9.775540355303178],[5.498557175273447,9.766834392693113],[5.501620802158357,9.749667344772206],[5.50352817788314,9.747908448016517],[5.506632898389626,9.741009914076301],[5.510314310057424,9.736374445824083],[5.512217344754731,9.714604576839804],[5.51626847041365,9.703966365955068],[5.526517552742916,9.694948797249253],[5.530610451011569,9.689430559872505],[5.537975021729892,9.694829656863249],[5.541931419999059,9.695480935097123],[5.54749337162184,9.694582454816498],[5.562993940717831,9.711308060618535],[5.581430433867467,9.702344894601254]]]}},
{"type":"Feature","properties":{"id":662,"name":"Wushishi","area_km2":1824.5823463261888},"geometry":{"type":"Polygon","coordinates":[[[5.912274836714403,9.501861572353732],[5.922989845205223,9.516564369050457],[5.924464702783837,9.526151657373134],[5.926677226572792,9.53057575166963],[5.934788704035498,9.539424896241997],[5.951012134702296,9.551223755072272],[5.972397326775251,9.556385994018456],[5.979034424199369,9.556385994018456],[5.984196185605526,9.5541734702295],[5.98935842455171,9.553436278861227],[5.997469902014416,9.548250873379175],[6.0013864872966,9.544188843440395],[6.005775999962452,9.541358999818044],[6.015149999672815,9.536842000158231],[6.036828833883646,9.530946407250951],[6.087680891060302,9.547959143199932],[6.095547198944132,9.558597565425373],[6.132186197834812,9.545915446440745],[6.132452558139107,9.544174108048708],[6.149195790653266,9.538826641136609],[6.164477158993748,9.511847154222835],[6.189619667313821,9.512169132199745],[6.194648966676539,9.517914184891765],[6.220955204019504,9.53365910788159],[6.216516484947874,9.556619183728401],[6.183337375819292,9.5779298202051],[6.179858423127769,9.621454483737466],[6.184796467383137,9.628257773177722],[6.203738436179947,9.632944926367315],[6.207220995152852,9.657925989293005],[6.202627065686556,9.693344707092592],[6.210245150793128,9.705001564770441],[6.217092905413324,9.710271895031951],[6.254822180299414,9.701046741214157],[6.283149730275852,9.703303585392177],[6.286218505779459,9.726681968298237],[6.303583581716964,9.775665331389973],[6.30670438120228,9.805925971406509],[6.301327822121323,9.815508883628127],[6.265509028319059,9.84410348908483],[6.234438290694584,9.893507260951367],[6.194258162684093,9.882421076171795],[6.166658522173122,9.832707775643371],[6.14296522636414,9.821108075277493],[6.137955246237652,9.812912471633297],[6.080959304128612,9.80945241909393],[6.078573657248512,9.811037773674343],[6.07398995037596,9.817365083431923],[6.041590832251131,9.796683133320016],[6.0007598927549,9.780553612559231],[5.97229493086644,9.775022925867404],[5.907776593315191,9.78250402174325],[5.849307535614344,9.792747497698883],[5.849440796255806,9.783678753072024],[5.844288349128078,9.769325255755973],[5.817519187560492,9.722478867106076],[5.799115658161156,9.713277816917753],[5.782384872264117,9.716623305721043],[5.762308597563788,9.73084449837495],[5.728847026668973,9.74088287404544],[5.710443497269637,9.74088287404544],[5.685347556744375,9.734190941358918],[5.666107655144231,9.726661682290853],[5.661151826795447,9.727024370778111],[5.658742195895684,9.725543497634362],[5.658159703207787,9.726898838910358],[5.656953586438931,9.727331616960612],[5.631809711149288,9.729171753074013],[5.587161519188783,9.728726416890652],[5.581430433867467,9.702344894601254],[5.601212147322769,9.679430024076396],[5.618121624013781,9.675193787363469],[5.637200832052827,9.664552688755634],[5.645639895664715,9.654279708741626],[5.685883160579465,9.625825459577356],[5.692536133735643,9.625025959580398],[5.695519676891649,9.619106790046374],[5.707648276646694,9.610616683613102],[5.713885782802663,9.601444243557069],[5.719756602085567,9.586033821603621],[5.73113059959752,9.568788528168113],[5.732231617095522,9.555580139411973],[5.736242051129807,9.540813400917784],[5.73523137322934,9.538341271632419],[5.736059425801898,9.536085542613762],[5.738774935015272,9.53470434762761],[5.742137909337089,9.526593208309976],[5.751677990446922,9.514118195098661],[5.78029727869648,9.48953533218986],[5.790570736250515,9.482563972049718],[5.798275947676871,9.482196807636626],[5.80304575036115,9.49210357741822],[5.809283257416439,9.499442101072134],[5.820657253129752,9.509348869055088],[5.833499431653479,9.509716034367557],[5.838269234337758,9.507881164684079],[5.865054131343129,9.489902495703689],[5.881565094153814,9.487700461607062],[5.890738009951235,9.489168166877448],[5.893920897731277,9.488788605309935],[5.901539803019546,9.495391845956988],[5.912274836714403,9.501861572353732]]]}}
]
}
