{
"type": "FeatureCollection",
"name": "districts",
"crs": { "type": "name", "properties": { "name": "urn:ogc:def:crs:OGC:1.3:CRS84" } },
"features": [
{"type":"Feature","properties":{"id":56,"name":"Dera Ghazi Khan","area_km2":15751.421535467167},"geometry":{"type":"Polygon","coordinates":[[[69.963661821236144,30.274224615173921],[70.00701211791494,30.260852887950477],[70.021255785526137,30.248549290017763],[70.029925845401522,30.227683146160302],[70.026935836120003,30.207613278230269],[70.001232884689955,30.182784194435101],[69.95889861058248,30.137030024316232],[69.95738667215727,30.050693007076688],[69.949826980930482,30.025824441244993],[69.928659843876744,30.016660765082293],[69.905980769297116,30.00880551076574],[69.901444954021486,29.962970801861047],[69.893885262794697,29.939390431223501],[69.87423006416617,29.926287808135896],[69.87423006416617,29.889591289506484],[69.854574866437019,29.868615782692245],[69.837943544658913,29.848947239023914],[69.819800283556276,29.830586434616293],[69.813752530754755,29.805662803295775],[69.791073455275807,29.780732959458589],[69.763858565420492,29.737419001685623],[69.741179491740183,29.695399717822795],[69.716988477836026,29.677010752044623],[69.665582574076609,29.667815006057708],[69.645927375448082,29.661246102425764],[69.635343807370873,29.65599067123253],[69.621736362443244,29.634966199030885],[69.621736362443244,29.620509328242974],[69.608128917515614,29.6073649172572],[69.594521472587928,29.599477449224935],[69.593009534162718,29.575811342619431],[69.596033411013138,29.531093558421048],[69.589985657312297,29.486355994533596],[69.583937904510719,29.473194125908208],[69.5718423980083,29.462663400195822],[69.56730658273267,29.444231999906947],[69.56881852025856,29.421846512606521],[69.573354336433511,29.406042023020973],[69.586961780461877,29.398138855523825],[69.618712485592766,29.398138855523825],[69.623248300868454,29.384965546622709],[69.641391561071714,29.374425670308483],[69.647439313873292,29.307208313512888],[69.665582574076609,29.276880107431055],[69.683725833380549,29.26369112154805],[69.707916847284707,29.265010096938454],[69.718500416261236,29.267647995558605],[69.732107861188922,29.268966919687671],[69.762346626995281,29.250500435047115],[69.763858565420492,29.225433444597854],[69.753274997343283,29.204319640938706],[69.733619798714813,29.183201486359565],[69.736643675565233,29.155477310429603],[69.726060107488024,29.115858360275183],[69.704892970434287,29.094722010612372],[69.700357156057976,29.068295471858619],[69.627784116144085,29.011455470393685],[69.618712485592766,28.987652688420894],[69.596033411013138,28.970458382948038],[69.588473718887087,28.944000025281014],[69.556723014655461,28.913564559756651],[69.520436494248884,28.888415480989693],[69.502293234045567,28.864584418036486],[69.491709665968358,28.836774604164702],[69.491709665968358,28.82220459146879],[69.499269358094466,28.804982856673575],[69.514388741447306,28.793058449787679],[69.537067816026934,28.779807508709609],[69.55369913780504,28.759927940921784],[69.55521107623025,28.733415961177741],[69.535555877601723,28.713527561148055],[69.509852925272355,28.700266525180041],[69.490197727543148,28.688330157310986],[69.473566405765098,28.664453338650731],[69.472054467339831,28.631282063516494],[69.458447023311521,28.619337837371347],[69.447863454334993,28.608719606724549],[69.447863454334993,28.58216933384773],[69.432744070982153,28.562252229257012],[69.391921736199208,28.543659531062588],[69.358659092643052,28.535690226522775],[69.340515832439792,28.523735139265341],[69.340515832439792,28.505135642196194],[69.358659092643052,28.494505886737329],[69.370754599145471,28.475901236552886],[69.372266537570681,28.451976157573654],[69.381338168121999,28.437352610934283],[69.402505305175737,28.428045663776402],[69.403261245610054,28.420067630416838],[69.419136626054524,28.420067630416838],[69.446351515909782,28.440011587864547],[69.462982837687889,28.455964046503595],[69.472054467339831,28.466597683436419],[69.509852925272355,28.470585021081888],[69.556723014655461,28.470585021081888],[69.583937904510719,28.461280999418648],[69.596033411013138,28.451976157573654],[69.612664732791245,28.433364018734551],[69.627784116144085,28.422727041719668],[69.658022882849821,28.422727041719668],[69.715476539410815,28.420067630416838],[69.718493827827956,28.418298440920353],[69.719086128522065,28.427802532061264],[69.72416358298301,28.43474817518819],[69.726420229310179,28.439709070317406],[69.727548552024132,28.445165785972279],[69.726984390217467,28.448638094472528],[69.718521967614777,28.457566364096465],[69.702161282417308,28.465997928261856],[69.690313889874176,28.468973612242451],[69.675081526491283,28.476412458867912],[69.67113239564361,28.489801061869571],[69.67113239564361,28.494263551821518],[69.65138674140502,28.509632908032359],[69.646309286944074,28.517564603823473],[69.643488479709617,28.525991375501633],[69.643488479709617,28.54730314512409],[69.642360156096402,28.557709651978882],[69.637846863442064,28.571087934360719],[69.633897733493654,28.589418374058766],[69.63051276355327,28.615669923628104],[69.64292431790301,28.636468379112443],[69.664362457561424,28.640429522204727],[69.697083827956362,28.644885629668124],[69.705546251458372,28.648351360526931],[69.708367059592206,28.658252816214542],[69.719650290328673,28.664688261354229],[69.726420229310179,28.667163326926072],[69.730369360157908,28.677557965427809],[69.736010976425462,28.685971917270194],[69.745037560834817,28.692405659093936],[69.752935822530219,28.700323569177442],[69.757449115184556,28.712199310150083],[69.761398246032286,28.745345283757899],[69.763090730552847,28.769085188730514],[69.765911538686623,28.776502802362472],[69.777194770322467,28.783919888092385],[69.792427131906663,28.786392133390279],[69.808787818003452,28.791830864402925],[69.814429433371686,28.800235620677427],[69.816686078799535,28.809134034608064],[69.817250240606199,28.817043097161275],[69.82176353326048,28.824951559866633],[69.834175088509596,28.832365197595834],[69.840380864785118,28.843731750519908],[69.842637511112287,28.859049921816506],[69.840380864785118,28.873377782158968],[69.834739249416884,28.887209703265228],[69.828533472241986,28.899558076643984],[69.815557756085639,28.917337152787411],[69.81330111065779,28.928200643844661],[69.813865272464398,28.942518960581594],[69.812736948851182,28.959797053191494],[69.809916140717348,28.970162524880664],[69.810480302524013,28.98102047791275],[69.818378564219415,28.998292144866639],[69.840380864785118,29.010133904955808],[69.841509188398391,29.038252648540947],[69.843765834725559,29.051076198507815],[69.862947327157485,29.060446245697733],[69.867460620711142,29.069815442129027],[69.869717267038311,29.081155961478487],[69.870281428844919,29.096931998313096],[69.869153105231703,29.114677151129683],[69.87197391246616,29.124041414779526],[69.877051366927105,29.129955246837199],[69.913721869069036,29.131926448346974],[69.933467523307627,29.133897612085207],[69.940237461389813,29.137839827146365],[69.947007401270582,29.147694702448632],[69.950392369412384,29.165431095868428],[69.950392369412384,29.179716518102907],[69.971830509970118,29.191537433705662],[69.981985417992689,29.205326779107622],[69.984242063420538,29.218621890387965],[69.979728771665521,29.258004683069714],[69.980857095278793,29.270308698287863],[69.989319517881484,29.278674582266206],[70.003987719457768,29.283103302675329],[70.009065173019394,29.291960167028151],[70.01019349573329,29.30180022689899],[70.009065173019394,29.309671591670678],[70.013578465673731,29.321969385378907],[70.021476727369134,29.329839194323426],[70.033888281718873,29.330331037147687],[70.040094059793091,29.338692003633128],[70.04065821980106,29.356887031511349],[70.038401574373211,29.387860277230061],[70.041786543414275,29.529332112087332],[70.042914867027548,29.538658382078722],[70.037837413465923,29.54896536366067],[70.016963435614116,29.562215653629551],[70.009629333926682,29.570557537400475],[70.010757657539898,29.579880003259575],[70.013014303867067,29.591654518341386],[70.018655919235357,29.598031807022323],[70.032759958105657,29.602446617617375],[70.037273251659315,29.609804205100033],[70.04065821980106,29.618142155236342],[70.042914867027548,29.634325618232765],[70.039529897986483,29.648545303622939],[70.044043189741444,29.667174953161634],[70.048556482395782,29.673057284666015],[70.059275552225017,29.677958963935112],[70.066045491206523,29.693152651973378],[70.077328721943047,29.698053351880731],[70.089176115385499,29.707854033137153],[70.097074376181581,29.717653759313578],[70.10102350792863,29.768107191993352],[70.102715992449134,29.778880362338896],[70.117948354932707,29.789162762751346],[70.131488231996343,29.789162762751346],[70.146156432673308,29.784266513588761],[70.152926371654758,29.773983611354652],[70.161388795156824,29.765658582677474],[70.171543704078715,29.752924848902694],[70.179441964874854,29.746557375422583],[70.196930974584859,29.737250340131141],[70.210470850749232,29.736760472218066],[70.221754082385075,29.74018949724757],[70.234165636734815,29.747537013222654],[70.245448868370659,29.761250935182545],[70.260117069047567,29.765658582677474],[70.281555208705981,29.764189388129807],[70.293402601249113,29.756843093434043],[70.296787571189498,29.747537013222654],[70.299044217516666,29.727452528611366],[70.301865024751123,29.715693891060255],[70.310891609160478,29.707854033137153],[70.315969063621424,29.697563292412042],[70.319918195368473,29.684820914353793],[70.321610679889034,29.672076919314406],[70.326123971644051,29.665214100150649],[70.339663849607007,29.657370304995652],[70.349818757629635,29.648055003135937],[70.351511243049458,29.63775813982636],[70.350382919436242,29.625989007187002],[70.352639565763411,29.61912304489266],[70.365051120113151,29.608823224612195],[70.375770189942386,29.602937140236861],[70.389310067905342,29.59950343243753],[70.410184045757148,29.597050712320595],[70.424288083728129,29.597050712320595],[70.438956285304357,29.599993969446189],[70.445726224285863,29.602446617617375],[70.450803677847489,29.610294691746674],[70.459830263156164,29.61912304489266],[70.471677655699295,29.625989007187002],[70.477883432874194,29.636287072890127],[70.489730826316645,29.645113148952703],[70.49311579535771,29.649525896502951],[70.503270703380338,29.655899524943152],[70.51116896597506,29.664233659256013],[70.519067226771142,29.670606355099267],[70.521888034904919,29.675998321365512],[70.520759712191023,29.684330790133913],[70.52132387399763,29.71177403854108],[70.517374742250638,29.721083437250854],[70.522452196711583,29.732351553981061],[70.535427912867931,29.736760472218066],[70.552916920779353,29.747537013222654],[70.575483384050983,29.755373769383993],[70.585638292073554,29.752435057432024],[70.600306492750519,29.745087901185741],[70.601998977271023,29.734311096679846],[70.607076430832649,29.718143720756132],[70.643746932974636,29.679919568733169],[70.65503016461048,29.67403763922573],[70.66744171896022,29.670606355099267],[70.685516914873801,29.66957094044659],[70.696902578391359,29.673789900283737],[70.706959205802775,29.67892964089026],[70.717607398262885,29.69331951488374],[70.724114627288259,29.709248757524165],[70.728255590722995,29.716955549059378],[70.738312218134411,29.723634288691528],[70.744227880312508,29.735963103614381],[70.75369294087659,29.74572234051368],[70.766707398927394,29.750858399295737],[70.776172459491477,29.758561994640388],[70.779721856978199,29.7739674082693],[70.79214474908099,29.779102019142897],[70.798651978106363,29.789370452184698],[70.802792942440419,29.810930732367467],[70.802201375593086,29.836591672867485],[70.79214474908099,29.865837105997684],[70.792736315028947,29.878661346643867],[70.797468845311016,29.886355100707362],[70.816990532387194,29.895586820475444],[70.827638725746624,29.90276645640688],[70.831188123233346,29.922764141152243],[70.823497761412625,29.933017806426676],[70.809300171465793,29.936093700963568],[70.800426676849725,29.945833403688653],[70.798651978106363,29.960184909905706],[70.779721856978199,29.983245492185745],[70.773806194800102,29.997591597074575],[70.773806194800102,30.018082434956455],[70.775580892644143,30.029350592156163],[70.783271255364184,30.040105365070588],[70.795102580619641,30.051883062853108],[70.801609808745752,30.066731207079613],[70.802201375593086,30.08823146740832],[70.805750773079751,30.106144780856994],[70.805750773079751,30.128148121039033],[70.803976075235767,30.147077304174275],[70.801018243697058,30.167025754634892],[70.788595351594267,30.177765556535235],[70.777947159134158,30.183390699920892],[70.761974868645325,30.204865565193757],[70.761974868645325,30.220201886607811],[70.760791735849978,30.236557994256088],[70.767298964875408,30.262108964756976],[70.774397760748116,30.27845809816273],[70.782088122568837,30.310126793216966],[70.781496555721503,30.32799976667593],[70.772031496056741,30.345358959248642],[70.762566435492658,30.358631560498168],[70.760200170801284,30.370371205266963],[70.773806194800102,30.379557770974429],[70.785045954107545,30.397418065791157],[70.796877279363002,30.402010184922176],[70.805159207131737,30.412724290493657],[70.806342339927085,30.425987744738677],[70.801609808745752,30.435679128688889],[70.783862821312198,30.455059006168256],[70.77676402633881,30.476984221344765],[70.767298964875408,30.496355883517253],[70.757242339262575,30.509098294850503],[70.772031496056741,30.527444434912809],[70.776172459491477,30.546806046262077],[70.774397760748116,30.560560634665592],[70.773214627952768,30.581443505013794],[70.769073664518032,30.60028516163095],[70.766707398927394,30.615559490977773],[70.766707398927394,30.629813357800288],[70.770848363261393,30.63999340637065],[70.774989327595449,30.654752573472535],[70.776172459491477,30.666965352469106],[70.782679688516851,30.690368866030383],[70.780904990672809,30.70257714302079],[70.757242339262575,30.723429375265482],[70.751326676185215,30.726480542942738],[70.746002579055812,30.732074100339503],[70.743636314364494,30.742243373233123],[70.738312218134411,30.747327606783699],[70.729438723518342,30.752919954592301],[70.721156795749607,30.769695046489232],[70.71997366295426,30.781385048681102],[70.723523061340245,30.793581798161483],[70.735945952543716,30.802220226182556],[70.747777278698493,30.805268897341819],[70.751918242133229,30.823558894527423],[70.751326676185215,30.890592410111708],[70.751918242133229,30.91343403175523],[70.755467639619951,30.927643844387944],[70.760791735849978,30.936777609099408],[70.774989327595449,30.946417859396718],[70.782679688516851,30.959100917273588],[70.779721856978199,30.970767842861733],[70.780904990672809,31.003731880921634],[70.777947159134158,31.033643219758858],[70.771439929209407,31.049355584592604],[70.756650772415298,31.06759894563487],[70.753101374928576,31.087358638290596],[70.753101374928576,31.104075169933196],[70.750143543389868,31.120788759893401],[70.734762819748369,31.132435885108066],[70.728255590722995,31.149144480233645],[70.732988121904384,31.159775688996888],[70.751326676185215,31.168381032758532],[70.759017038005936,31.18002231237989],[70.760200170801284,31.197734556304795],[70.757459951815406,31.209765892581913],[70.756490565387367,31.209282286648261],[70.742178087049126,31.219639641955951],[70.725663688828206,31.245998699180689],[70.710250250548654,31.250704900011158],[70.688231052621063,31.243174866626873],[70.660707054986631,31.241292264526464],[70.58914466149696,31.243174866626873],[70.573731224116727,31.246939957513064],[70.5495101063064,31.259175469572313],[70.532995708085537,31.255410866118609],[70.516481308965297,31.243174866626873],[70.506572670392472,31.229995862319242],[70.487856352288873,31.219639641955951],[70.454827554947769,31.213990315800459],[70.43390931696149,31.202690651752221],[70.422899718447297,31.187622331905118],[70.41739491874057,31.174435584434718],[70.419596838623249,31.148056581146363],[70.416293958799201,31.125440163233009],[70.399779560578338,31.119785215415391],[70.351337324957626,31.119785215415391],[70.32601524720593,31.116015063144687],[70.309500848985067,31.099990246852485],[70.289683570940099,31.094333782777881],[70.26656341307114,31.084905596216345],[70.249599190150548,31.070376013442342],[70.249190771137251,31.053237213226851],[70.244654955861563,31.002708670069126],[70.224999758132412,30.984563681368854],[70.221975881281935,30.93918611494729],[70.226511696557623,30.900273903318009],[70.226511696557623,30.861345868117382],[70.218952003532195,30.839279628452118],[70.200808744228198,30.822402021935829],[70.187201299300568,30.806820058798735],[70.181153545599727,30.78214344876119],[70.169058039097308,30.756161229057511],[70.155450594169622,30.748365195097733],[70.137307334865682,30.743167488688698],[70.120676012188255,30.728872350178847],[70.107068567260626,30.718474553258091],[70.088925307956629,30.708075635781995],[70.073805923704469,30.701575742526529],[70.055662664400472,30.695075412200538],[70.045079095423944,30.680773142966245],[70.051126849124842,30.665168251613579],[70.067758170902948,30.639154498980986],[70.072293985279259,30.589709093000295],[70.066246232477681,30.563675056158957],[70.049614910699631,30.535029545477187],[70.036007465772002,30.527215667169344],[70.026935836120003,30.511586023776033],[70.020888082419106,30.489439728260891],[70.011816452767164,30.465985214146372],[69.999720946264688,30.459469069242175],[69.993673192563847,30.441221543439553],[69.990649315713426,30.409932124867737],[69.980065747636218,30.391675330652049],[69.963434425858111,30.382545653359273],[69.95889861058248,30.368197294769402],[69.959326792197771,30.336780084333498],[69.941367383098282,30.329296917318914],[69.93579377446315,30.310586498767975],[69.944463833439215,30.285990228766082],[69.963661821236144,30.274224615173921]]]}},
{"type":"Feature","properties":{"id":60,"name":"Muzaffargarh","area_km2":8076.8171419680402},"geometry":{"type":"Polygon","coordinates":[[[70.492137065872953,28.94439902029859],[70.509376068550807,28.94439902029859],[70.51884112911489,28.946469694021232],[70.525348359039583,28.952681466076854],[70.543686912421151,28.963551172348787],[70.543686912421151,28.980629832201032],[70.553151972985233,28.983734740665795],[70.58627968495955,28.984252215967047],[70.599885708958368,28.993048905782416],[70.602843540497076,29.00960534910763],[70.60343510734441,29.025641875472218],[70.601068841753715,29.037021125024978],[70.613491733856506,29.049433421315371],[70.635379685624059,29.057707454835224],[70.648985709622877,29.056673237180178],[70.659633902982307,29.042193096434289],[70.666732697955695,29.027193664655954],[70.682113421597194,29.014261371365251],[70.692761614956623,29.008570649416015],[70.705776073007428,29.008053295523212],[70.742453182468466,29.00960534910763],[70.75369294087659,29.012192054719605],[70.765524267031367,29.018399882348717],[70.77025679641406,29.041158723196588],[70.769073664518032,29.062361307928086],[70.764932700184033,29.075804590609437],[70.760200170801284,29.086144384855515],[70.773806194800102,29.105787133269644],[70.795102580619641,29.107854573030181],[70.805159207131737,29.111472492561518],[70.819948363925903,29.128009933211899],[70.832371256028694,29.134210787497921],[70.841836316592776,29.148677994194145],[70.844794148131484,29.165209449856263],[70.839470051901458,29.173990702808737],[70.837103785411443,29.182771204827304],[70.877629802573381,29.184277696958191],[70.885020654179925,29.209624546535622],[70.887978485718577,29.233373560741313],[70.89330258194866,29.240600429066603],[70.900992944668701,29.244729838011665],[70.906908606846798,29.25350428129758],[70.909866438385507,29.261245810945468],[70.91031011352095,29.292496278080819],[70.91493172411981,29.302169407592146],[70.930645203213601,29.304587546977757],[70.94173707170853,29.311035638384055],[70.951904616105196,29.325542354096399],[70.969466740697555,29.326348222192735],[70.987953186690277,29.328765787810937],[70.993499120488082,29.340047006763996],[70.998120731986262,29.355355234256706],[71.019380144877857,29.356966492010031],[71.024926078675662,29.36582795909311],[71.024926078675662,29.378715988652004],[71.026774723274912,29.396434365053949],[71.036017946271272,29.405292396726793],[71.043624264633692,29.40827416286773],[71.037928705245633,29.426135035003938],[71.03187106709612,29.451193614094052],[71.025842504927709,29.469428150089129],[71.008474043042725,29.487248117506681],[71.008474043042725,29.49642687709877],[71.020259785260919,29.516941097353822],[71.025222202942359,29.531514464520967],[71.027083109797729,29.57036651060605],[71.02894401575378,29.588708117185888],[71.03576734029059,29.593562690865554],[71.045692175653414,29.59679894261717],[71.056857614986995,29.60434979440754],[71.058098218957696,29.617292795925835],[71.079188494553421,29.622145992743413],[71.098417862394513,29.623763673454789],[71.113925417424127,29.626459750117419],[71.132534483279812,29.641017316196212],[71.144940527483413,29.656111827898599],[71.148042039208804,29.66527524865387],[71.161068384498378,29.671743043306833],[71.169132313005889,29.683599586451805],[71.169752614991239,29.697071232851158],[71.164790197309799,29.711618582631559],[71.152384153106254,29.719699533506741],[71.143079621527363,29.729395814265445],[71.138117202946603,29.744477057370375],[71.138117202946603,29.759556031485715],[71.143699923512713,29.771940634952387],[71.155485664831644,29.777324767224286],[71.166651104165169,29.788630503494971],[71.172854126716629,29.80262631165499],[71.17409473068733,29.819311063954501],[71.169132313005889,29.829535825917674],[71.156726268802345,29.836531112520902],[71.144940527483413,29.845678055897622],[71.140598411787323,29.854286179463656],[71.141218714671993,29.868810703551162],[71.148662341194154,29.877954689957051],[71.162308988469078,29.886022217551329],[71.167271406150519,29.896777904176986],[71.169752614991239,29.926887653242659],[71.17967745035412,29.932800997867787],[71.191463192572314,29.937101392215538],[71.21813618693551,29.941401600403594],[71.228681324283741,29.952151306537644],[71.2224783026316,29.972035200064511],[71.224339208587651,30.00695672946955],[71.235504648820552,30.014476682353063],[71.251012203850166,30.020384816306262],[71.256594923516957,30.034348096887186],[71.252252808720186,30.054215527424674],[71.242327973357362,30.066026706067703],[71.242948275342712,30.080520315959859],[71.250391901864816,30.096621837228042],[71.259696434343027,30.108427952687919],[71.277685198213362,30.110574368212554],[71.285128824735523,30.121305743465314],[71.286989731590893,30.157247352283548],[71.295673962083754,30.166901076223724],[71.308080006287298,30.176017613522106],[71.313042423069419,30.185669499248036],[71.318625142736209,30.191031249192861],[71.33041088495446,30.197464964036897],[71.343437231143355,30.218907642573697],[71.353982369390906,30.224267582183245],[71.36514780782511,30.2328428777966],[71.36700871468048,30.244096818513412],[71.36638841269513,30.270886728339917],[71.370110225506551,30.305702682732658],[71.376313248058011,30.313735378684839],[71.392441105072976,30.326050899829227],[71.412911077784088,30.338900228862542],[71.422215610262242,30.350677298918242],[71.425317121088312,30.356565302446825],[71.435241956451193,30.358706306750719],[71.444546489828724,30.35924154995763],[71.451369814365478,30.365664246307972],[71.455091627176898,30.376902950710644],[71.457572836017619,30.390815746949215],[71.438343468176583,30.405796542076814],[71.427798329929033,30.405796542076814],[71.417253192580802,30.411681225308371],[71.416012588610158,30.42505418730093],[71.425937423972982,30.44858614833214],[71.434001352480493,30.457141816241858],[71.439584072147284,30.466231390965959],[71.448268303539407,30.473716286477497],[71.457572836017619,30.491356977642454],[71.454471325191548,30.504184562867351],[71.454471325191548,30.528766038122228],[71.463775858569079,30.53517757478528],[71.481442064399801,30.550200283716151],[71.490175919483136,30.553960940045386],[71.488984939203647,30.570711181875595],[71.472311216189723,30.579256110081474],[71.460401414293869,30.579256110081474],[71.431420895358087,30.576521814030571],[71.414350178318159,30.582673870202996],[71.398470442456983,30.599419153171425],[71.38536966028164,30.602494502719196],[71.371474890953493,30.606936503416932],[71.360359075311123,30.618894720315154],[71.347159044854095,30.6286310343948],[71.344057534028025,30.644642579391586],[71.32979058296911,30.650512815014451],[71.316143933895489,30.65798350843221],[71.314283027939439,30.669722002968115],[71.308700308272648,30.673990192593351],[71.294433358113054,30.67612421725886],[71.288230335561593,30.684659842877522],[71.285128824735523,30.695328314150402],[71.270861873676608,30.699595372428519],[71.264038549139798,30.70599560551284],[71.257215226401627,30.717728265247274],[71.246670088154076,30.724660529160133],[71.233023439979831,30.725193758784997],[71.221857999746931,30.727326651204066],[71.210072258428056,30.733191861415321],[71.200147423964495,30.746520556978169],[71.172233823831959,30.752384598970139],[71.156105966816995,30.750785350763351],[71.149282643179504,30.741722439139323],[71.143079621527363,30.729992700402875],[71.126951763613079,30.727326651204066],[71.118267532220898,30.721461084861232],[71.121989345931638,30.702795542480374],[71.119508137090918,30.68305947141755],[71.117026928250198,30.676657716680324],[71.108342696858017,30.669188465775107],[71.097797560409163,30.655849083568398],[71.087872725046282,30.65478185270041],[71.079188494553421,30.649979171701489],[71.066162147465207,30.629698553945161],[71.026462806913059,30.626495962019078],[70.992346186927023,30.6286310343948],[70.970635609345948,30.632367299311454],[70.953887449446313,30.639305692104074],[70.942722010112732,30.648911876981572],[70.931556570779151,30.652113726067682],[70.907985087242025,30.65424823366908],[70.870766955530655,30.65424823366908],[70.858981213312404,30.651046455629455],[70.850296981920224,30.647310912868363],[70.845334564238783,30.637704567911555],[70.843473658282733,30.631833556173717],[70.836030031760629,30.6286310343948],[70.816800663919537,30.627563504052546],[70.798811900049202,30.6286310343948],[70.766707398927394,30.629013310116193],[70.766707398927394,30.615559490977773],[70.769073664518032,30.60028516163095],[70.773214627952768,30.581443505013794],[70.774397760748116,30.560560634665592],[70.776172459491477,30.546806046262077],[70.772031496056741,30.527444434912809],[70.757242339262575,30.509098294850503],[70.767298964875408,30.496355883517253],[70.77676402633881,30.476984221344765],[70.783862821312198,30.455059006168256],[70.801609808745752,30.435679128688889],[70.806342339927085,30.425987744738677],[70.805159207131737,30.412724290493657],[70.796877279363002,30.402010184922176],[70.785045954107545,30.397418065791157],[70.773806194800102,30.379557770974429],[70.760200170801284,30.370371205266963],[70.762566435492658,30.358631560498168],[70.772031496056741,30.345358959248642],[70.781496555721503,30.32799976667593],[70.782088122568837,30.310126793216966],[70.774397760748116,30.27845809816273],[70.767298964875408,30.262108964756976],[70.760791735849978,30.236557994256088],[70.761974868645325,30.220201886607811],[70.761974868645325,30.204865565193757],[70.777947159134158,30.183390699920892],[70.788595351594267,30.177765556535235],[70.801018243697058,30.167025754634892],[70.803976075235767,30.147077304174275],[70.805750773079751,30.128148121039033],[70.805750773079751,30.106144780856994],[70.802201375593086,30.08823146740832],[70.801609808745752,30.066731207079613],[70.795102580619641,30.051883062853108],[70.783271255364184,30.040105365070588],[70.775580892644143,30.029350592156163],[70.773806194800102,30.018082434956455],[70.773806194800102,29.997591597074575],[70.779721856978199,29.983245492185745],[70.798651978106363,29.960184909905706],[70.800426676849725,29.945833403688653],[70.809300171465793,29.936093700963568],[70.823497761412625,29.933017806426676],[70.831188123233346,29.922764141152243],[70.829413424489985,29.909945574328844],[70.827638725746624,29.90276645640688],[70.816990532387194,29.895586820475444],[70.797468845311016,29.886355100707362],[70.792736315028947,29.878661346643867],[70.79214474908099,29.865837105997684],[70.802201375593086,29.836591672867485],[70.802792942440419,29.810930732367467],[70.798651978106363,29.789370452184698],[70.79214474908099,29.779102019142897],[70.779721856978199,29.7739674082693],[70.776172459491477,29.758561994640388],[70.766707398927394,29.750858399295737],[70.75369294087659,29.74572234051368],[70.744227880312508,29.735963103614381],[70.738312218134411,29.723634288691528],[70.728255590722995,29.716955549059378],[70.724114627288259,29.709248757524165],[70.717607398262885,29.69331951488374],[70.706959205802775,29.67892964089026],[70.696902578391359,29.673789900283737],[70.685516914873801,29.66957094044659],[70.690008181332587,29.658350812440119],[70.687751535005418,29.639719528833268],[70.661800102692666,29.615199427811376],[70.661235940886002,29.599993969446189],[70.653337679190599,29.589201607568214],[70.63697699489245,29.577917449630661],[70.629078732297728,29.569085489303916],[70.628514570491063,29.529332112087332],[70.634720348565281,29.515586568165645],[70.640361963034195,29.493982655575167],[70.646567741108413,29.479741192202312],[70.64092612484086,29.469918328268307],[70.631899540431505,29.463041756671771],[70.632463701338793,29.454199765306953],[70.630771216818232,29.434548136986962],[70.624001278736102,29.417349842121553],[70.614974692528108,29.406537994632799],[70.605383946312145,29.392775798864079],[70.603691461791584,29.380486550513922],[70.59635736100347,29.369670782880405],[70.580560838511929,29.359837270973344],[70.575483384050983,29.354920158438631],[70.574355060437767,29.345085221106103],[70.582817483939778,29.334265695205715],[70.604255622698872,29.319018049643319],[70.603691461791584,29.302292204621608],[70.601998977271023,29.2860556762285],[70.59635736100347,29.268340155174087],[70.588459100207388,29.258989059397607],[70.575483384050983,29.252098230848731],[70.566456798742308,29.24865264210581],[70.548403628125016,29.23142296000168],[70.542197850950117,29.220099018754752],[70.536556235581884,29.205819219981095],[70.52922213569309,29.193014951478858],[70.536556235581884,29.179716518102907],[70.544454498176606,29.169864715784058],[70.552352759872008,29.157055958765511],[70.553481082585961,29.139318118336519],[70.546711144503774,29.118620101836257],[70.543326174563333,29.094467151737717],[70.53937704371566,29.083128098283169],[70.517374742250638,29.065377508165511],[70.515682257730077,29.032826820101718],[70.515682257730077,29.010133904955808],[70.504963187900842,29.000265865377457],[70.491987471744494,28.99237075490646],[70.489730826316645,28.98644902680121],[70.490294988123253,28.973617452183703],[70.494808279878271,28.958809811623553],[70.494808279878271,28.947455852805433],[70.492137065872953,28.94439902029859]]]}},
{"type":"Feature","properties":{"id":68,"name":"Mianwali","area_km2":5474.2769081321721},"geometry":{"type":"Polygon","coordinates":[[[71.68718275848461,32.138962996414968],[71.680717581850956,32.157731112500869],[71.676092273239874,32.179265037151822],[71.674935946536777,32.210578018860531],[71.674935946536777,32.237968037295161],[71.685342890462096,32.251659951945271],[71.695749834387414,32.262416435370255],[71.711938413626967,32.273171645355205],[71.718876376543619,32.284903147662192],[71.730439647172034,32.314225262386003],[71.746628227310907,32.316179732908381],[71.762816806550461,32.351352987950065],[71.769754769467113,32.368934488435968],[71.762816806550461,32.382606624296329],[71.742002918699768,32.389441917010913],[71.732752301477603,32.405063500680058],[71.732752301477603,32.417754047211588],[71.737377610088686,32.431418794242006],[71.758191497939322,32.434346683752494],[71.760504152244891,32.449960494581205],[71.779005385789958,32.463620359192248],[71.787099675409763,32.482155435125264],[71.802131927946164,32.488983184326571],[71.814851526177051,32.491909205045829],[71.824102143399273,32.495810416417612],[71.839134395935673,32.510438454271309],[71.843759704546756,32.526039071146272],[71.846072357953005,32.552358970989758],[71.846072357953005,32.574773539667149],[71.839134395935673,32.595234124355386],[71.821789489093703,32.607897860298067],[71.814851526177051,32.62348153844232],[71.817164180482621,32.650746448589757],[71.816007853779467,32.690655070375271],[71.820633162390607,32.708170297121569],[71.827571124407939,32.72276369309003],[71.84029072263877,32.730545860403197],[71.85416664847213,32.74124523238163],[71.873824208720293,32.753888288413805],[71.885387480248085,32.755833214431334],[71.899263405182069,32.769446509448926],[71.903888713793151,32.784029871681298],[71.896950750876499,32.7995828244878],[71.881918498340099,32.80930203795873],[71.865729919100545,32.817076643772168],[71.857635629480797,32.828737277703283],[71.855322975175227,32.84136790240683],[71.847228685555478,32.849139701436116],[71.831040106315925,32.854968104194711],[71.826414797704786,32.860796124741398],[71.825258470102369,32.884104374017681],[71.826414797704786,32.90740649531358],[71.819476834788134,32.926820246657087],[71.806757236557303,32.937495994344715],[71.794037638326415,32.946229738811439],[71.792881311623262,32.959813849029956],[71.790568657317749,32.97339587102266],[71.776692731484445,32.974365935539538],[71.76859844186464,32.965634970877261],[71.754722516930656,32.958843624433769],[71.738533936791782,32.954962620828326],[71.688811871470762,32.954962620828326],[71.684186562859622,32.972425795713946],[71.678404927545444,33.003462914881652],[71.658747366397904,33.013159776602436],[71.655278385389238,33.029641994382587],[71.655028086976699,33.056052376815785],[71.649369041847876,33.056052376815785],[71.631753682786268,33.060666034709811],[71.620744084272133,33.071737824940726],[71.608633524917309,33.091110105846781],[71.588816246872341,33.145514149658311],[71.581109528182253,33.158418636810666],[71.571200888710109,33.167634963782632],[71.546979770899782,33.171321223695543],[71.529364412737493,33.170399673106488],[71.51285001451663,33.163026921255437],[71.500739455161806,33.15104487681964],[71.485326016882254,33.149201339470267],[71.471013538544014,33.158418636810666],[71.457802019247822,33.172242764392138],[71.444590500851007,33.174085817006926],[71.432479941496183,33.174085817006926],[71.418167463157943,33.170399673106488],[71.410460744467855,33.156575255044061],[71.410460744467855,33.132607765835758],[71.419268423099311,33.119699483544366],[71.428076102630087,33.100333502389276],[71.430278022512766,33.064356785837049],[71.430278022512766,33.037595330560123],[71.426975142688718,33.018211269434573],[71.439085701144222,33.005286194102609],[71.452297220440414,33.005286194102609],[71.46110489907187,32.999746296554406],[71.45890297918919,32.975736052676723],[71.444590500851007,32.962804754036199],[71.432479941496183,32.957262190897438],[71.411561703509847,32.956338396499859],[71.374129067302647,32.956338396499859],[71.333393551271456,32.953566954851112],[71.31027339340244,32.948023810750328],[71.288254195474792,32.938784466529967],[71.262932117723096,32.934164431543309],[71.233206201105361,32.930468229625149],[71.207884123353665,32.925847760265981],[71.194672604057473,32.915681879615079],[71.166047647381106,32.896271046571599],[71.14292748951209,32.874082026964004],[71.12421117140849,32.850037654714072],[71.120908291584442,32.824136425255858],[71.116504451819026,32.774162724230393],[71.116504451819026,32.682471362063779],[71.115403491877714,32.646324641269246],[71.118706371701762,32.625927734877109],[71.136321729863994,32.59625120812683],[71.137422689805362,32.578626118400678],[71.144028449453458,32.556357893701886],[71.153937088026225,32.547077835373841],[71.170451487146465,32.539653098211943],[71.206783163412297,32.53872496278683],[71.223297561633217,32.53501232575826],[71.227701401398633,32.506234183061167],[71.229903321281313,32.483948004297019],[71.234307161046729,32.470945182574155],[71.248619639384913,32.468158619724591],[71.283850355709433,32.466300863194306],[71.304768593695712,32.46258523502064],[71.30807147351976,32.448650263299044],[71.311374353343808,32.405902914388037],[71.30807147351976,32.36685503643082],[71.30807147351976,32.339883557979874],[71.295960915064256,32.313834500661756],[71.262932117723096,32.298945960687604],[71.236509080030089,32.290570081643978],[71.214489882102441,32.269161543170753],[71.194672604057473,32.253334593017087],[71.173754366071194,32.230054653499508],[71.166047647381106,32.211426407802549],[71.164946687439738,32.162975110612933],[71.163257138306335,32.146285682738096],[71.184094002036602,32.145305545814324],[71.258728762922146,32.145305545814324],[71.300016077779844,32.153372426796125],[71.303192024592306,32.164127156543088],[71.327011629283334,32.168159854193959],[71.360359075311123,32.168159854193959],[71.363535022123642,32.156061227943383],[71.385766654307702,32.146650075440675],[71.414350178318159,32.145305545814324],[71.436581809602899,32.145305545814324],[71.43975775731468,32.152027996095171],[71.45563749407512,32.164127156543088],[71.488984939203647,32.168159854193959],[71.517568465012687,32.156061227943383],[71.547739964228015,32.138582600007055],[71.584263357967643,32.138582600007055],[71.61761080399549,32.145305545814324],[71.655722171141349,32.145305545814324],[71.68718275848461,32.138962996414968]]]}},
{"type":"Feature","properties":{"id":69,"name":"Attock","area_km2":6855.2823879880552},"geometry":{"type":"Polygon","coordinates":[[[71.781790216545289,32.974009571084878],[71.792927563756109,32.987286178814145],[71.801068107307344,32.99970024586969],[71.830670081159383,33.002182849558892],[71.843250920293769,33.005286007043651],[71.852131512359449,33.01955912115659],[71.864712351493893,33.025143624178952],[71.878773289455808,33.028245973173171],[71.881733487110807,33.038793142089901],[71.884693683866487,33.044996768985754],[71.899494671242167,33.049339048358434],[71.938717286573592,33.054921663703851],[71.949818026880507,33.059883691978825],[71.964619014256186,33.071047231944249],[71.989040642211933,33.073527825648682],[72.015682419308234,33.074147963957444],[72.037883899022802,33.070427072951134],[72.048984640229037,33.064225236605409],[72.064525676119104,33.051199958811083],[72.084507008491698,33.050579659523692],[72.094127649971142,33.057402712465262],[72.109668686760529,33.070427072951134],[72.126689822377443,33.079729006388561],[72.142970906781954,33.098329922587936],[72.154071647988246,33.098949885528839],[72.168872634464549,33.093370063477721],[72.188113918322756,33.07848880531418],[72.208095249795974,33.075388226185737],[72.254718359264928,33.07476809776955],[72.329463343758391,33.07724858625329],[72.355365071440929,33.076008351004646],[72.375346402914204,33.080349099731222],[72.386447144120439,33.092130053958897],[72.401988180010562,33.098329922587936],[72.421229463868713,33.098329922587936],[72.426409808865628,33.10762890534977],[72.430110055934392,33.11754673499388],[72.448611289479459,33.118786385683222],[72.450831436821431,33.133041104163681],[72.457491881545138,33.143575711350024],[72.473032918334582,33.14791312449114],[72.479693362158969,33.159065485883502],[72.487833904810941,33.167738563883688],[72.502634891287244,33.178888403576991],[72.520396076317923,33.180127187319897],[72.536677161621753,33.1782690054103],[72.556658494893668,33.173313661796101],[72.581080122849471,33.171455335095686],[72.592920912570094,33.182604701745618],[72.592920912570094,33.191894757836849],[72.595881110225093,33.20366074734568],[72.611422146115217,33.21480601578503],[72.624002985249604,33.21913990268439],[72.632143527901576,33.23028319980989],[72.643244268208491,33.240806121205594],[72.641024120866518,33.254422140269583],[72.631403479387131,33.263085774488957],[72.631403479387131,33.275460903597889],[72.641764169380963,33.285978384994507],[72.651384810860407,33.298350271148138],[72.652864910587198,33.310101936255421],[72.654345008515406,33.335455397648559],[72.668405946477321,33.342874527537447],[72.695047722674303,33.343492760182812],[72.706888512394983,33.354620190569392],[72.711328808877511,33.371926699957271],[72.716509153874426,33.386758110498477],[72.732790240077577,33.394172867883583],[72.740930782729492,33.407147169406414],[72.743150930970728,33.417031052341258],[72.757211868033323,33.431854766484321],[72.774973052164682,33.433089961932239],[72.813455618981664,33.43926567477115],[72.824556359288579,33.446675949035864],[72.827516556044259,33.460259809242871],[72.828256606357343,33.476310718464958],[72.817155866050427,33.486803936152796],[72.807535224571041,33.492358655427665],[72.805315076329748,33.502232829281695],[72.794954385436597,33.510254767543529],[72.787553891299126,33.512105878083844],[72.778673299233446,33.517658974082451],[72.773492954236531,33.550970056922665],[72.771272806894558,33.572553716780646],[72.759432016274616,33.581185669682952],[72.700968117984303,33.589200282067395],[72.696527822401151,33.598446986339411],[72.692827575332387,33.623716254101907],[72.692827575332387,33.632343087163804],[72.709108660636218,33.641585165323193],[72.712808906805662,33.652674348442474],[72.706888512394983,33.666225853740229],[72.693567624746152,33.68162270222598],[72.679506686784237,33.688396441742441],[72.669886044405473,33.697016793390333],[72.663965649994793,33.705636278991108],[72.643244268208491,33.719794986749264],[72.629923379660283,33.73641309838581],[72.632883577315283,33.75671975331403],[72.638803971725963,33.772100380728034],[72.654345008515406,33.775176175440208],[72.660265402926086,33.780097217112939],[72.672846242060473,33.803468301121256],[72.680246736198001,33.804083243147204],[72.694307673260596,33.789938450599095],[72.708368611222511,33.778251859535715],[72.725389745940106,33.773945870505599],[72.743150930970728,33.773945870505599],[72.753511621863936,33.778251859535715],[72.786754638615719,33.784771943470446],[72.791964586596464,33.794219034680737],[72.806647165634217,33.800910093226264],[72.830217339758462,33.803046744811468],[72.830699008552472,33.840544773422607],[72.827396129627743,33.853346072363422],[72.810881731406823,33.872544423486431],[72.808679811524144,33.884426952541901],[72.804275972658047,33.891738456064957],[72.792165413303223,33.900876953908323],[72.762439496685488,33.902704536385272],[72.753631817154712,33.914582864707484],[72.751429897271976,33.929200072925084],[72.739319338816472,33.941074709530255],[72.728309739403016,33.937421151664864],[72.701886701709952,33.920064612092233],[72.696381902902544,33.904532079292096],[72.690877103195817,33.892652349826108],[72.668857905268169,33.882598978859846],[72.647939667281889,33.879856944142716],[72.623718549471562,33.883512970647132],[72.616011829882098,33.887168839770197],[72.613809909999418,33.897221672042576],[72.613809909999418,33.909100764788491],[72.624819509412873,33.919151011510053],[72.624819509412873,33.928286571268302],[72.616011829882098,33.941988073590778],[72.59179071207177,33.957513777838642],[72.576377273792218,33.957513777838642],[72.563165755395346,33.961166473254195],[72.55655999574725,33.967558312066501],[72.55435807586457,33.982166425440255],[72.551055196040522,33.995859253801598],[72.540045597526387,34.004073890697555],[72.497108161612402,34.004986578467879],[72.467382244095347,34.004073890697555],[72.450867845874427,34.001335766232671],[72.438757286519603,33.995859253801598],[72.420040968416004,33.983079349732236],[72.40352657019514,33.977601660088567],[72.39141601173958,33.96847139194125],[72.385911212032852,33.953860925941058],[72.3704977737533,33.937421151664864],[72.328661296881421,33.931027048359624],[72.315449778484549,33.917323782466667],[72.303339220029045,33.9127555367387],[72.293430580556901,33.907273319907858],[72.279118102218717,33.900876953908323],[72.273613302511933,33.889910638864933],[72.263704663039846,33.881684977179987],[72.251594104584342,33.876200762055589],[72.24058450517083,33.868887927535866],[72.23618066630479,33.837801388823095],[72.237281626246101,33.793895257160443],[72.23618066630479,33.77101855566184],[72.226272026832646,33.75637426076355],[72.215262428318454,33.752712796058745],[72.207555708729046,33.743558450362229],[72.195445150273542,33.737149826603286],[72.108469318504319,33.737149826603286],[72.086450120576671,33.736234269096315],[72.066632841632384,33.72707816522518],[72.040209804838696,33.704183629271142],[72.022594445777088,33.695024105278264],[72.009382927380273,33.670288515002994],[72.002777167732177,33.651044802975321],[71.978556049921849,33.6207959890437],[71.971950291173073,33.600624212637342],[71.965344531524977,33.5868680207426],[71.949931093245425,33.574944214603875],[71.946628213421377,33.553844214638843],[71.946628213421377,33.529068071234576],[71.943325333597329,33.458371187979992],[71.935618614007865,33.450104149387016],[71.918003255845633,33.445511009525546],[71.905892697390129,33.428973692082252],[71.893782138035306,33.406919032987048],[71.869561020224978,33.392212815269261],[71.858551421710786,33.377504109127358],[71.842037023489922,33.368309903679176],[71.822219745444954,33.369229367841115],[71.805705346324714,33.366470945677634],[71.781484229413707,33.350838237394782],[71.761666950469419,33.345320140312253],[71.747354472131235,33.334282896638399],[71.734142953734363,33.320484376352965],[71.718729514555491,33.316804401801733],[71.71762855461418,33.299322400508402],[71.71762855461418,33.275393984145126],[71.694508396745164,33.256983045231379],[71.690104557879124,33.240409883509358],[71.696710316627843,33.217386389270473],[71.709921835924035,33.201726951337776],[71.734142953734363,33.190671544955876],[71.745152552248555,33.172242764392138],[71.747354472131235,33.12984186491019],[71.738546792600459,33.103100332314511],[71.723133354320908,33.093877226253028],[71.712123755806715,33.080040753677906],[71.706618956099987,33.071737824940726],[71.693407437703172,33.062511429159201],[71.672489199716836,33.056052376815785],[71.655028086976699,33.056052376815785],[71.655278385389238,33.029641994382587],[71.658747366397904,33.013159776602436],[71.678404927545444,33.003462914881652],[71.684186562859622,32.972425795713946],[71.688811871470762,32.954962620828326],[71.738533936791782,32.954962620828326],[71.754722516930656,32.958843624433769],[71.76859844186464,32.965634970877261],[71.776692731484445,32.974365935539538],[71.781790216545289,32.974009571084878]]]}}
]
}
