{
"type": "FeatureCollection",
"name": "districts",
"crs": { "type": "name", "properties": { "name": "urn:ogc:def:crs:OGC:1.3:CRS84" } },
"xy_coordinate_resolution": 1e-05,
"features": [
{"type":"Feature","properties":{"id":1,"name":"Sheikhpura"},"geometry":{"type":"Polygon","coordinates":[[[74.38682,31.65147],[74.35923,31.64325],[74.3344,31.62916],[74.31233,31.62446],[74.26818,31.61741],[74.25439,31.60331],[74.25025,31.57981],[74.23093,31.56923],[74.22404,31.54807],[74.22404,31.53279],[74.21714,31.51162],[74.20748,31.50339],[74.19644,31.49868],[74.18955,31.48339],[74.18817,31.46221],[74.18403,31.45162],[74.17023,31.44926],[74.16471,31.43632],[74.15506,31.42572],[74.11505,31.42219],[74.10263,31.40571],[74.08608,31.40453],[74.07366,31.39393],[74.0709,31.37862],[74.06401,31.3586],[74.04607,31.35624],[74.0309,31.35624],[74.0171,31.33621],[74.00469,31.32207],[73.99365,31.30557],[73.99826,31.28096],[73.99166,31.28096],[73.96606,31.27794],[73.95546,31.26134],[73.93516,31.25681],[73.91132,31.25454],[73.90514,31.24624],[73.9034,31.23954],[73.8751,31.23954],[73.8751,31.71948],[74.40104,31.71948],[74.40104,31.63937],[74.38682,31.65147]]]}},
{"type":"Feature","properties":{"id":2,"name":"Kasur"},"geometry":{"type":"MultiPolygon","coordinates":[[[[74.28302,31.24171],[74.29627,31.25454],[74.32099,31.25983],[74.34395,31.25983],[74.40104,31.2661],[74.40104,31.23954],[74.27822,31.23954],[74.28302,31.24171]]],[[[73.90514,31.24624],[73.91132,31.25454],[73.93516,31.25681],[73.95546,31.26134],[73.96606,31.27794],[73.99166,31.28096],[74.0102,31.28096],[74.02433,31.2719],[74.04199,31.26209],[74.07377,31.25983],[74.13116,31.25907],[74.1497,31.25002],[74.15813,31.23954],[73.9034,31.23954],[73.90514,31.24624]]]]}},
{"type":"Feature","properties":{"id":3,"name":"Lahore"},"geometry":{"type":"Polygon","coordinates":[[[74.1497,31.25002],[74.13116,31.25907],[74.07377,31.25983],[74.04199,31.26209],[74.02433,31.2719],[74.0102,31.28096],[73.99826,31.28096],[73.99365,31.30557],[74.00469,31.32207],[74.0171,31.33621],[74.0309,31.35624],[74.04607,31.35624],[74.06401,31.3586],[74.0709,31.37862],[74.07366,31.39393],[74.08608,31.40453],[74.10263,31.40571],[74.11505,31.42219],[74.15506,31.42572],[74.16471,31.43632],[74.17023,31.44926],[74.18403,31.45162],[74.18817,31.46221],[74.18955,31.48339],[74.19644,31.49868],[74.20748,31.50339],[74.21714,31.51162],[74.22404,31.53279],[74.22404,31.54807],[74.23093,31.56923],[74.25025,31.57981],[74.25439,31.60331],[74.26818,31.61741],[74.31233,31.62446],[74.3344,31.62916],[74.35923,31.64325],[74.38682,31.65147],[74.40104,31.63937],[74.40104,31.2661],[74.34395,31.25983],[74.32099,31.25983],[74.29627,31.25454],[74.28302,31.24171],[74.27822,31.23954],[74.15813,31.23954],[74.1497,31.25002]]]}}
]
}
