{
  "type": "FeatureCollection",
  "features": [
    {
      "type": "Feature",
      "geometry": {
        "type": "Polygon",
        "coordinates": [
          [
            [
              74.39103591056303,
              31.66348225745308
            ],
            [
              74.39103591056303,
              31.709476
            ],
            [
              74.34504216801612,
              31.709476
            ],
            [
              74.34504216801612,
              31.66348225745308
            ],
            [
              74.39103591056303,
              31.66348225745308
            ]
          ]
        ]
      },
      "properties": {
        "id": "L1",
        "bounds": [
          74.34504216801612,
          31.66348225745308,
          74.39103591056303,
          31.709476
        ],
        "flood_share": 0.17
      }
    },
    {
      "type": "Feature",
      "geometry": {
        "type": "Polygon",
        "coordinates": [
          [
            [
              74.34504216801612,
              31.61748851490616
            ],
            [
              74.34504216801612,
              31.66348225745308
            ],
            [
              74.2990484254692,
              31.66348225745308
            ],
            [
              74.2990484254692,
              31.61748851490616
            ],
            [
              74.34504216801612,
              31.61748851490616
            ]
          ]
        ]
      },
      "properties": {
        "id": "K2",
        "bounds": [
          74.2990484254692,
          31.61748851490616,
          74.34504216801612,
          31.66348225745308
        ],
        "flood_share": 0.138
      }
    },
    {
      "type": "Feature",
      "geometry": {
        "type": "Polygon",
        "coordinates": [
          [
            [
              74.39103591056303,
              31.61748851490616
            ],
            [
              74.39103591056303,
              31.66348225745308
            ],
            [
              74.34504216801612,
              31.66348225745308
            ],
            [
              74.34504216801612,
              31.61748851490616
            ],
            [
              74.39103591056303,
              31.61748851490616
            ]
          ]
        ]
      },
      "properties": {
        "id": "L2",
        "bounds": [
          74.34504216801612,
          31.61748851490616,
          74.39103591056303,
          31.66348225745308
        ],
        "flood_share": 0.067
      }
    },
    {
      "type": "Feature",
      "geometry": {
        "type": "Polygon",
        "coordinates": [
          [
            [
              74.2990484254692,
              31.57149477235924
            ],
            [
              74.2990484254692,
              31.61748851490616
            ],
            [
              74.25305468292228,
              31.61748851490616
            ],
            [
              74.25305468292228,
              31.57149477235924
            ],
            [
              74.2990484254692,
              31.57149477235924
            ]
          ]
        ]
      },
      "properties": {
        "id": "J3",
        "bounds": [
          74.25305468292228,
          31.57149477235924,
          74.2990484254692,
          31.61748851490616
        ],
        "flood_share": 0.057
      }
    },
    {
      "type": "Feature",
      "geometry": {
        "type": "Polygon",
        "coordinates": [
          [
            [
              74.25305468292228,
              31.52550102981232
            ],
            [
              74.25305468292228,
              31.57149477235924
            ],
            [
              74.20706094037536,
              31.57149477235924
            ],
            [
              74.20706094037536,
              31.52550102981232
            ],
            [
              74.25305468292228,
              31.52550102981232
            ]
          ]
        ]
      },
      "properties": {
        "id": "I4",
        "bounds": [
          74.20706094037536,
          31.52550102981232,
          74.25305468292228,
          31.57149477235924
        ],
        "flood_share": 0.085
      }
    },
    {
      "type": "Feature",
      "geometry": {
        "type": "Polygon",
        "coordinates": [
          [
            [
              74.20706094037536,
              31.479507287265402
            ],
            [
              74.20706094037536,
              31.52550102981232
            ],
            [
              74.16106719782844,
              31.52550102981232
            ],
            [
              74.16106719782844,
              31.479507287265402
            ],
            [
              74.20706094037536,
              31.479507287265402
            ]
          ]
        ]
      },
      "properties": {
        "id": "H5",
        "bounds": [
          74.16106719782844,
          31.479507287265402,
          74.20706094037536,
          31.52550102981232
        ],
        "flood_share": 0.16
      }
    },
    {
      "type": "Feature",
      "geometry": {
        "type": "Polygon",
        "coordinates": [
          [
            [
              74.16106719782844,
              31.433513544718483
            ],
            [
              74.16106719782844,
              31.479507287265402
            ],
            [
              74.11507345528152,
              31.479507287265402
            ],
            [
              74.11507345528152,
              31.433513544718483
            ],
            [
              74.16106719782844,
              31.433513544718483
            ]
          ]
        ]
      },
      "properties": {
        "id": "G6",
        "bounds": [
          74.11507345528152,
          31.433513544718483,
          74.16106719782844,
          31.479507287265402
        ],
        "flood_share": 0.184
      }
    },
    {
      "type": "Feature",
      "geometry": {
        "type": "Polygon",
        "coordinates": [
          [
            [
              74.20706094037536,
              31.433513544718483
            ],
            [
              74.20706094037536,
              31.479507287265402
            ],
            [
              74.16106719782844,
              31.479507287265402
            ],
            [
              74.16106719782844,
              31.433513544718483
            ],
            [
              74.20706094037536,
              31.433513544718483
            ]
          ]
        ]
      },
      "properties": {
        "id": "H6",
        "bounds": [
          74.16106719782844,
          31.433513544718483,
          74.20706094037536,
          31.479507287265402
        ],
        "flood_share": 0.085
      }
    },
    {
      "type": "Feature",
      "geometry": {
        "type": "Polygon",
        "coordinates": [
          [
            [
              74.0690797127346,
              31.38751980217156
            ],
            [
              74.0690797127346,
              31.433513544718483
            ],
            [
              74.02308597018768,
              31.433513544718483
            ],
            [
              74.02308597018768,
              31.38751980217156
            ],
            [
              74.0690797127346,
              31.38751980217156
            ]
          ]
        ]
      },
      "properties": {
        "id": "E7",
        "bounds": [
          74.02308597018768,
          31.38751980217156,
          74.0690797127346,
          31.433513544718483
        ],
        "flood_share": 0.169
      }
    },
    {
      "type": "Feature",
      "geometry": {
        "type": "Polygon",
        "coordinates": [
          [
            [
              74.11507345528152,
              31.38751980217156
            ],
            [
              74.11507345528152,
              31.433513544718483
            ],
            [
              74.0690797127346,
              31.433513544718483
            ],
            [
              74.0690797127346,
              31.38751980217156
            ],
            [
              74.11507345528152,
              31.38751980217156
            ]
          ]
        ]
      },
      "properties": {
        "id": "F7",
        "bounds": [
          74.0690797127346,
          31.38751980217156,
          74.11507345528152,
          31.433513544718483
        ],
        "flood_share": 0.206
      }
    },
    {
      "type": "Feature",
      "geometry": {
        "type": "Polygon",
        "coordinates": [
          [
            [
              74.16106719782844,
              31.38751980217156
            ],
            [
              74.16106719782844,
              31.433513544718483
            ],
            [
              74.11507345528152,
              31.433513544718483
            ],
            [
              74.11507345528152,
              31.38751980217156
            ],
            [
              74.16106719782844,
              31.38751980217156
            ]
          ]
        ]
      },
      "properties": {
        "id": "G7",
        "bounds": [
          74.11507345528152,
          31.38751980217156,
          74.16106719782844,
          31.433513544718483
        ],
        "flood_share": 0.057
      }
    },
    {
      "type": "Feature",
      "geometry": {
        "type": "Polygon",
        "coordinates": [
          [
            [
              74.02308597018768,
              31.34152605962464
            ],
            [
              74.02308597018768,
              31.38751980217156
            ],
            [
              73.97709222764077,
              31.38751980217156
            ],
            [
              73.97709222764077,
              31.34152605962464
            ],
            [
              74.02308597018768,
              31.34152605962464
            ]
          ]
        ]
      },
      "properties": {
        "id": "D8",
        "bounds": [
          73.97709222764077,
          31.34152605962464,
          74.02308597018768,
          31.38751980217156
        ],
        "flood_share": 0.372
      }
    },
    {
      "type": "Feature",
      "geometry": {
        "type": "Polygon",
        "coordinates": [
          [
            [
              74.0690797127346,
              31.34152605962464
            ],
            [
              74.0690797127346,
              31.38751980217156
            ],
            [
              74.02308597018768,
              31.38751980217156
            ],
            [
              74.02308597018768,
              31.34152605962464
            ],
            [
              74.0690797127346,
              31.34152605962464
            ]
          ]
        ]
      },
      "properties": {
        "id": "E8",
        "bounds": [
          74.02308597018768,
          31.34152605962464,
          74.0690797127346,
          31.38751980217156
        ],
        "flood_share": 0.538
      }
    },
    {
      "type": "Feature",
      "geometry": {
        "type": "Polygon",
        "coordinates": [
          [
            [
              73.93109848509384,
              31.295532317077722
            ],
            [
              73.93109848509384,
              31.34152605962464
            ],
            [
              73.88510474254693,
              31.34152605962464
            ],
            [
              73.88510474254693,
              31.295532317077722
            ],
            [
              73.93109848509384,
              31.295532317077722
            ]
          ]
        ]
      },
      "properties": {
        "id": "B9",
        "bounds": [
          73.88510474254693,
          31.295532317077722,
          73.93109848509384,
          31.34152605962464
        ],
        "flood_share": 0.122
      }
    },
    {
      "type": "Feature",
      "geometry": {
        "type": "Polygon",
        "coordinates": [
          [
            [
              73.97709222764077,
              31.295532317077722
            ],
            [
              73.97709222764077,
              31.34152605962464
            ],
            [
              73.93109848509384,
              31.34152605962464
            ],
            [
              73.93109848509384,
              31.295532317077722
            ],
            [
              73.97709222764077,
              31.295532317077722
            ]
          ]
        ]
      },
      "properties": {
        "id": "C9",
        "bounds": [
          73.93109848509384,
          31.295532317077722,
          73.97709222764077,
          31.34152605962464
        ],
        "flood_share": 0.497
      }
    },
    {
      "type": "Feature",
      "geometry": {
        "type": "Polygon",
        "coordinates": [
          [
            [
              74.02308597018768,
              31.295532317077722
            ],
            [
              74.02308597018768,
              31.34152605962464
            ],
            [
              73.97709222764077,
              31.34152605962464
            ],
            [
              73.97709222764077,
              31.295532317077722
            ],
            [
              74.02308597018768,
              31.295532317077722
            ]
          ]
        ]
      },
      "properties": {
        "id": "D9",
        "bounds": [
          73.97709222764077,
          31.295532317077722,
          74.02308597018768,
          31.34152605962464
        ],
        "flood_share": 0.602
      }
    },
    {
      "type": "Feature",
      "geometry": {
        "type": "Polygon",
        "coordinates": [
          [
            [
              74.0690797127346,
              31.295532317077722
            ],
            [
              74.0690797127346,
              31.34152605962464
            ],
            [
              74.02308597018768,
              31.34152605962464
            ],
            [
              74.02308597018768,
              31.295532317077722
            ],
            [
              74.0690797127346,
              31.295532317077722
            ]
          ]
        ]
      },
      "properties": {
        "id": "E9",
        "bounds": [
          74.02308597018768,
          31.295532317077722,
          74.0690797127346,
          31.34152605962464
        ],
        "flood_share": 0.189
      }
    },
    {
      "type": "Feature",
      "geometry": {
        "type": "Polygon",
        "coordinates": [
          [
            [
              73.93109848509384,
              31.249538574530803
            ],
            [
              73.93109848509384,
              31.295532317077722
            ],
            [
              73.88510474254693,
              31.295532317077722
            ],
            [
              73.88510474254693,
              31.249538574530803
            ],
            [
              73.93109848509384,
              31.249538574530803
            ]
          ]
        ]
      },
      "properties": {
        "id": "B10",
        "bounds": [
          73.88510474254693,
          31.249538574530803,
          73.93109848509384,
          31.295532317077722
        ],
        "flood_share": 0.342
      }
    },
    {
      "type": "Feature",
      "geometry": {
        "type": "Polygon",
        "coordinates": [
          [
            [
              73.97709222764077,
              31.249538574530803
            ],
            [
              73.97709222764077,
              31.295532317077722
            ],
            [
              73.93109848509384,
              31.295532317077722
            ],
            [
              73.93109848509384,
              31.249538574530803
            ],
            [
              73.97709222764077,
              31.249538574530803
            ]
          ]
        ]
      },
      "properties": {
        "id": "C10",
        "bounds": [
          73.93109848509384,
          31.249538574530803,
          73.97709222764077,
          31.295532317077722
        ],
        "flood_share": 0.367
      }
    },
    {
      "type": "Feature",
      "geometry": {
        "type": "Polygon",
        "coordinates": [
          [
            [
              74.02308597018768,
              31.249538574530803
            ],
            [
              74.02308597018768,
              31.295532317077722
            ],
            [
              73.97709222764077,
              31.295532317077722
            ],
            [
              73.97709222764077,
              31.249538574530803
            ],
            [
              74.02308597018768,
              31.249538574530803
            ]
          ]
        ]
      },
      "properties": {
        "id": "D10",
        "bounds": [
          73.97709222764077,
          31.249538574530803,
          74.02308597018768,
          31.295532317077722
        ],
        "flood_share": 0.155
      }
    }
  ]
}