{
"type": "FeatureCollection",
"name": "districts",
"crs": { "type": "name", "properties": { "name": "urn:ogc:def:crs:OGC:1.3:CRS84" } },
"features": [
{"type":"Feature","properties":{"id":6,"name":"Galle District","area_km2":1618.1113400960271},"geometry":{"type":"Polygon","coordinates":[[[79.987568137356362,6.440351918041709],[79.9912231,6.4357912],[79.9938362,6.4296389],[79.9958078,6.4199447],[79.9957541,6.4178342],[79.9943491,6.4176155],[79.994061,6.416819],[79.9948997,6.417223],[79.9962601,6.4151515],[80.0041856,6.3995178],[80.005065,6.3964972],[80.0037023,6.3950325],[80.0077019,6.3866604],[80.0090322,6.3801233],[80.009238,6.3775453],[80.0079743,6.3766788],[80.0113348,6.3703017],[80.0113162,6.3682866],[80.010169,6.3677061],[80.0157963,6.3589551],[80.0161916,6.3575681],[80.015545,6.356847],[80.0284002,6.3310224],[80.0304726,6.3214694],[80.0292622,6.3198916],[80.0296119,6.3182833],[80.028786,6.3173604],[80.0292595,6.3165921],[80.028379,6.3138816],[80.033613,6.3064407],[80.0363304,6.3000718],[80.0377645,6.2927839],[80.0373321,6.2908385],[80.0358969,6.2903711],[80.0355057,6.2852947],[80.0335257,6.2843012],[80.0354423,6.2760352],[80.0344483,6.2733971],[80.0332213,6.2730125],[80.0330248,6.2694072],[80.0365894,6.2623703],[80.0359844,6.2603085],[80.0378519,6.255693],[80.0408951,6.2518129],[80.0413107,6.2500739],[80.0469274,6.2437789],[80.0481179,6.2392879],[80.0516227,6.2360887],[80.0523931,6.2316323],[80.0516529,6.2310121],[80.0528266,6.2294249],[80.0531438,6.2267866],[80.0635369,6.2027852],[80.0634201,6.1983525],[80.061601,6.1950458],[80.0629562,6.1906684],[80.0809761,6.1746196],[80.0886027,6.1660992],[80.09073,6.1609304],[80.0913422,6.1560017],[80.0939672,6.1545142],[80.0987299,6.1483567],[80.0991124,6.1451698],[80.0975686,6.1449712],[80.0974809,6.1435324],[80.0975901,6.1448592],[80.0991054,6.1450682],[80.0988882,6.141019],[80.0977083,6.1417604],[80.097896,6.1427684],[80.0963833,6.1428751],[80.0994728,6.1399536],[80.0991792,6.1360595],[80.1005612,6.13316],[80.0998221,6.1312075],[80.1080698,6.1242329],[80.1132123,6.1210148],[80.1231446,6.1111499],[80.1245492,6.1091745],[80.1238578,6.1071773],[80.1249349,6.106309],[80.124221,6.1018158],[80.1448611,6.0857908],[80.1476887,6.0832512],[80.147907,6.0810407],[80.1523565,6.0774443],[80.1680876,6.0672373],[80.1732838,6.0621969],[80.1739542,6.0626112],[80.1799692,6.0520904],[80.1869353,6.0471849],[80.1913761,6.04267],[80.1992409,6.0400807],[80.1985436,6.038683],[80.2013652,6.0396859],[80.2091548,6.035912],[80.2088969,6.034618],[80.2114942,6.0334603],[80.2122492,6.0309372],[80.2139436,6.0314215],[80.21394,6.0268234],[80.2174188,6.0236417],[80.2196156,6.0243544],[80.2198945,6.0263288],[80.2193972,6.0292354],[80.2178952,6.0289713],[80.2174544,6.031201],[80.2187898,6.0318847],[80.2189837,6.033778],[80.2223609,6.0360852],[80.2270733,6.0364957],[80.2272329,6.0344598],[80.2279639,6.0337826],[80.2275087,6.0359656],[80.2278498,6.0350589],[80.2278435,6.0359725],[80.2285397,6.0349259],[80.2286924,6.0357328],[80.2312786,6.0349069],[80.2317504,6.0344074],[80.2303185,6.0340238],[80.2317541,6.034105],[80.2323803,6.0322056],[80.2285167,6.0312244],[80.2268344,6.0320055],[80.2292707,6.0303891],[80.2345146,6.0303456],[80.2355334,6.0312722],[80.2349956,6.0325261],[80.2367895,6.0330652],[80.2386086,6.0323672],[80.2425431,6.0281981],[80.2405417,6.0263382],[80.2403353,6.0201151],[80.2395827,6.0188143],[80.2372983,6.017432],[80.2353102,6.0186518],[80.2348447,6.0173874],[80.2363478,6.0170192],[80.2365379,6.0126201],[80.2431331,6.0052659],[80.2441331,6.0057293],[80.2435531,6.0070495],[80.2454081,6.009187],[80.2494724,6.0095505],[80.2521877,6.0067203],[80.2549552,6.0054783],[80.2565261,6.0030116],[80.2585452,6.0025831],[80.2645739,5.9985718],[80.2651248,5.9994285],[80.2668528,5.9988983],[80.2675889,5.9994634],[80.2694548,5.9989163],[80.2702133,5.9975607],[80.2735203,5.9982094],[80.2897345,5.9941721],[80.2926015,5.9945435],[80.314905,5.9913747],[80.3333929,5.9828727],[80.3354909,5.9827289],[80.3402527,5.9802743],[80.3435801,5.9802743],[80.3471233,5.9777987],[80.35062,5.9772134],[80.360983,5.9723716],[80.3635568,5.9719338],[80.3650808,5.9706202],[80.3701226,5.9688055],[80.3705163,5.9679971],[80.3698813,5.9677614],[80.3706433,5.9672309],[80.3740553,5.967555],[80.3792612,5.9648568],[80.381799269475465,5.965264029890292],[80.3814533,5.9663636],[80.384823,5.9672666],[80.3839484,5.969871],[80.3858255,5.9732649],[80.3853372,5.9763671],[80.3832817,5.9768672],[80.3821561,5.978306],[80.382698,5.9794],[80.381936,5.983719],[80.386711,5.992243],[80.389227,6.00479],[80.391169,6.00869],[80.394773,6.011512],[80.398732,6.013142],[80.403984,6.013148],[80.40745,6.011184],[80.411124,6.011608],[80.412058,6.012413],[80.41232,6.015465],[80.418983,6.017804],[80.422454,6.017354],[80.423285,6.018679],[80.422411,6.021205],[80.417358,6.025722],[80.41688,6.028485],[80.413919,6.029112],[80.412111,6.032261],[80.406184,6.032572],[80.396286,6.030904],[80.391576,6.033908],[80.38986,6.038092],[80.390214,6.044229],[80.388626,6.052737],[80.389307,6.05462],[80.390595,6.05609],[80.394232,6.05763],[80.397139,6.054867],[80.399076,6.051568],[80.401146,6.051332],[80.404703,6.052936],[80.409408,6.061422],[80.410658,6.065118],[80.410845,6.069077],[80.414032,6.071362],[80.417771,6.076164],[80.423087,6.078857],[80.427491,6.083035],[80.436675,6.086383],[80.438123,6.087767],[80.43888,6.093678],[80.437651,6.095245],[80.432475,6.09804],[80.429733,6.100878],[80.427749,6.10114],[80.426568,6.102755],[80.422942,6.104386],[80.423784,6.108313],[80.42056,6.110587],[80.418597,6.111134],[80.412916,6.109713],[80.406098,6.114047],[80.405256,6.119953],[80.402788,6.12528],[80.400374,6.128392],[80.392821,6.13072],[80.38942,6.132731],[80.386228,6.137908],[80.384211,6.143573],[80.382532,6.153395],[80.384651,6.165213],[80.385638,6.166913],[80.391287,6.166055],[80.395997,6.169639],[80.396136,6.171618],[80.390916,6.177567],[80.391791,6.179418],[80.388245,6.184192],[80.38788,6.186182],[80.3892,6.187626],[80.399253,6.188924],[80.403104,6.190394],[80.402938,6.192405],[80.400336,6.197743],[80.399961,6.201686],[80.397853,6.205092],[80.392241,6.213428],[80.386797,6.21618],[80.383379,6.221008],[80.384485,6.222623],[80.38523,6.220762],[80.386888,6.219689],[80.39273,6.221566],[80.398309,6.219222],[80.404279,6.218455],[80.40782,6.216593],[80.415781,6.217162],[80.417857,6.216781],[80.420759,6.21412],[80.426735,6.214179],[80.430205,6.2161],[80.435173,6.222462],[80.439963,6.226013],[80.440446,6.227918],[80.435516,6.236619],[80.437088,6.237847],[80.440956,6.238545],[80.441256,6.240492],[80.437174,6.244859],[80.435227,6.24834],[80.435044,6.250378],[80.436037,6.252122],[80.43918,6.254627],[80.435881,6.259648],[80.434395,6.261059],[80.432432,6.261059],[80.430855,6.262223],[80.424932,6.270254],[80.421896,6.272716],[80.421354,6.274604],[80.422631,6.276106],[80.419203,6.281079],[80.414869,6.285344],[80.412717,6.290933],[80.413195,6.29287],[80.410293,6.295649],[80.403314,6.299517],[80.397735,6.301614],[80.395675,6.301625],[80.393534,6.303363],[80.39112,6.30664],[80.386389,6.310106],[80.384431,6.314408],[80.381899,6.317278],[80.380821,6.321012],[80.377672,6.323324],[80.3775,6.325078],[80.378863,6.327642],[80.385541,6.331317],[80.389849,6.329337],[80.392762,6.329123],[80.395508,6.330249],[80.398958,6.333581],[80.404633,6.333736],[80.410271,6.328533],[80.414354,6.323302],[80.421789,6.318206],[80.429138,6.315519],[80.430071,6.311597],[80.432646,6.307558],[80.439196,6.303336],[80.443901,6.302628],[80.446111,6.301346],[80.44735,6.297559],[80.452902,6.291947],[80.4539167,6.2887999],[80.455821,6.288321],[80.459366,6.29007],[80.461287,6.289501],[80.467445,6.281873],[80.473169,6.280172],[80.476817,6.281465],[80.480073,6.286245],[80.485733,6.284512],[80.486763,6.28617],[80.486097,6.288064],[80.486864,6.291931],[80.488023,6.293605],[80.495743,6.299635],[80.494509,6.30317],[80.491891,6.30604],[80.490501,6.312531],[80.486494,6.316667],[80.485491,6.321264],[80.478362,6.323415],[80.475181,6.330233],[80.473008,6.332175],[80.469435,6.333221],[80.464355,6.338655],[80.46406,6.344208],[80.460649,6.348714],[80.460525,6.351514],[80.461045,6.352302],[80.464758,6.351809],[80.466952,6.353595],[80.468325,6.356277],[80.470042,6.357141],[80.47812,6.365188],[80.482423,6.366727],[80.485556,6.364641],[80.488265,6.363916],[80.493591,6.366009],[80.495308,6.36758],[80.493731,6.373068],[80.494208,6.376732],[80.493388,6.378395],[80.491006,6.380128],[80.482299,6.381034],[80.477691,6.379457],[80.474006,6.380047],[80.472059,6.378239],[80.470605,6.379403],[80.469339,6.382086],[80.465235,6.385959],[80.462472,6.385621],[80.457049,6.387992],[80.454286,6.387203],[80.451304,6.387724],[80.440527,6.394665],[80.436723,6.393785],[80.431525,6.389344],[80.419927,6.391999],[80.400057,6.407669],[80.395128,6.413628],[80.385863,6.420296],[80.3812714,6.4255777],[80.3795748,6.4248392],[80.3760286,6.4276892],[80.3716179,6.4261608],[80.3689369,6.4267872],[80.3590724,6.4203728],[80.3566649,6.4173455],[80.3540077,6.4175118],[80.3529697,6.4190635],[80.3520793,6.4191662],[80.3468528,6.4159036],[80.3345532,6.4109536],[80.31929,6.4016146],[80.3133426,6.3969142],[80.3108138,6.3972566],[80.3045898,6.3954569],[80.2990209,6.3976657],[80.2896625,6.3910053],[80.2902964,6.3704286],[80.2934939,6.3606306],[80.2945597,6.3545399],[80.2991523,6.3457991],[80.3009134,6.3354117],[80.2994154,6.3311462],[80.2990268,6.3257593],[80.2968083,6.3248628],[80.2936456,6.3260727],[80.2901017,6.3315812],[80.2855987,6.3348385],[80.2821205,6.3419982],[80.2758815,6.3490872],[80.2692509,6.3499258],[80.2647449,6.3546448],[80.2586404,6.3590826],[80.253085,6.3656449],[80.2473312,6.3674808],[80.2454709,6.3725434],[80.2437389,6.3749001],[80.2411137,6.3765716],[80.2375572,6.3773628],[80.2306561,6.3770451],[80.2266243,6.3788614],[80.2174766,6.3800778],[80.2154606,6.3758735],[80.2119967,6.371491],[80.210031,6.3707629],[80.2067353,6.3719945],[80.2065538,6.368896],[80.2079738,6.3668998],[80.2066474,6.3634277],[80.2073992,6.35964],[80.2022797,6.3591117],[80.2011551,6.3577694],[80.1966653,6.3580274],[80.1894483,6.3544984],[80.1868316,6.3581229],[80.1782535,6.3598273],[80.1692666,6.3600565],[80.1674823,6.3617265],[80.1545711,6.367227],[80.1408426,6.3665307],[80.1388996,6.367366],[80.1360169,6.3662238],[80.1343571,6.3677255],[80.132255,6.3678628],[80.1315926,6.3660307],[80.1306667,6.3657195],[80.1284552,6.3690164],[80.1258884,6.3693543],[80.1221834,6.3712108],[80.1201263,6.374239],[80.119247,6.378873],[80.1137641,6.3859751],[80.0952784,6.3958893],[80.0874527,6.401777],[80.0821772,6.4023012],[80.0802931,6.4016646],[80.0768641,6.3982569],[80.0697045,6.3980322],[80.0670667,6.399605],[80.0633712,6.4071191],[80.0614118,6.4084672],[80.0561739,6.4092161],[80.0513506,6.4137097],[80.0474694,6.4150577],[80.0440403,6.4151701],[80.0388377,6.4197527],[80.0321115,6.4191535],[80.0302274,6.4196591],[80.0267951,6.4233945],[80.0232505,6.4316439],[80.0191431,6.4341339],[80.0110415,6.4374859],[80.0077624,6.4370217],[80.006237,6.4358938],[80.0039939,6.4292727],[80.0018623,6.4273795],[79.9990444,6.4269669],[79.9967055,6.4289073],[79.9919936,6.4398211],[79.9886069,6.4416375],[79.987568137356362,6.440351918041709]]]}},
{"type":"Feature","properties":{"id":7,"name":"Hambantota District","area_km2":2621.5040948054661},"geometry":{"type":"Polygon","coordinates":[[[80.670059,6.306029],[80.65998,6.304693],[80.656675,6.302601],[80.658971,6.299409],[80.659384,6.297419],[80.663391,6.293063],[80.663622,6.287286],[80.658869,6.280752],[80.654304,6.276503],[80.652571,6.272925],[80.652732,6.270962],[80.657265,6.266944],[80.658671,6.263258],[80.660995,6.2610081],[80.660934,6.260013],[80.650983,6.257497],[80.644981,6.256934],[80.638549,6.252626],[80.628501,6.23995],[80.625143,6.230444],[80.625213,6.224495],[80.624194,6.222677],[80.618196,6.217178],[80.610992,6.207206],[80.609838,6.205489],[80.608267,6.199567],[80.610273,6.193832],[80.611839,6.192507],[80.61148,6.188548],[80.618164,6.184342],[80.619285,6.18261],[80.625047,6.182781],[80.628775,6.181312],[80.63128,6.178227],[80.634804,6.176784],[80.635368,6.170964],[80.637084,6.170046],[80.638726,6.171108],[80.646354,6.169156],[80.648049,6.170245],[80.650098,6.170304],[80.651815,6.169317],[80.653778,6.169912],[80.656418,6.172981],[80.65822,6.173855],[80.660157,6.173619],[80.661095,6.16988],[80.662378,6.168351],[80.662276,6.166388],[80.655988,6.156201],[80.656815,6.152301],[80.655093,6.148717],[80.651557,6.146947],[80.646563,6.140805],[80.646788,6.134925],[80.648071,6.133413],[80.654073,6.132871],[80.6605,6.128504],[80.662093,6.124776],[80.662453,6.120704],[80.663767,6.119218],[80.665773,6.119159],[80.673246,6.121777],[80.679243,6.121976],[80.689039,6.123853],[80.692751,6.122105],[80.694108,6.120662],[80.694022,6.118714],[80.695626,6.117507],[80.695975,6.115512],[80.694741,6.11394],[80.69281,6.113575],[80.687907,6.110056],[80.684195,6.108763],[80.680155,6.102111],[80.680246,6.100148],[80.683433,6.095459],[80.682043,6.089505],[80.690133,6.080235],[80.691812,6.076609],[80.693673,6.075751],[80.693749,6.073728],[80.690412,6.07169],[80.693298,6.068922],[80.692413,6.067119],[80.692118,6.063235],[80.689956,6.059813],[80.687907,6.059566],[80.684967,6.062452],[80.683014,6.062914],[80.677741,6.06043],[80.67566,6.057007],[80.672393,6.054508],[80.664175,6.053537],[80.66153,6.052351],[80.657244,6.047797],[80.655211,6.042781],[80.659384,6.040227],[80.66381,6.038929],[80.664078,6.034949],[80.666524,6.029767],[80.666605,6.025261],[80.669389,6.024612],[80.676223,6.02635],[80.685686,6.027374],[80.689645,6.026253],[80.691742,6.026521],[80.693625,6.025228],[80.694848,6.02046],[80.698555,6.018496],[80.698931,6.017284],[80.697016,6.012649],[80.691442,6.010176],[80.687821,6.009554],[80.686877,6.008588],[80.687134,6.004082],[80.689591,5.994743],[80.688132,5.992296],[80.688314,5.990666],[80.698357,5.990982],[80.699403,5.991615],[80.699827,5.993691],[80.703329,5.993021],[80.706055,5.990553],[80.711156,5.989029],[80.714477,5.98528],[80.716649,5.984802],[80.722014,5.981568],[80.724119407305864,5.978716877660937],[80.7276192,5.9798447],[80.7300659,5.9792401],[80.7319479,5.9782106],[80.7314388,5.976656],[80.7318866,5.9752873],[80.7341829,5.9740979],[80.7319412,5.9755779],[80.7319903,5.9779948],[80.7348526,5.9759361],[80.7356392,5.9763105],[80.7344468,5.9720453],[80.7350199,5.9725177],[80.7354793,5.9716721],[80.7373042,5.9716765],[80.7379221,5.9721209],[80.737502,5.9736064],[80.7392115,5.9743849],[80.7383844,5.9760381],[80.7392058,5.9782256],[80.7377158,5.9779505],[80.7375233,5.9789572],[80.7365887,5.978548],[80.736006,5.9805429],[80.7366668,5.9821565],[80.7378017,5.9818824],[80.7385492,5.9826477],[80.7386139,5.9859281],[80.7428865,5.9880418],[80.7459432,5.9876226],[80.7502632,5.9891763],[80.7455864,5.9891344],[80.7450851,5.9905926],[80.7457779,5.9945051],[80.748577,5.9982556],[80.7548297,6.0014013],[80.7607653,6.0001074],[80.763481,6.0018298],[80.7644567,6.000536],[80.7654893,6.0014579],[80.7646087,6.001872],[80.7648222,6.0024694],[80.767457,6.0026708],[80.7663649,6.0043308],[80.7670468,6.0048704],[80.7685872,6.0043609],[80.7691484,6.0027375],[80.7705932,6.002836],[80.7738711,6.0061173],[80.7764651,6.0063401],[80.7771014,6.0047912],[80.7812215,6.0062392],[80.7801395,6.0074939],[80.7807295,6.009296],[80.7823295,6.0098484],[80.7828445,6.0109996],[80.7845404,6.0110028],[80.7871743,6.0124775],[80.7862551,6.013917],[80.7864581,6.0151195],[80.7881829,6.0163933],[80.7900434,6.0159677],[80.79054,6.0165734],[80.789563,6.0171848],[80.7899807,6.018399],[80.7913132,6.0187269],[80.7923706,6.0174886],[80.7918389,6.0187908],[80.7957178,6.0190725],[80.7964976,6.0203303],[80.7994884,6.0205184],[80.8014315,6.0227173],[80.7996233,6.0254577],[80.8001418,6.0234166],[80.7987907,6.0236513],[80.7983647,6.0246484],[80.7981764,6.0260625],[80.7988259,6.0264437],[80.7980265,6.0275658],[80.7989974,6.0303445],[80.8018165,6.033694],[80.8071399,6.0372383],[80.8189628,6.0415404],[80.8470795,6.0454409],[80.8507708,6.0457645],[80.8567248,6.0448827],[80.8602322,6.0436434],[80.8606638,6.0420937],[80.8632237,6.0435888],[80.8640096,6.0459191],[80.8667241,6.0469178],[80.8665058,6.0493856],[80.8656034,6.0503915],[80.8684417,6.0557397],[80.8713016,6.0581711],[80.8859498,6.0625022],[80.9041341,6.0638799],[80.9288052,6.0747755],[80.9321619,6.0757768],[80.936486,6.0749129],[80.9356765,6.0763462],[80.9364663,6.0803516],[80.9433376,6.0837875],[80.9512554,6.0853778],[80.9633196,6.085908],[80.9746424,6.0876222],[80.9770037,6.0870519],[80.9814245,6.0897019],[80.9831059,6.089604],[80.9845456,6.0919551],[80.9861792,6.0927284],[80.9893529,6.0926069],[80.9898987,6.0948935],[80.9905755,6.0944376],[80.993108,6.0948429],[80.9914051,6.0947777],[80.9926213,6.097531],[80.9955078,6.0994614],[81.0009355,6.1011803],[81.0196065,6.1045966],[81.0505053,6.106824],[81.0541376,6.1103525],[81.0568794,6.1106214],[81.0656325,6.1103805],[81.0700759,6.1092402],[81.0763409,6.1115517],[81.0878318,6.1130173],[81.089327,6.1102357],[81.0912692,6.1090549],[81.0941501,6.1089206],[81.0949945,6.1093605],[81.0945216,6.1102659],[81.0961969,6.1121779],[81.0967149,6.1143629],[81.1001258,6.112915],[81.1042535,6.1128726],[81.1000164,6.1132745],[81.0974699,6.1144008],[81.0998784,6.1187403],[81.1007106,6.1191037],[81.1016317,6.118309],[81.099506,6.1210538],[81.0972136,6.1215776],[81.0971667,6.1278378],[81.1051234,6.1281702],[81.1059617,6.1273602],[81.1055777,6.1255402],[81.1044121,6.1261293],[81.104415,6.1232924],[81.1054541,6.1205091],[81.1045533,6.1192899],[81.104648,6.118755],[81.1061414,6.1191898],[81.1062235,6.116728],[81.1068294,6.1192622],[81.1068634,6.1186529],[81.1120889,6.119869],[81.1236194,6.1207625],[81.1258869,6.1197784],[81.1276357,6.1199416],[81.1281427,6.1208211],[81.1310555,6.1212185],[81.129178,6.1241431],[81.1274812,6.1241239],[81.126585,6.1259707],[81.1276359,6.1288221],[81.1303571,6.1321211],[81.138619,6.1355113],[81.1444802,6.1358159],[81.1453925,6.1379545],[81.1484379,6.1387414],[81.1480942,6.1409883],[81.1507483,6.1421982],[81.1627247,6.1439087],[81.1685572,6.1455481],[81.1724894,6.1486742],[81.1730265,6.1514999],[81.1762537,6.1531904],[81.1784787,6.1554644],[81.1875964,6.1586273],[81.2107801,6.1641264],[81.2261123,6.1651201],[81.22602,6.1689665],[81.2270156,6.1707223],[81.2327963,6.1729772],[81.2319878,6.1754866],[81.2327212,6.1773398],[81.2358016,6.1795051],[81.2426003,6.1816534],[81.2707113,6.1847535],[81.2752839,6.1864116],[81.2768286,6.1885503],[81.2801448,6.1908623],[81.291549,6.1930732],[81.2946159,6.1957414],[81.3151758,6.1988526],[81.3193737,6.1980986],[81.3240823,6.1987826],[81.3250225,6.2009038],[81.3247006,6.2037879],[81.325531,6.2048172],[81.33492,6.2120859],[81.339824,6.214248],[81.3381271,6.2142125],[81.3374018,6.2165989],[81.3381914,6.2183464],[81.3403527,6.2195291],[81.3364945,6.2175633],[81.3369053,6.2192236],[81.3383975,6.2196292],[81.3384884,6.2213218],[81.3397111,6.22204],[81.3400748,6.2208648],[81.339994,6.2219295],[81.3414799,6.2235122],[81.3460258,6.2262799],[81.3517916,6.2283868],[81.3567541,6.2301809],[81.3661275,6.2315022],[81.3686675,6.2342854],[81.3732004,6.2350955],[81.3725646,6.2368408],[81.3741937,6.2408939],[81.3796909,6.2441872],[81.3898335,6.246686],[81.3948614,6.2467909],[81.3957847,6.2492954],[81.4014737,6.2506686],[81.4021414,6.2533975],[81.4042737,6.2563358],[81.407865,6.2583568],[81.4110504,6.2621163],[81.4163827,6.2647287],[81.4207695,6.2748362],[81.4268486,6.2777311],[81.4277526,6.2799587],[81.4265184,6.2801255],[81.4262152,6.2811963],[81.4275415,6.2840696],[81.4352824,6.2891059],[81.4368793,6.2910053],[81.4365383,6.2925711],[81.4382651,6.2941476],[81.4415347,6.2960523],[81.450851,6.2991031],[81.4518199,6.3008465],[81.4539257,6.3021216],[81.46623,6.3052639],[81.4699327,6.3075936],[81.4812681,6.3107035],[81.4840992,6.3142223],[81.4846135,6.3187365],[81.4830436,6.3199202],[81.4833089,6.3220293],[81.4858152,6.3246925],[81.4947308,6.328943],[81.4949311,6.3319344],[81.5009507,6.3377934],[81.4980009,6.3397389],[81.49772,6.3431399],[81.5004646,6.3474286],[81.5035435,6.349855],[81.5099113,6.3539659],[81.5177718,6.3573582],[81.5198944,6.3592127],[81.5296664,6.3625062],[81.5419734,6.3655208],[81.5569373,6.3671979],[81.5599563,6.3701008],[81.5670395,6.3732336],[81.5637815,6.374284],[81.5635823,6.3756917],[81.5645526,6.3784806],[81.5674784,6.3818932],[81.5894255,6.3949988],[81.599675,6.3995267],[81.6044681,6.4062595],[81.6072713,6.4088412],[81.6160442,6.4137692],[81.6190642,6.4165934],[81.6199101,6.4186457],[81.6156652,6.4200467],[81.6144728,6.4224321],[81.6160315,6.4281033],[81.6204174,6.4325917],[81.6240914,6.4347999],[81.6439549,6.4427198],[81.649461,6.4457348],[81.6531708,6.4494254],[81.6539971,6.4520219],[81.6585198,6.4546296],[81.6582965,6.4569598],[81.6603066,6.4601334],[81.6613675,6.4642945],[81.6894239,6.4845386],[81.6931124,6.4864659],[81.6988334,6.4958178],[81.7046068,6.501188],[81.7078823,6.5107297],[81.6992962,6.5146105],[81.6944794,6.5134059],[81.6883852,6.5135749],[81.6772046,6.5196988],[81.670968,6.525605],[81.668404,6.533512],[81.6623456,6.5403596],[81.655996,6.540475],[81.651624,6.544606],[81.650214,6.545035],[81.642526,6.541334],[81.63801,6.542219],[81.63301,6.552535],[81.6217012,6.5643836],[81.6209117,6.5711448],[81.6196229,6.5722329],[81.6154176,6.572341],[81.608309,6.5800406],[81.604868,6.5688],[81.601371,6.562743],[81.599724,6.561268],[81.596907,6.561268],[81.593603,6.562588],[81.588721,6.560839],[81.586699,6.555512],[81.583292,6.551961],[81.581093,6.550759],[81.574393,6.551714],[81.567827,6.554439],[81.56523,6.554509],[81.560987,6.551059],[81.546938,6.536452],[81.543075,6.536238],[81.539031,6.538153],[81.535217,6.537375],[81.532883,6.535867],[81.528189,6.528813],[81.523989,6.519672],[81.517417,6.516577],[81.509505,6.514828],[81.502113,6.510714],[81.49037,6.502351],[81.487259,6.497989],[81.484598,6.49748],[81.482103,6.495849],[81.480446,6.493354],[81.47837,6.486799],[81.478643,6.48239],[81.480521,6.47724],[81.479293,6.473093],[81.482146,6.468453],[81.485665,6.466962],[81.48617,6.46429],[81.484185,6.457944],[81.47624,6.448824],[81.476321,6.445976],[81.479142,6.439485],[81.477769,6.432887],[81.477892,6.428842],[81.479797,6.419283],[81.477533,6.414176],[81.473359,6.40886],[81.469529,6.407245],[81.466729,6.407127],[81.461016,6.413333],[81.448141,6.413746],[81.444901,6.418183],[81.439698,6.419894],[81.437026,6.419309],[81.436356,6.416756],[81.430991,6.416348],[81.427569,6.418054],[81.424388,6.412352],[81.42038,6.411826],[81.419935,6.40924],[81.41728,6.408704],[81.412988,6.409214],[81.408745,6.407942],[81.404647,6.407899],[81.400779,6.406397],[81.399078,6.408312],[81.398751,6.413859],[81.393328,6.414691],[81.383988,6.398474],[81.381494,6.397278],[81.373259,6.398109],[81.371022,6.39658],[81.367262,6.390567],[81.360197,6.390905],[81.351957,6.389751],[81.350675,6.389285],[81.347977,6.386071],[81.340574,6.38222],[81.332061,6.379768],[81.329389,6.380482],[81.327372,6.38229],[81.316987,6.375332],[81.314535,6.376544],[81.31247,6.380015],[81.298018,6.373508],[81.293474,6.372644],[81.289086,6.373041],[81.278422,6.369098],[81.275461,6.36632],[81.274999,6.360413],[81.273497,6.35507],[81.263074,6.346107],[81.257812,6.344486],[81.253515,6.340839],[81.245742,6.343376],[81.235313,6.341407],[81.22967,6.344814],[81.225577,6.344712],[81.224397,6.345474],[81.220679,6.350757],[81.221892,6.353268],[81.22393,6.355151],[81.224365,6.357763],[81.220304,6.361293],[81.212831,6.365075],[81.210991,6.367205],[81.206968,6.37288],[81.206474,6.375595],[81.203545,6.378411],[81.203079,6.379758],[81.204146,6.382145],[81.203384,6.383271],[81.197473,6.386817],[81.196464,6.390744],[81.193197,6.392815],[81.191567,6.395003],[81.190215,6.401719],[81.184266,6.40548],[81.181412,6.406268],[81.176675,6.403189],[81.170114,6.402819],[81.1702101,6.4001339],[81.1686608,6.3969128],[81.1669832,6.3961569],[81.1661016,6.3928503],[81.1648632,6.3924504],[81.1609904,6.3935072],[81.156891,6.392573],[81.1542383,6.3939016],[81.1531521,6.3980107],[81.1505871,6.3996634],[81.147852,6.398903],[81.146758,6.396505],[81.145459,6.396495],[81.144617,6.39753],[81.144038,6.401601],[81.142273,6.405512],[81.142273,6.409471],[81.137842,6.414417],[81.137939,6.418617],[81.136866,6.421058],[81.131662,6.4213],[81.127596,6.420436],[81.122156,6.420978],[81.118165,6.420302],[81.110489,6.420929],[81.105634,6.420162],[81.101235,6.41829],[81.099717,6.418574],[81.094294,6.422582],[81.089095,6.424132],[81.07871,6.424191],[81.073839,6.42249],[81.07091,6.423799],[81.070776,6.420656],[81.067713,6.417024],[81.067289,6.413886],[81.061608,6.411316],[81.054549,6.415291],[81.050622,6.422051],[81.049066,6.421777],[81.051233,6.417448],[81.050901,6.41593],[81.04875,6.41335],[81.049436,6.4068],[81.037018,6.391296],[81.035478,6.391404],[81.032882,6.393372],[81.028075,6.393346],[81.013232,6.395996],[81.011859,6.395143],[81.011145,6.391929],[81.00827,6.387777],[81.008817,6.382912],[81.006736,6.378846],[81.00746,6.369184],[81.008688,6.368026],[81.013457,6.369104],[81.01504,6.368701],[81.015528,6.367103],[81.018532,6.366068],[81.019674,6.362956],[81.02255,6.358917],[81.02012,6.354255],[81.019058,6.346031],[81.018172,6.344696],[81.010732,6.341375],[81.008184,6.339122],[81.003259,6.337754],[80.998673,6.335002],[80.990905,6.333371],[80.982515,6.328313],[80.976335,6.326237],[80.973031,6.326612],[80.967951,6.325389],[80.965301,6.319665],[80.956063,6.313722],[80.950259,6.310658],[80.945265,6.310025],[80.932395,6.303524],[80.929166,6.303347],[80.924574,6.300042],[80.921388,6.296472],[80.9264766,6.2939937],[80.9310675,6.2883045],[80.934364,6.280543],[80.93326,6.275794],[80.9341496,6.272917],[80.9364974,6.2719785],[80.9392429,6.272255],[80.941263,6.270581],[80.941719,6.2593066],[80.94689,6.253039],[80.947663,6.245062],[80.949277,6.242257],[80.9524138,6.2405327],[80.9531412,6.2388464],[80.9532207,6.2370521],[80.9505,6.234843],[80.9489226,6.2349744],[80.9467562,6.236824],[80.9458556,6.2361915],[80.93968,6.22795],[80.938092,6.228175],[80.934783,6.231743],[80.933924,6.233116],[80.934005,6.236302],[80.931092,6.240073],[80.926371,6.23921],[80.923158,6.239558],[80.918421,6.238303],[80.910353,6.238062],[80.903642,6.242595],[80.897468,6.244821],[80.89257,6.24908],[80.890966,6.249086],[80.883461,6.245749],[80.881986,6.24635],[80.878944,6.250137],[80.877609,6.254772],[80.869181,6.266719],[80.866724,6.268784],[80.860357,6.269905],[80.857932,6.272002],[80.853163,6.272008],[80.845556,6.269245],[80.839205,6.269744],[80.834677,6.26828],[80.83162,6.269095],[80.827822,6.266112],[80.82464,6.265442],[80.818192,6.265796],[80.816942,6.266788],[80.808939,6.265678],[80.802866,6.26755],[80.798017,6.267094],[80.787138,6.269953],[80.783098,6.274776],[80.775347,6.276879],[80.770959,6.279647],[80.759763,6.281101],[80.756035,6.284024],[80.752897,6.284829],[80.748804,6.287275],[80.741143,6.289608],[80.73786,6.293106],[80.732394,6.296566],[80.727587,6.296952],[80.721976,6.300048],[80.711805,6.300777],[80.70842,6.304543],[80.703989,6.306506],[80.695304,6.308266],[80.691179,6.307381],[80.685836,6.307515],[80.674329,6.305187],[80.670059,6.306029]]]}},
{"type":"Feature","properties":{"id":12,"name":"Batticaloa District","area_km2":2612.9124293398954},"geometry":{"type":"Polygon","coordinates":[[[81.814433630561496,7.480431752202946],[81.8139843,7.4842136],[81.8121533,7.487585],[81.8097556,7.4980881],[81.8060417,7.5290319],[81.8028974,7.5389334],[81.7996298,7.5564438],[81.7971329,7.56445],[81.796763,7.5690642],[81.7848949,7.6044485],[81.7763252,7.6239727],[81.7561957,7.6616743],[81.7344727,7.6967191],[81.7170345,7.7222096],[81.7089911,7.7395078],[81.7073839,7.7408548],[81.7059688,7.7441355],[81.6989811,7.7530867],[81.6879379,7.7629673],[81.6869734,7.7620912],[81.6882675,7.7611299],[81.6870009,7.760296],[81.6734503,7.7644826],[81.6691352,7.7668234],[81.6532035,7.7779703],[81.6433257,7.7874012],[81.6268462,7.8124019],[81.6198899,7.8288436],[81.6186078,7.8286544],[81.6175054,7.8260142],[81.6143033,7.8247945],[81.6128115,7.822986],[81.6102961,7.8226948],[81.6052911,7.823992],[81.5934368,7.8317235],[81.5877656,7.8370336],[81.5813047,7.8450804],[81.5734595,7.8588279],[81.5685416,7.8704274],[81.5653914,7.8824641],[81.5636748,7.8989576],[81.5658637,7.9112328],[81.5692975,7.9180036],[81.5753223,7.9192931],[81.5803831,7.9187942],[81.5829172,7.9197915],[81.5753655,7.9268037],[81.5699824,7.927139],[81.5666019,7.9252717],[81.5635389,7.9269041],[81.5617429,7.9290026],[81.5604907,7.9324474],[81.5616721,7.9384512],[81.5572766,7.9431574],[81.5538933,7.9426777],[81.552325,7.9367752],[81.5527151,7.9346485],[81.5518643,7.9334341],[81.549432,7.9320716],[81.5475259,7.9323801],[81.5457445,7.9314105],[81.5415212,7.9273101],[81.5297963,7.9275031],[81.5278232,7.9266359],[81.5245237,7.9274313],[81.5217768,7.9265548],[81.5156903,7.921258],[81.5175155,7.914718],[81.5128016,7.9137364],[81.5134967,7.9218368],[81.5172638,7.9258723],[81.5216487,7.9334696],[81.5236923,7.934214],[81.5255784,7.9339111],[81.5303725,7.9310925],[81.5368956,7.9321126],[81.540356,7.9334893],[81.545307,7.9370431],[81.5487403,7.9407835],[81.5490836,7.9416336],[81.5430754,7.9511543],[81.5401572,7.9618648],[81.5405005,7.9703651],[81.5418505,7.977398],[81.5463974,7.9816108],[81.5527553,7.9851298],[81.5532035,7.988385],[81.5521684,7.9912932],[81.5500591,7.9930739],[81.5467707,7.9940131],[81.5403289,7.9861751],[81.5368956,7.9854951],[81.5331191,7.9832851],[81.5310591,7.9832851],[81.524021,7.9868551],[81.5188712,7.990765],[81.5168112,7.9963747],[81.5147513,7.9973947],[81.5090865,7.9967147],[81.4912337,8.0121837],[81.4728659,8.04261],[81.4641112,8.0665755],[81.458618,8.0908795],[81.4575881,8.0990371],[81.4577597,8.1029459],[81.4605063,8.1095738],[81.4647979,8.1095738],[81.4649695,8.1109334],[81.4634246,8.1117831],[81.4598197,8.1105935],[81.4541548,8.1131426],[81.4467734,8.1226594],[81.4414519,8.1354046],[81.4351004,8.1540969],[81.4326972,8.167011],[81.4335555,8.1751671],[81.4359587,8.1777159],[81.4338988,8.177546],[81.4292639,8.1811142],[81.4258307,8.1884204],[81.4227408,8.1991247],[81.4229125,8.2067704],[81.4182776,8.2118675],[81.4117545,8.2298766],[81.407786934184713,8.248527741784038],[81.3939269,8.248785],[81.3874828,8.253179],[81.3709193,8.2539379],[81.3690557,8.2563617],[81.3643129,8.2579563],[81.3611172,8.2559093],[81.3589588,8.257657],[81.355732,8.2573333],[81.3549253,8.2592752],[81.356059,8.2630942],[81.3586753,8.2648634],[81.3558628,8.2684018],[81.3537916,8.2692649],[81.3473381,8.2646908],[81.3356219,8.2638805],[81.3341772,8.2649188],[81.3303487,8.2656659],[81.3230713,8.2616107],[81.3193463,8.2573906],[81.3144298,8.2545964],[81.3115711,8.2519667],[81.3140011,8.2414277],[81.3139801,8.2292027],[81.3122091,8.1782567],[81.3078381,8.0950387],[81.3085621,8.0927477],[81.3079611,8.0886337],[81.3083851,8.0708397],[81.3063731,8.0294477],[81.3087281,8.0226777],[81.3158311,8.0089877],[81.3197841,7.9969927],[81.3321171,7.9703747],[81.3400561,7.9570387],[81.3390321,7.9450917],[81.3400191,7.9414817],[81.3400031,7.9374427],[81.3350191,7.9380377],[81.3281631,7.9351407],[81.3243491,7.9357317],[81.3190221,7.9396847],[81.3165441,7.9403817],[81.3118131,7.9378447],[81.3079451,7.9374477],[81.3056811,7.9383327],[81.2981331,7.9460627],[81.2932681,7.9458267],[81.2892931,7.9465887],[81.2859131,7.9450757],[81.2817931,7.9414767],[81.2777911,7.9405377],[81.2747341,7.9367987],[81.2670891,7.9370667],[81.2628251,7.9400017],[81.2530561,7.9363217],[81.2481961,7.9311397],[81.2473271,7.9285747],[81.2450951,7.9276847],[81.2400961,7.9237367],[81.2368661,7.9197717],[81.2373601,7.9075947],[81.2384651,7.9025737],[81.2359441,7.8949297],[81.2370061,7.8886637],[81.2357021,7.8862017],[81.2328861,7.8836377],[81.2289431,7.8760787],[81.2286591,7.8694057],[81.2278431,7.8670617],[81.2286051,7.8635847],[81.2315231,7.8612897],[81.2318771,7.8558017],[81.2331061,7.8520947],[81.2323661,7.8483237],[81.2327411,7.8435227],[81.2292541,7.8371657],[81.2268461,7.8292747],[81.2269641,7.8271287],[81.2249571,7.8234967],[81.2264921,7.8152307],[81.2264161,7.8110297],[81.2278591,7.8070927],[81.2274521,7.8050057],[81.2295601,7.8013637],[81.2299571,7.7951087],[81.2270171,7.7809727],[81.2306811,7.7709627],[81.2330791,7.7675357],[81.2348921,7.7663707],[81.2374721,7.7604867],[81.2373971,7.7583997],[81.2359601,7.7567957],[81.2371341,7.7484107],[81.2413298,7.7391082],[81.2455537,7.7388425],[81.2513687,7.7360475],[81.2531717,7.7347815],[81.2544267,7.7308495],[81.2584717,7.7318745],[81.2612717,7.7350445],[81.2632087,7.7358175],[81.2896227,7.7354145],[81.3261277,7.7334195],[81.3285257,7.7299375],[81.3293997,7.7236505],[81.3286597,7.7194825],[81.3319587,7.7169775],[81.3322647,7.7148795],[81.3386587,7.7065275],[81.3456917,7.7023535],[81.3514427,7.6935505],[81.3531537,7.6922955],[81.3544037,7.6881275],[81.3636517,7.6767495],[81.3678087,7.6672595],[81.3751797,7.6631405],[81.3784847,7.6605755],[81.3795357,7.6587735],[81.3833817,7.6567085],[81.4089917,7.6514085],[81.4455827,7.6420095],[81.4428677,7.6338235],[81.4469397,7.6238565],[81.4475347,7.6196565],[81.4452387,7.6137925],[81.4408297,7.6064115],[81.4404917,7.6043195],[81.4429377,7.6009125],[81.4426537,7.5987505],[81.4397787,7.5957145],[81.4354227,7.5837685],[81.4335877,7.5808555],[81.4325847,7.5742405],[81.4334807,7.5699655],[81.4455607,7.5513135],[81.4520467,7.5427895],[81.4991567,7.5216265],[81.4998277,7.5207635],[81.4994307,7.5197545],[81.4969737,7.5173785],[81.4939537,7.5162085],[81.4943127,7.5152325],[81.5182163,7.5086859],[81.5719627,7.5089075],[81.6191647,7.5081455],[81.6273017,7.5128505],[81.6361267,7.5192185],[81.6496177,7.5251455],[81.6497627,7.5225115],[81.6459377,7.5162565],[81.6484007,7.5105165],[81.6480357,7.5025075],[81.6496177,7.4985115],[81.6544627,7.4914735],[81.6541247,7.4799775],[81.6605617,7.4724775],[81.6602877,7.4685775],[81.6572837,7.4612505],[81.6596497,7.4549045],[81.6605617,7.4473405],[81.6596657,7.4414664],[81.6607387,7.4333714],[81.6606097,7.4278724],[81.6596177,7.4212744],[81.6623957,7.4167414],[81.6628467,7.4140914],[81.6610497,7.4036844],[81.6636087,7.3987434],[81.6702927,7.4011844],[81.6726957,7.4052884],[81.6736987,7.4101324],[81.6733177,7.4126754],[81.6740687,7.4139254],[81.6782267,7.4154804],[81.6831667,7.4187264],[81.6869387,7.4191934],[81.6904577,7.4208824],[81.6982087,7.4289834],[81.7034877,7.4320354],[81.7090347,7.4370834],[81.7136587,7.4425655],[81.7185187,7.4465675],[81.7249717,7.4553495],[81.7398847,7.4559825],[81.7490477,7.4552095],[81.7607114,7.4598201],[81.7674745,7.4683382],[81.7764262,7.4819116],[81.793487,7.470549],[81.814433630561496,7.480431752202946]]]}},
{"type":"Feature","properties":{"id":13,"name":"Monaragala District","area_km2":5758.5196859598345},"geometry":{"type":"Polygon","coordinates":[[[81.608309,6.5800406],[81.610168,6.594034],[81.614562,6.670922],[81.617507,6.696639],[81.618547,6.714857],[81.619143,6.756088],[81.622742,6.810392],[81.623976,6.814173],[81.628123,6.870725],[81.628745,6.913002],[81.637151,6.960048],[81.635499,6.963283],[81.63154,6.967215],[81.630226,6.96847],[81.626739,6.969618],[81.622442,6.973223],[81.617753,6.97907],[81.617217,6.982627],[81.620817,6.991071],[81.620935,6.998377],[81.618891,7.001322],[81.613875,7.003736],[81.614288,7.009181],[81.612588,7.016369],[81.607169,7.025886],[81.607422,7.029576],[81.610603,7.036228],[81.611499,7.041668],[81.617437,7.045943],[81.619239,7.049183],[81.619132,7.052777],[81.615157,7.063056],[81.614159,7.068452],[81.603404,7.070416],[81.596124,7.069627],[81.592042,7.0718],[81.589311,7.074589],[81.579672,7.076338],[81.573341,7.081327],[81.571485,7.081976],[81.563723,7.081139],[81.559828,7.082019],[81.552415,7.085275],[81.548429,7.085962],[81.543242,7.089019],[81.537668,7.091128],[81.536477,7.094775],[81.535029,7.093434],[81.534787,7.091455],[81.533173,7.090355],[81.521108,7.097474],[81.515411,7.102999],[81.515712,7.108954],[81.511329,7.117859],[81.513083,7.125562],[81.511125,7.131012],[81.513212,7.134349],[81.513405,7.136301],[81.50965,7.141162],[81.5009,7.147835],[81.500074,7.14982],[81.500144,7.154814],[81.511345,7.179415],[81.511441,7.182071],[81.51481,7.18419],[81.518356,7.191056],[81.521215,7.193824],[81.522422,7.197617],[81.526864,7.201264],[81.528994,7.204585],[81.534224,7.207557],[81.541976,7.213629],[81.553091,7.217583],[81.551058,7.223124],[81.547662,7.225238],[81.545012,7.230484],[81.542104,7.233081],[81.53814,7.233204],[81.533983,7.240033],[81.526306,7.240972],[81.524407,7.241492],[81.523072,7.242914],[81.523474,7.246755],[81.527567,7.253578],[81.523951,7.262762],[81.52349,7.266673],[81.524171,7.270535],[81.517637,7.28047],[81.51745,7.282444],[81.520652,7.28474],[81.520577,7.286747],[81.518823,7.290308],[81.512514,7.298344],[81.497719,7.304353],[81.484147,7.317882],[81.479014,7.324716],[81.479765,7.327977],[81.483573,7.329715],[81.490799,7.337816],[81.47985,7.378972],[81.472405,7.392983],[81.472641,7.405402],[81.477098,7.421672],[81.47558,7.423105],[81.470929,7.423636],[81.464996,7.425524],[81.463248,7.427005],[81.462003,7.43039],[81.47146,7.444337],[81.476755,7.449868],[81.479073,7.454036],[81.476836,7.455624],[81.472464,7.456107],[81.471734,7.4569],[81.463639,7.45645],[81.45858,7.458354],[81.456365,7.458435],[81.448538,7.453639],[81.443673,7.44857],[81.436281,7.443565],[81.428111,7.441295],[81.424828,7.441542],[81.421899,7.435781],[81.418943,7.434654],[81.416926,7.435244],[81.413729,7.434327],[81.412661,7.434724],[81.407522,7.433141],[81.406889,7.429907],[81.408579,7.425701],[81.408927,7.422434],[81.408353,7.420074],[81.405709,7.416657],[81.400285,7.415552],[81.399111,7.413706],[81.395919,7.413111],[81.393639,7.410681],[81.388832,7.407886],[81.384401,7.407682],[81.376998,7.410788],[81.374987,7.410402],[81.375421,7.408315],[81.373656,7.40427],[81.373689,7.397624],[81.375926,7.392613],[81.380335,7.387801],[81.381419,7.377518],[81.385115,7.373741],[81.386392,7.370866],[81.377352,7.36291],[81.374483,7.358517],[81.366929,7.358635],[81.365148,7.357487],[81.363126,7.352289],[81.36686,7.345669],[81.367042,7.343454],[81.361077,7.339994],[81.354538,7.337451],[81.344495,7.335579],[81.34147,7.33655],[81.337168,7.336217],[81.334405,7.334404],[81.331261,7.334066],[81.327217,7.335042],[81.324239,7.33412],[81.323209,7.334243],[81.321702,7.337092],[81.320661,7.337515],[81.321326,7.33339],[81.31925,7.332988],[81.319975,7.330987],[81.319572,7.329984],[81.321563,7.327468],[81.318414,7.317678],[81.318054,7.312903],[81.325044,7.299111],[81.322249,7.293575],[81.322099,7.287111],[81.320334,7.283893],[81.318993,7.277922],[81.322984,7.263073],[81.31946,7.262827],[81.314004,7.260182],[81.305115,7.257419],[81.300405,7.253728],[81.29429,7.246224],[81.285487,7.240559],[81.284285,7.241718],[81.284323,7.243499],[81.286597,7.248563],[81.286179,7.249378],[81.279586,7.252554],[81.277435,7.25544],[81.27722,7.257333],[81.279162,7.261523],[81.270515,7.276903],[81.268256,7.27657],[81.266288,7.278464],[81.264555,7.278684],[81.260886,7.275728],[81.256599,7.275197],[81.251938,7.272048],[81.244631,7.268819],[81.237084,7.267553],[81.231542,7.267628],[81.23107,7.266877],[81.232422,7.26449],[81.230791,7.260139],[81.235453,7.247039],[81.235925,7.239491],[81.232272,7.236755],[81.229418,7.233076],[81.22474,7.229621],[81.218764,7.218575],[81.215181,7.21438],[81.210363,7.20583],[81.206925,7.201549],[81.20405,7.199693],[81.199806,7.195095],[81.188654,7.191083],[81.190435,7.18817],[81.190606,7.186394],[81.189458,7.184013],[81.186545,7.181867],[81.187179,7.176561],[81.185998,7.173209],[81.184534,7.172055],[81.180071,7.171352],[81.174819,7.169298],[81.172957,7.169706],[81.168848,7.173171],[81.164374,7.173504],[81.160346,7.178498],[81.154413,7.19362],[81.152063,7.194774],[81.146044,7.192842],[81.144285,7.1906],[81.140395,7.18832],[81.139038,7.183943],[81.137574,7.182789],[81.137987,7.17919],[81.137069,7.177538],[81.124238,7.165436],[81.122038,7.157142],[81.122473,7.15351],[81.125311,7.151263],[81.126695,7.145963],[81.130026,7.140448],[81.137327,7.136532],[81.141645,7.136961],[81.143866,7.129998],[81.148013,7.128056],[81.152122,7.120804],[81.158967,7.114179],[81.161928,7.108181],[81.162325,7.101642],[81.167625,7.088692],[81.168741,7.084111],[81.170645,7.084036],[81.1752,7.086681],[81.181465,7.084706],[81.187688,7.085908],[81.188917,7.093397],[81.191218,7.094588],[81.193922,7.094813],[81.199318,7.093724],[81.206587,7.095484],[81.209634,7.093477],[81.212837,7.096712],[81.214773,7.095167],[81.216103,7.087072],[81.218383,7.081171],[81.220674,7.080994],[81.225432,7.084041],[81.228393,7.084454],[81.229278,7.084385],[81.230791,7.08145],[81.232454,7.074224],[81.236054,7.067991],[81.24166,7.053201],[81.243505,7.045026],[81.246192,7.022313],[81.24483,7.008939],[81.242303,7.00696],[81.236596,6.991988],[81.234916,6.990775],[81.232996,6.990775],[81.231848,6.98863],[81.232492,6.982605],[81.234503,6.978067],[81.234332,6.965734],[81.225786,6.962108],[81.222589,6.9631],[81.220277,6.960193],[81.221007,6.952672],[81.221977,6.950451],[81.226752,6.949217],[81.227514,6.94741],[81.226022,6.94528],[81.222954,6.944443],[81.22099,6.942565],[81.209859,6.942383],[81.206705,6.939797],[81.201705,6.932335],[81.203132,6.929696],[81.207815,6.926397],[81.205573,6.922599],[81.203797,6.921419],[81.196083,6.920791],[81.186959,6.921263],[81.185585,6.922567],[81.184335,6.928639],[81.182844,6.928822],[81.179963,6.92519],[81.180232,6.921698],[81.178772,6.919423],[81.178359,6.909419],[81.176745,6.90451],[81.17285,6.901147],[81.167239,6.900246],[81.165866,6.896694],[81.161413,6.896587],[81.160432,6.892113],[81.159155,6.890622],[81.153356,6.889404],[81.149874,6.887242],[81.145272,6.886743],[81.141769,6.884324],[81.129425,6.879871],[81.127413,6.877393],[81.120247,6.872892],[81.116003,6.873676],[81.113257,6.873364],[81.112565,6.872576],[81.109437,6.865382],[81.109963,6.863247],[81.117956,6.86197],[81.124667,6.8535],[81.130353,6.850517],[81.132944,6.847883],[81.134698,6.843334],[81.138158,6.840454],[81.137429,6.83871],[81.131555,6.833298],[81.125273,6.831914],[81.118063,6.829135],[81.113546,6.828834],[81.109716,6.830438],[81.105537,6.830857],[81.09659,6.827906],[81.095763,6.825466],[81.094084,6.823867],[81.095147,6.820766],[81.095007,6.817414],[81.098886,6.812468],[81.094304,6.80941],[81.08783,6.807162],[81.086145,6.807066],[81.084648,6.808042],[81.081376,6.813245],[81.080003,6.814131],[81.075239,6.813063],[81.06907,6.814479],[81.065766,6.813744],[81.06326,6.793386],[81.063523,6.788295],[81.061109,6.782824],[81.063926,6.772503],[81.064843,6.761758],[81.063684,6.75936],[81.059355,6.756189],[81.054559,6.748872],[81.053545,6.746394],[81.053336,6.742848],[81.051523,6.739045],[81.053009,6.735831],[81.05604,6.734533],[81.05855,6.735059],[81.062273,6.737199],[81.06635,6.736153],[81.068518,6.737334],[81.071055,6.737468],[81.084992,6.728021],[81.079279,6.718821],[81.078485,6.7163],[81.078753,6.709111],[81.077996,6.707336],[81.076586,6.706113],[81.072112,6.704654],[81.064741,6.699815],[81.060981,6.65154],[81.061394,6.644132],[81.064462,6.637512],[81.064827,6.633173],[81.075491,6.623029],[81.084203,6.616865],[81.08637,6.610427],[81.08622,6.609634],[81.084541,6.609285],[81.078013,6.611726],[81.076376,6.611179],[81.062225,6.599237],[81.061195,6.596743],[81.060584,6.586894],[81.062424,6.578466],[81.060755,6.578429],[81.058754,6.581181],[81.054677,6.583048],[81.048707,6.584013],[81.044158,6.586781],[81.040773,6.590611],[81.033778,6.583546],[81.032522,6.580843],[81.025076,6.573231],[81.0263,6.56733],[81.024798,6.56512],[81.025581,6.560211],[81.023934,6.553763],[81.022738,6.542171],[81.019712,6.54577],[81.017668,6.550507],[81.014069,6.553699],[81.011209,6.55769],[81.009058,6.55879],[81.007873,6.561826],[81.001071,6.567732],[80.998995,6.572421],[80.995637,6.575097],[80.995781,6.579464],[80.998914,6.58993],[80.994934,6.600251],[80.999376,6.609119],[81.000191,6.612627],[80.999756,6.614279],[80.995803,6.618013],[80.990927,6.620593],[80.987799,6.619349],[80.984328,6.619558],[80.981308,6.616259],[80.979034,6.617053],[80.977607,6.619236],[80.976738,6.622825],[80.979002,6.630056],[80.979634,6.635297],[80.976899,6.644282],[80.97022,6.650301],[80.969614,6.654003],[80.968933,6.654459],[80.962812,6.652227],[80.958745,6.651803],[80.955307,6.653321],[80.953429,6.655161],[80.952582,6.657715],[80.953681,6.661937],[80.951895,6.671872],[80.949417,6.674227],[80.941354,6.676646],[80.939605,6.678674],[80.940973,6.685449],[80.940077,6.690406],[80.938586,6.691076],[80.929445,6.690953],[80.927787,6.688989],[80.927809,6.686216],[80.92451,6.684676],[80.922241,6.681072],[80.912687,6.671845],[80.912086,6.666893],[80.908846,6.663015],[80.907097,6.658455],[80.907392,6.654791],[80.903701,6.650628],[80.903615,6.648794],[80.905412,6.646476],[80.903975,6.639546],[80.90191,6.637212],[80.898262,6.637416],[80.890521,6.631392],[80.888209,6.626971],[80.885215,6.618163],[80.881187,6.613287],[80.875597,6.610631],[80.87858,6.606163],[80.875688,6.601394],[80.876868,6.596453],[80.876632,6.593894],[80.875458,6.592639],[80.871027,6.593739],[80.869605,6.592832],[80.870447,6.590477],[80.869347,6.586942],[80.872008,6.584335],[80.872459,6.581921],[80.870796,6.580301],[80.866081,6.579351],[80.86695,6.573955],[80.864723,6.570961],[80.86349,6.566015],[80.860797,6.560404],[80.86349,6.556343],[80.864112,6.55129],[80.863602,6.54967],[80.858436,6.541511],[80.857154,6.536763],[80.853775,6.533335],[80.853635,6.531774],[80.848748,6.528389],[80.842949,6.519924],[80.839425,6.516373],[80.839387,6.513149],[80.832864,6.503772],[80.832161,6.498971],[80.828127,6.491659],[80.827843,6.490114],[80.830568,6.488349],[80.830809,6.482143],[80.832435,6.475722],[80.837885,6.465873],[80.838727,6.460717],[80.843073,6.456077],[80.842375,6.453041],[80.839312,6.449291],[80.840777,6.443235],[80.840347,6.44162],[80.837204,6.441792],[80.836206,6.440456],[80.836737,6.438916],[80.842515,6.435521],[80.842756,6.433949],[80.839312,6.430269],[80.837949,6.426954],[80.838577,6.42212],[80.842676,6.416879],[80.844408,6.407036],[80.84326,6.404058],[80.840111,6.404434],[80.838969,6.403318],[80.838792,6.401741],[80.846023,6.392659],[80.847214,6.386179],[80.853233,6.383577],[80.855459,6.374071],[80.862513,6.369748],[80.863473,6.365021],[80.864959,6.362012],[80.865394,6.35698],[80.866778,6.355795],[80.873339,6.356213],[80.876128,6.354668],[80.889228,6.351793],[80.897012,6.349255],[80.902972,6.343853],[80.902398,6.337352],[80.909269,6.332561],[80.908325,6.329584],[80.906019,6.327385],[80.906555,6.322026],[80.912826,6.314612],[80.918394,6.301593],[80.921388,6.296472],[80.924574,6.300042],[80.929166,6.303347],[80.932395,6.303524],[80.945265,6.310025],[80.950259,6.310658],[80.956063,6.313722],[80.965301,6.319665],[80.967951,6.325389],[80.973031,6.326612],[80.976335,6.326237],[80.982515,6.328313],[80.990905,6.333371],[80.998673,6.335002],[81.003259,6.337754],[81.008184,6.339122],[81.010732,6.341375],[81.018172,6.344696],[81.019058,6.346031],[81.02012,6.354255],[81.02255,6.358917],[81.019674,6.362956],[81.018532,6.366068],[81.015528,6.367103],[81.01504,6.368701],[81.013457,6.369104],[81.008688,6.368026],[81.00746,6.369184],[81.006736,6.378846],[81.008817,6.382912],[81.00827,6.387777],[81.011145,6.391929],[81.011859,6.395143],[81.013232,6.395996],[81.028075,6.393346],[81.032882,6.393372],[81.035478,6.391404],[81.037018,6.391296],[81.049436,6.4068],[81.04875,6.41335],[81.050901,6.41593],[81.051233,6.417448],[81.049066,6.421777],[81.050622,6.422051],[81.054549,6.415291],[81.061608,6.411316],[81.067289,6.413886],[81.067713,6.417024],[81.070776,6.420656],[81.07091,6.423799],[81.073839,6.42249],[81.07871,6.424191],[81.089095,6.424132],[81.094294,6.422582],[81.099717,6.418574],[81.101235,6.41829],[81.105634,6.420162],[81.110489,6.420929],[81.118165,6.420302],[81.122156,6.420978],[81.127596,6.420436],[81.131662,6.4213],[81.136866,6.421058],[81.137939,6.418617],[81.137842,6.414417],[81.142273,6.409471],[81.142273,6.405512],[81.144038,6.401601],[81.144617,6.39753],[81.145459,6.396495],[81.146758,6.396505],[81.147852,6.398903],[81.1505871,6.3996634],[81.1531521,6.3980107],[81.1542383,6.3939016],[81.156891,6.392573],[81.1609904,6.3935072],[81.1648632,6.3924504],[81.1661016,6.3928503],[81.1669832,6.3961569],[81.1686608,6.3969128],[81.1702101,6.4001339],[81.170114,6.402819],[81.176675,6.403189],[81.181412,6.406268],[81.184266,6.40548],[81.190215,6.401719],[81.191567,6.395003],[81.193197,6.392815],[81.196464,6.390744],[81.197473,6.386817],[81.203384,6.383271],[81.204146,6.382145],[81.203079,6.379758],[81.203545,6.378411],[81.206474,6.375595],[81.206968,6.37288],[81.210991,6.367205],[81.212831,6.365075],[81.220304,6.361293],[81.224365,6.357763],[81.22393,6.355151],[81.221892,6.353268],[81.220679,6.350757],[81.224397,6.345474],[81.225577,6.344712],[81.22967,6.344814],[81.235313,6.341407],[81.245742,6.343376],[81.253515,6.340839],[81.257812,6.344486],[81.263074,6.346107],[81.273497,6.35507],[81.274999,6.360413],[81.275461,6.36632],[81.278422,6.369098],[81.289086,6.373041],[81.293474,6.372644],[81.298018,6.373508],[81.31247,6.380015],[81.314535,6.376544],[81.316987,6.375332],[81.327372,6.38229],[81.329389,6.380482],[81.332061,6.379768],[81.340574,6.38222],[81.347977,6.386071],[81.350675,6.389285],[81.351957,6.389751],[81.360197,6.390905],[81.367262,6.390567],[81.371022,6.39658],[81.373259,6.398109],[81.381494,6.397278],[81.383988,6.398474],[81.393328,6.414691],[81.398751,6.413859],[81.399078,6.408312],[81.400779,6.406397],[81.404647,6.407899],[81.408745,6.407942],[81.412988,6.409214],[81.41728,6.408704],[81.419935,6.40924],[81.42038,6.411826],[81.424388,6.412352],[81.427569,6.418054],[81.430991,6.416348],[81.436356,6.416756],[81.437026,6.419309],[81.439698,6.419894],[81.444901,6.418183],[81.448141,6.413746],[81.461016,6.413333],[81.466729,6.407127],[81.469529,6.407245],[81.473359,6.40886],[81.477533,6.414176],[81.479797,6.419283],[81.477892,6.428842],[81.477769,6.432887],[81.479142,6.439485],[81.476321,6.445976],[81.47624,6.448824],[81.484185,6.457944],[81.48617,6.46429],[81.485665,6.466962],[81.482146,6.468453],[81.479293,6.473093],[81.480521,6.47724],[81.478643,6.48239],[81.47837,6.486799],[81.480446,6.493354],[81.482103,6.495849],[81.484598,6.49748],[81.487259,6.497989],[81.49037,6.502351],[81.502113,6.510714],[81.509505,6.514828],[81.517417,6.516577],[81.523989,6.519672],[81.528189,6.528813],[81.532883,6.535867],[81.535217,6.537375],[81.539031,6.538153],[81.543075,6.536238],[81.546938,6.536452],[81.560987,6.551059],[81.56523,6.554509],[81.567827,6.554439],[81.574393,6.551714],[81.581093,6.550759],[81.583292,6.551961],[81.586699,6.555512],[81.588721,6.560839],[81.593603,6.562588],[81.596907,6.561268],[81.599724,6.561268],[81.601371,6.562743],[81.604868,6.5688],[81.608309,6.5800406]]]}},
{"type":"Feature","properties":{"id":14,"name":"Polonnaruwa District","area_km2":3439.2547695707767},"geometry":{"type":"Polygon","coordinates":[[[81.2413298,7.7391082],[81.2371341,7.7484107],[81.2359601,7.7567957],[81.2373971,7.7583997],[81.2374721,7.7604867],[81.2348921,7.7663707],[81.2330791,7.7675357],[81.2306811,7.7709627],[81.2270171,7.7809727],[81.2299571,7.7951087],[81.2295601,7.8013637],[81.2274521,7.8050057],[81.2278591,7.8070927],[81.2264161,7.8110297],[81.2264921,7.8152307],[81.2249571,7.8234967],[81.2269641,7.8271287],[81.2268461,7.8292747],[81.2292541,7.8371657],[81.2327411,7.8435227],[81.2323661,7.8483237],[81.2331061,7.8520947],[81.2318771,7.8558017],[81.2315231,7.8612897],[81.2286051,7.8635847],[81.2278431,7.8670617],[81.2286591,7.8694057],[81.2289431,7.8760787],[81.2328861,7.8836377],[81.2357021,7.8862017],[81.2370061,7.8886637],[81.2359441,7.8949297],[81.2384651,7.9025737],[81.2373601,7.9075947],[81.2368661,7.9197717],[81.2400961,7.9237367],[81.2450951,7.9276847],[81.2473271,7.9285747],[81.2481961,7.9311397],[81.2530561,7.9363217],[81.2628251,7.9400017],[81.2670891,7.9370667],[81.2747341,7.9367987],[81.2777911,7.9405377],[81.2817931,7.9414767],[81.2859131,7.9450757],[81.2892931,7.9465887],[81.2932681,7.9458267],[81.2981331,7.9460627],[81.3056811,7.9383327],[81.3079451,7.9374477],[81.3118131,7.9378447],[81.3165441,7.9403817],[81.3190221,7.9396847],[81.3243491,7.9357317],[81.3281631,7.9351407],[81.3350191,7.9380377],[81.3400031,7.9374427],[81.3400191,7.9414817],[81.3390321,7.9450917],[81.3400561,7.9570387],[81.3321171,7.9703747],[81.3197841,7.9969927],[81.3158311,8.0089877],[81.3087281,8.0226777],[81.3063731,8.0294477],[81.3083851,8.0708397],[81.3079611,8.0886337],[81.3085621,8.0927477],[81.3078381,8.0950387],[81.3122091,8.1782567],[81.3139801,8.2292027],[81.3140011,8.2414277],[81.3115711,8.2519667],[81.298233,8.25504],[81.292895,8.25886],[81.288078,8.261059],[81.287005,8.259798],[81.287295,8.258173],[81.285921,8.257143],[81.282365,8.257406],[81.281168,8.256306],[81.279983,8.249751],[81.273374,8.24739],[81.272462,8.245888],[81.273417,8.242621],[81.272553,8.241237],[81.27104,8.240449],[81.268487,8.242509],[81.266808,8.242278],[81.265757,8.241017],[81.265992,8.239392],[81.269302,8.239269],[81.270118,8.237869],[81.269007,8.2348],[81.267403,8.234307],[81.266084,8.235347],[81.2647,8.23436],[81.263375,8.231249],[81.261712,8.230857],[81.258659,8.232118],[81.257463,8.230959],[81.25779,8.226035],[81.256385,8.225064],[81.254706,8.22442],[81.25197,8.226303],[81.250312,8.226126],[81.249781,8.222719],[81.252083,8.216352],[81.252142,8.214619],[81.25123,8.213246],[81.251412,8.209979],[81.250092,8.208981],[81.248735,8.204116],[81.244798,8.201015],[81.244798,8.199363],[81.243086,8.196434],[81.239814,8.196686],[81.238312,8.195887],[81.237577,8.194267],[81.237314,8.190908],[81.238854,8.18615],[81.239664,8.184471],[81.242362,8.182256],[81.24285,8.179064],[81.239809,8.178023],[81.238441,8.179026],[81.236869,8.178527],[81.236617,8.176843],[81.234519,8.17408],[81.233945,8.169097],[81.235533,8.168555],[81.233001,8.164006],[81.234208,8.161007],[81.233114,8.159789],[81.232626,8.156544],[81.231489,8.155257],[81.229118,8.157611],[81.226693,8.155407],[81.221972,8.153883],[81.218957,8.155203],[81.217391,8.154742],[81.216468,8.153379],[81.213164,8.152698],[81.211367,8.149967],[81.207976,8.14883],[81.204817,8.150268],[81.201469,8.149962],[81.192994,8.151206],[81.191905,8.152488],[81.192945,8.155755],[81.196089,8.157064],[81.197328,8.160149],[81.198852,8.16105],[81.2032717,8.1608282],[81.206925,8.162981],[81.209441,8.167638],[81.210358,8.17283],[81.213416,8.179488],[81.213292,8.181295],[81.210562,8.183323],[81.207365,8.182449],[81.2045,8.183951],[81.204141,8.192464],[81.201501,8.197131],[81.205015,8.206862],[81.206185,8.215595],[81.203706,8.221813],[81.204447,8.226914],[81.199431,8.231351],[81.197832,8.232247],[81.196191,8.231952],[81.190268,8.228411],[81.18691,8.22736],[81.182174,8.2295],[81.177324,8.230573],[81.172716,8.235347],[81.16968,8.23413],[81.166182,8.234645],[81.158999,8.239521],[81.149306,8.251596],[81.140937,8.26027],[81.13936,8.260855],[81.137563,8.260576],[81.136436,8.259305],[81.134704,8.259605],[81.132424,8.262078],[81.124109,8.263044],[81.118514,8.258951],[81.116915,8.258398],[81.114158,8.259889],[81.110762,8.259863],[81.107286,8.256193],[81.105645,8.256016],[81.098435,8.260367],[81.093119,8.260796],[81.090066,8.262244],[81.084321,8.265764],[81.080732,8.269551],[81.077642,8.271568],[81.072364,8.271691],[81.065583,8.270672],[81.055305,8.272957],[81.050059,8.272244],[81.046164,8.27579],[81.042822,8.276171],[81.036256,8.278901],[81.025978,8.276868],[81.017352,8.279014],[81.009005,8.275886],[81.003973,8.275012],[80.998995,8.272684],[80.993898,8.273429],[80.988824,8.273097],[80.986962,8.277737],[80.981308,8.311125],[80.978594,8.313346],[80.967355,8.317943],[80.964952,8.320175],[80.965204,8.321865],[80.962324,8.323689],[80.959014,8.324579],[80.955323,8.32445],[80.952051,8.322895],[80.940839,8.342534],[80.938951,8.342147],[80.935225,8.3444467],[80.9307937,8.3451085],[80.921468,8.333039],[80.911415,8.326424],[80.908599,8.316784],[80.904227,8.307558],[80.900896,8.292468],[80.900611,8.284024],[80.899147,8.280923],[80.844902,8.28006],[80.812715,8.280441],[80.805688,8.279507],[80.804411,8.278456],[80.802711,8.271986],[80.797791,8.263033],[80.793951,8.253774],[80.794401,8.24879],[80.791488,8.242664],[80.78784,8.231249],[80.787653,8.217688],[80.785437,8.204126],[80.781291,8.196573],[80.777514,8.18688],[80.772879,8.179826],[80.764511,8.16311],[80.759382,8.150547],[80.760986,8.145906],[80.761061,8.141025],[80.758728,8.138573],[80.758347,8.137001],[80.758642,8.11137],[80.756561,8.103232],[80.757591,8.096366],[80.758433,8.095958],[80.757768,8.077794],[80.758728,8.068584],[80.759956,8.06632],[80.762193,8.065225],[80.773984,8.067344],[80.776404,8.066899],[80.777026,8.065869],[80.773485,8.06206],[80.771087,8.057184],[80.764242,8.048955],[80.759484,8.044583],[80.759001,8.043392],[80.760428,8.038296],[80.755928,8.033559],[80.749362,8.020894],[80.75007,8.019848],[80.754839,8.018126],[80.756142,8.01605],[80.75611,8.012348],[80.75979,8.007354],[80.764548,8.00383],[80.77112,8.000498],[80.772321,7.995595],[80.773142,7.995847],[80.773576,7.998406],[80.77437,7.998535],[80.779488,7.994817],[80.779129,7.986385],[80.777616,7.980682],[80.778421,7.968242],[80.785287,7.964863],[80.787867,7.962465],[80.798537,7.960625],[80.79983,7.964879],[80.799674,7.970544],[80.798521,7.974148],[80.799074,7.976573],[80.806632,7.98035],[80.811074,7.981197],[80.813193,7.983225],[80.814802,7.983504],[80.820494,7.980897],[80.820579,7.977485],[80.82559,7.971321],[80.829077,7.970989],[80.833567,7.971987],[80.840042,7.972196],[80.852568,7.96424],[80.853335,7.962711],[80.852219,7.961563],[80.847466,7.96092],[80.839323,7.958114],[80.834039,7.954236],[80.832413,7.951865],[80.831856,7.945417],[80.829758,7.939913],[80.821695,7.928787],[80.819635,7.924474],[80.820022,7.915],[80.81941,7.909207],[80.813402,7.886859],[80.813477,7.88129],[80.811889,7.875679],[80.811288,7.864918],[80.80992,7.862654],[80.811278,7.85737],[80.811042,7.851952],[80.808477,7.849474],[80.807839,7.847688],[80.806289,7.840338],[80.805436,7.830725],[80.803376,7.826611],[80.802362,7.821954],[80.797051,7.818768],[80.794036,7.818671],[80.793462,7.817261],[80.795426,7.80953],[80.795608,7.804863],[80.785673,7.800062],[80.784627,7.801157],[80.784445,7.80407],[80.781639,7.805636],[80.780089,7.805373],[80.779231,7.803882],[80.77643,7.802181],[80.768797,7.802283],[80.764704,7.7979],[80.761179,7.792177],[80.761641,7.790685],[80.76457,7.789591],[80.765884,7.786818],[80.765508,7.782145],[80.763604,7.777398],[80.763808,7.763214],[80.762805,7.75005],[80.763824,7.733999],[80.769682,7.714999],[80.773759,7.70839],[80.774488,7.701926],[80.773003,7.694029],[80.771216,7.691277],[80.769838,7.690494],[80.765632,7.695177],[80.762574,7.695982],[80.761045,7.695622],[80.767853,7.691331],[80.770766,7.683805],[80.773813,7.684003],[80.778818,7.677941],[80.780298,7.677485],[80.784456,7.679626],[80.804792,7.679631],[80.808038,7.672641],[80.809282,7.671719],[80.817763,7.676359],[80.820869,7.679851],[80.825332,7.678708],[80.82802,7.68005],[80.832843,7.680023],[80.835342,7.681739],[80.836877,7.681283],[80.839983,7.684647],[80.840616,7.689437],[80.841903,7.692291],[80.846388,7.693176],[80.847182,7.696154],[80.84907,7.698798],[80.853066,7.701083],[80.854177,7.699946],[80.854906,7.696894],[80.852648,7.694646],[80.855507,7.690929],[80.860877,7.68779],[80.867255,7.689711],[80.870276,7.689502],[80.87137,7.684942],[80.876938,7.679674],[80.877721,7.680961],[80.879438,7.691991],[80.881949,7.697951],[80.882217,7.707263],[80.883569,7.711968],[80.88359,7.715106],[80.888418,7.714366],[80.895081,7.715659],[80.906507,7.715873],[80.911962,7.712515],[80.91678,7.711893],[80.921989,7.708304],[80.925025,7.709565],[80.927863,7.708277],[80.93769,7.710112],[80.941107,7.713196],[80.942582,7.713631],[80.948752,7.712767],[80.955146,7.714822],[80.959749,7.714886],[80.964357,7.716624],[80.969008,7.715997],[80.972006,7.71722],[80.980262,7.716098],[80.985251,7.72024],[80.98913,7.721694],[80.994821,7.721436],[81.000937,7.719617],[81.010775,7.71826],[81.024025,7.723056],[81.037018,7.71987],[81.04927,7.71885],[81.056592,7.72274],[81.068743,7.730786],[81.071806,7.729526],[81.076747,7.729102],[81.095688,7.724456],[81.108794,7.7025],[81.110575,7.697725],[81.115419,7.691604],[81.119501,7.688783],[81.145073,7.676268],[81.147101,7.675779],[81.149826,7.678961],[81.151886,7.679647],[81.197886,7.661145],[81.204489,7.6557],[81.211967,7.647938],[81.213952,7.646962],[81.217895,7.648094],[81.220835,7.653651],[81.220953,7.655781],[81.219649,7.659761],[81.222627,7.672089],[81.225867,7.674717],[81.229842,7.67653],[81.238296,7.677957],[81.239358,7.679781],[81.236547,7.687855],[81.236794,7.690033],[81.239755,7.693053],[81.240351,7.69507],[81.238242,7.701014],[81.237947,7.7053],[81.237899,7.707397],[81.23961,7.711372],[81.239401,7.713438],[81.238205,7.715235],[81.23468,7.717804],[81.23372,7.721962],[81.234514,7.726092],[81.236993,7.729552],[81.237899,7.733678],[81.24086,7.736687],[81.2413298,7.7391082]]]}},
{"type":"Feature","properties":{"id":21,"name":"Ratnapura District","area_km2":3294.1648418804798},"geometry":{"type":"Polygon","coordinates":[[[80.495308,6.36758],[80.503092,6.367419],[80.508773,6.370783],[80.513306,6.369662],[80.527961,6.374259],[80.533739,6.374323],[80.534463,6.374881],[80.533267,6.377531],[80.533835,6.388185],[80.535171,6.389456],[80.544677,6.389113],[80.544527,6.392804],[80.54524,6.394585],[80.549623,6.396135],[80.552133,6.39481],[80.552782,6.391093],[80.554939,6.389489],[80.565324,6.3943],[80.571177,6.394145],[80.578784,6.39061],[80.582705,6.393442],[80.589121,6.395566],[80.592962,6.395743],[80.594206,6.397144],[80.59698,6.397541],[80.602511,6.396114],[80.607398,6.396484],[80.609238,6.395904],[80.610922,6.396607],[80.614334,6.394971],[80.618845,6.396264],[80.620299,6.395084],[80.620728,6.393378],[80.620095,6.386737],[80.616571,6.383786],[80.615616,6.381147],[80.615632,6.377397],[80.617681,6.372907],[80.617499,6.371073],[80.609581,6.365751],[80.606528,6.359679],[80.611158,6.34587],[80.612832,6.345173],[80.616796,6.347716],[80.625395,6.348757],[80.631403,6.351476],[80.641022,6.351895],[80.650833,6.35352],[80.656756,6.352796],[80.66131,6.353762],[80.663188,6.346166],[80.6623789,6.3410295],[80.663359,6.339777],[80.662635,6.339176],[80.659829,6.339557],[80.658156,6.33872],[80.657228,6.337191],[80.659416,6.335603],[80.660162,6.332905],[80.662801,6.331896],[80.664475,6.327304],[80.666229,6.326677],[80.670816,6.326961],[80.675161,6.321843],[80.675284,6.32091],[80.674469,6.3204],[80.671663,6.320717],[80.669684,6.318748],[80.670606,6.308759],[80.670059,6.306029],[80.674329,6.305187],[80.685836,6.307515],[80.691179,6.307381],[80.695304,6.308266],[80.703989,6.306506],[80.70842,6.304543],[80.711805,6.300777],[80.721976,6.300048],[80.727587,6.296952],[80.732394,6.296566],[80.73786,6.293106],[80.741143,6.289608],[80.748804,6.287275],[80.752897,6.284829],[80.756035,6.284024],[80.759763,6.281101],[80.770959,6.279647],[80.775347,6.276879],[80.783098,6.274776],[80.787138,6.269953],[80.798017,6.267094],[80.802866,6.26755],[80.808939,6.265678],[80.816942,6.266788],[80.818192,6.265796],[80.82464,6.265442],[80.827822,6.266112],[80.83162,6.269095],[80.834677,6.26828],[80.839205,6.269744],[80.845556,6.269245],[80.853163,6.272008],[80.857932,6.272002],[80.860357,6.269905],[80.866724,6.268784],[80.869181,6.266719],[80.878478,6.253356],[80.879862,6.24878],[80.883461,6.245749],[80.890966,6.249086],[80.89257,6.24908],[80.897468,6.244821],[80.903642,6.242595],[80.910353,6.238062],[80.918421,6.238303],[80.923158,6.239558],[80.926371,6.23921],[80.931092,6.240073],[80.934005,6.236302],[80.933924,6.233116],[80.938092,6.228175],[80.93968,6.22795],[80.944213,6.234494],[80.9467562,6.236824],[80.9489226,6.2349744],[80.9520659,6.2355413],[80.9532207,6.2370521],[80.9524138,6.2405327],[80.949277,6.242257],[80.947663,6.245062],[80.94689,6.253039],[80.941719,6.2593066],[80.941263,6.270581],[80.9392429,6.272255],[80.9364974,6.2719785],[80.9341496,6.272917],[80.93326,6.275794],[80.934364,6.280543],[80.9310675,6.2883045],[80.9264766,6.2939937],[80.921388,6.296472],[80.918394,6.301593],[80.912826,6.314612],[80.906555,6.322026],[80.906019,6.327385],[80.908325,6.329584],[80.909269,6.332561],[80.902398,6.337352],[80.902972,6.343853],[80.897012,6.349255],[80.889228,6.351793],[80.876128,6.354668],[80.873339,6.356213],[80.866778,6.355795],[80.865394,6.35698],[80.864959,6.362012],[80.863473,6.365021],[80.862513,6.369748],[80.855459,6.374071],[80.853233,6.383577],[80.847214,6.386179],[80.846023,6.392659],[80.838792,6.401741],[80.838969,6.403318],[80.840111,6.404434],[80.84326,6.404058],[80.844408,6.407036],[80.842676,6.416879],[80.838577,6.42212],[80.837949,6.426954],[80.839312,6.430269],[80.842756,6.433949],[80.842515,6.435521],[80.836737,6.438916],[80.836206,6.440456],[80.837204,6.441792],[80.840347,6.44162],[80.840777,6.443235],[80.839312,6.449291],[80.842375,6.453041],[80.843073,6.456077],[80.838727,6.460717],[80.837885,6.465873],[80.832435,6.475722],[80.830809,6.482143],[80.830568,6.488349],[80.827843,6.490114],[80.832161,6.498971],[80.832864,6.503772],[80.839387,6.513149],[80.839425,6.516373],[80.842949,6.519924],[80.848748,6.528389],[80.853635,6.531774],[80.853775,6.533335],[80.857154,6.536763],[80.858436,6.541511],[80.863602,6.54967],[80.864112,6.55129],[80.86349,6.556343],[80.860797,6.560404],[80.86349,6.566015],[80.864723,6.570961],[80.86695,6.573955],[80.866081,6.579351],[80.870796,6.580301],[80.872459,6.581921],[80.872008,6.584335],[80.869347,6.586942],[80.870447,6.590477],[80.869605,6.592832],[80.871027,6.593739],[80.875458,6.592639],[80.876632,6.593894],[80.876868,6.596453],[80.875688,6.601394],[80.87858,6.606163],[80.875597,6.610631],[80.881187,6.613287],[80.885215,6.618163],[80.888209,6.626971],[80.890521,6.631392],[80.898262,6.637416],[80.90191,6.637212],[80.903615,6.638993],[80.905412,6.646476],[80.903615,6.648794],[80.903701,6.650628],[80.907392,6.654791],[80.907097,6.658455],[80.908846,6.663015],[80.912086,6.666893],[80.912687,6.671845],[80.922241,6.681072],[80.92451,6.684676],[80.927809,6.686216],[80.928018,6.687573],[80.925432,6.689274],[80.920363,6.690899],[80.916892,6.694933],[80.915042,6.694751],[80.913604,6.693807],[80.913443,6.692063],[80.915406,6.688651],[80.913427,6.686946],[80.91288,6.684666],[80.908926,6.683469],[80.907859,6.678507],[80.900032,6.675712],[80.890741,6.675648],[80.887023,6.665987],[80.880752,6.663782],[80.871772,6.663712],[80.866553,6.662022],[80.865737,6.662146],[80.863634,6.665633],[80.860963,6.663315],[80.857385,6.657538],[80.854874,6.658214],[80.850588,6.66133],[80.847563,6.666641],[80.842461,6.666223],[80.839006,6.667306],[80.836303,6.666797],[80.829704,6.669645],[80.825547,6.689622],[80.819989,6.693705],[80.812216,6.697782],[80.811106,6.700324],[80.811836,6.703634],[80.812796,6.70527],[80.818026,6.706815],[80.821052,6.708704],[80.823519,6.708591],[80.828025,6.711236],[80.832365,6.711874],[80.833588,6.714159],[80.837912,6.714272],[80.842499,6.718735],[80.847895,6.718172],[80.85488,6.719406],[80.855008,6.721079],[80.851843,6.725081],[80.851393,6.728461],[80.850288,6.730145],[80.851393,6.731395],[80.853163,6.731073],[80.854917,6.731899],[80.85834,6.7364],[80.857905,6.74148],[80.854456,6.746448],[80.848238,6.744822],[80.845733,6.745504],[80.838953,6.744238],[80.834656,6.745541],[80.830665,6.75428],[80.827897,6.75767],[80.826958,6.76172],[80.823884,6.759805],[80.820402,6.759966],[80.812978,6.755492],[80.811476,6.755712],[80.811342,6.757751],[80.812919,6.761962],[80.809481,6.768136],[80.80866,6.772578],[80.809153,6.777197],[80.812608,6.78542],[80.809942,6.790935],[80.8084052,6.7919089],[80.805425,6.789277],[80.802126,6.788236],[80.800935,6.785892],[80.79358,6.78064],[80.789267,6.773967],[80.782905,6.774514],[80.777117,6.776558],[80.774451,6.778366],[80.758433,6.76783],[80.752859,6.762525],[80.747634,6.761007],[80.744845,6.758308],[80.736659,6.762852],[80.731536,6.763394],[80.726278,6.761602],[80.721536,6.758904],[80.719278,6.759129],[80.717867,6.760159],[80.716006,6.759006],[80.712701,6.759097],[80.70738,6.755009],[80.702391,6.75546],[80.694087,6.759161],[80.679522,6.760272],[80.675349,6.759226],[80.67051,6.760417],[80.664942,6.759923],[80.661128,6.761994],[80.659856,6.761178],[80.659304,6.754586],[80.653784,6.751222],[80.649943,6.75163],[80.643656,6.753904],[80.6354,6.753362],[80.627831,6.755127],[80.621109,6.758142],[80.615053,6.759381],[80.607843,6.758839],[80.584261,6.763635],[80.572749,6.763925],[80.559928,6.770609],[80.555025,6.769896],[80.550787,6.770968],[80.547262,6.774332],[80.544355,6.77563],[80.538272,6.774493],[80.529013,6.768453],[80.526899,6.768131],[80.511611,6.776832],[80.500951,6.778597],[80.495469,6.783017],[80.490035,6.792029],[80.488586,6.796616],[80.489531,6.799293],[80.495415,6.79992],[80.497679,6.80625],[80.500801,6.806948],[80.502266,6.808466],[80.501928,6.810515],[80.500694,6.811448],[80.49755,6.809936],[80.495549,6.81059],[80.492089,6.815912],[80.491671,6.819924],[80.496,6.831731],[80.493935,6.832552],[80.48783,6.832584],[80.483163,6.830937],[80.477407,6.830894],[80.470283,6.833153],[80.466791,6.833276],[80.458326,6.836827],[80.451636,6.833115],[80.448466,6.834633],[80.442072,6.836028],[80.44036,6.838603],[80.440881,6.841816],[80.434846,6.844499],[80.433515,6.847454],[80.432035,6.848087],[80.43093,6.846972],[80.430039,6.842052],[80.42402,6.839821],[80.421242,6.845421],[80.41459,6.848683],[80.404547,6.857346],[80.400047,6.859728],[80.397874,6.858741],[80.395369,6.855458],[80.390702,6.853698],[80.388873,6.849981],[80.383058,6.849648],[80.381663,6.850619],[80.381035,6.853704],[80.379571,6.854385],[80.366873,6.851617],[80.364642,6.849171],[80.362158,6.848431],[80.357378,6.849686],[80.356691,6.849246],[80.356772,6.84665],[80.35616,6.846065],[80.353103,6.845083],[80.351011,6.842519],[80.347953,6.84179],[80.348656,6.834558],[80.347298,6.833646],[80.342363,6.833324],[80.342637,6.831093],[80.340518,6.830122],[80.339391,6.831211],[80.339579,6.832627],[80.338984,6.832852],[80.338324,6.83127],[80.337455,6.831393],[80.331613,6.834027],[80.328737,6.836296],[80.3248,6.84121],[80.320777,6.8524],[80.318915,6.85526],[80.310794,6.862335],[80.306486,6.862024],[80.304131,6.859444],[80.30169,6.858382],[80.297216,6.859379],[80.296411,6.858945],[80.295655,6.855415],[80.294824,6.855147],[80.290602,6.856349],[80.286482,6.854879],[80.284905,6.855463],[80.284052,6.856735],[80.285012,6.857663],[80.284867,6.862512],[80.281332,6.865822],[80.282668,6.867748],[80.282153,6.870108],[80.280313,6.871578],[80.268774,6.874276],[80.265722,6.87815],[80.260652,6.889238],[80.258254,6.889426],[80.25473,6.892499],[80.250771,6.901517],[80.2484,6.901372],[80.243234,6.906565],[80.241035,6.907493],[80.235617,6.902638],[80.233224,6.903057],[80.232682,6.912664],[80.231524,6.914724],[80.23059,6.924155],[80.228659,6.925523],[80.226502,6.924455],[80.22396,6.931064],[80.222018,6.929487],[80.221267,6.927035],[80.219062,6.926097],[80.219175,6.921414],[80.216857,6.921076],[80.216149,6.918753],[80.214095,6.917642],[80.21167,6.917873],[80.2094013,6.9149553],[80.2036867,6.912578],[80.2004756,6.9086878],[80.1998769,6.903717],[80.1945976,6.9041493],[80.1909839,6.9005388],[80.1888931,6.8995193],[80.190099,6.8925985],[80.188554,6.8902043],[80.1837307,6.8865007],[80.1802948,6.8679758],[80.1795035,6.8662736],[80.1768552,6.8639712],[80.1750087,6.8599119],[80.1759582,6.8580737],[80.1794087,6.8566187],[80.191455,6.8539548],[80.1935623,6.8524876],[80.1953867,6.8466776],[80.198346,6.8422017],[80.1991916,6.8355251],[80.2021563,6.8316987],[80.2025826,6.8298468],[80.2020667,6.8194196],[80.1995075,6.8154097],[80.1969075,6.8145492],[80.1897232,6.8146713],[80.1883229,6.8155389],[80.1871867,6.8187898],[80.1852095,6.8157325],[80.182525,6.8156267],[80.1811362,6.8141727],[80.1803369,6.8140139],[80.1787648,6.8164877],[80.1780029,6.8165742],[80.1767354,6.8120626],[80.1808819,6.7967376],[80.1824816,6.7945243],[80.1859956,6.7923936],[80.1866702,6.7913053],[80.1865567,6.7875754],[80.19008,6.7855548],[80.1921171,6.7817522],[80.1921893,6.7795862],[80.1903241,6.776173],[80.189644,6.7721218],[80.1916666,6.7669473],[80.1925193,6.7609674],[80.2041265,6.7385991],[80.2055697,6.7309199],[80.2041377,6.7302709],[80.1992616,6.7313558],[80.1985955,6.7303635],[80.1989117,6.7268005],[80.2013864,6.7264125],[80.2024496,6.7238089],[80.2039643,6.7225556],[80.2027719,6.7204585],[80.2042191,6.7198722],[80.2075886,6.7132548],[80.2135592,6.7000286],[80.2135037,6.6975595],[80.2161993,6.6911411],[80.2200653,6.6909938],[80.2240496,6.685767],[80.2271245,6.6798338],[80.2290426,6.6779373],[80.2390537,6.6710098],[80.2416909,6.6703117],[80.2432735,6.6652403],[80.2454929,6.6642783],[80.2475979,6.6603085],[80.2494364,6.6585882],[80.2505076,6.6557474],[80.2497807,6.654629],[80.2516128,6.6537798],[80.2516891,6.6485904],[80.2515816,6.6459405],[80.2488505,6.6423175],[80.2495389,6.6370144],[80.2505639,6.6345888],[80.2536957,6.6314501],[80.2550261,6.6270082],[80.2608348,6.6225749],[80.272044,6.6197188],[80.2746851,6.6177618],[80.276475,6.6186181],[80.282514,6.6178874],[80.2858309,6.6147807],[80.2934988,6.6038864],[80.2981955,6.6003079],[80.2978737,6.5989575],[80.3032186,6.5959194],[80.3059715,6.5898412],[80.3065177,6.5858576],[80.308263,6.5840973],[80.3114353,6.5761397],[80.3145882,6.5712008],[80.3138954,6.5702876],[80.309459,6.5704331],[80.3079535,6.5685935],[80.2983761,6.5666137],[80.2952931,6.5641098],[80.2955446,6.5613099],[80.3013961,6.5532078],[80.3046217,6.5467724],[80.3053677,6.5429076],[80.3045417,6.5392015],[80.3054047,6.5378499],[80.3130279,6.5342018],[80.3276358,6.5120903],[80.3385702,6.4939262],[80.3380906,6.4931319],[80.3563251,6.4688824],[80.3612811,6.4586627],[80.3704096,6.4459806],[80.3762306,6.4398734],[80.3802766,6.4341801],[80.3793214,6.4312417],[80.3792517,6.4282636],[80.3800142,6.4268729],[80.385863,6.420296],[80.395128,6.413628],[80.400057,6.407669],[80.419069,6.392391],[80.431525,6.389344],[80.436723,6.393785],[80.440527,6.394665],[80.451304,6.387724],[80.454286,6.387203],[80.457049,6.387992],[80.462472,6.385621],[80.465235,6.385959],[80.469339,6.382086],[80.470605,6.379403],[80.472059,6.378239],[80.474006,6.380047],[80.477691,6.379457],[80.481285,6.380959],[80.491006,6.380128],[80.49394,6.377665],[80.493731,6.373068],[80.495308,6.36758]]]}}
]
}
