{
"type": "FeatureCollection",
"name": "districts",
"crs": { "type": "name", "properties": { "name": "urn:ogc:def:crs:OGC:1.3:CRS84" } },
"xy_coordinate_resolution": 1e-05,
"features": [
{"type":"Feature","properties":{"id":1,"name":"Chokwe"},"geometry":{"type":"Polygon","coordinates":[[[32.58352,-24.23315],[32.61147,-24.12524],[32.61289,-24.12285],[32.61605,-24.12134],[32.61723,-24.12136],[32.61908,-24.12306],[32.62077,-24.12281],[32.62327,-24.11974],[32.62824,-24.11839],[32.634,-24.11464],[32.63942,-24.10938],[32.64113,-24.1109],[32.64113,-24.23315],[32.58352,-24.23315]]]}},
{"type":"Feature","properties":{"id":2,"name":"Mabalane"},"geometry":{"type":"Polygon","coordinates":[[[32.64113,-24.1109],[32.63819,-24.10844],[32.63597,-24.10363],[32.63395,-24.10118],[32.62698,-24.09922],[32.62451,-24.09774],[32.62244,-24.09501],[32.61958,-24.08759],[32.61911,-24.08276],[32.61434,-24.07077],[32.61381,-24.06587],[32.61521,-24.06158],[32.61219,-24.05607],[32.61324,-24.05268],[32.61236,-24.05086],[32.59937,-24.04881],[32.59618,-24.04744],[32.58673,-24.04],[32.58129,-24.03749],[32.57392,-24.03578],[32.5628,-24.035],[32.55686,-24.03226],[32.54434,-24.01949],[32.53715,-24.01405],[32.53133,-24.00758],[32.52283,-24.00426],[32.5134,-24.00205],[32.50907,-23.99941],[32.50472,-23.99854],[32.49755,-23.98985],[32.48945,-23.98168],[32.4737,-23.96747],[32.46918,-23.96427],[32.4624,-23.95696],[32.45931,-23.95112],[32.4564,-23.94298],[32.45295,-23.92756],[32.4464,-23.90481],[32.43511,-23.88019],[32.40973,-23.83031],[32.40442,-23.81679],[32.39856,-23.8046],[32.39804,-23.7992],[32.64113,-23.7992],[32.64113,-24.1109]]]}},
{"type":"Feature","properties":{"id":3,"name":"Magude"},"geometry":{"type":"MultiPolygon","coordinates":[[[[32.23575,-24.23315],[32.23634,-24.23274],[32.23746,-24.23315],[32.23575,-24.23315]]],[[[32.16128,-24.21411],[32.16229,-24.21636],[32.16413,-24.21767],[32.1637,-24.21884],[32.16475,-24.21926],[32.16875,-24.21764],[32.17134,-24.21809],[32.17232,-24.21943],[32.17736,-24.21922],[32.17914,-24.21732],[32.18144,-24.21932],[32.18278,-24.21945],[32.18453,-24.21792],[32.18667,-24.21866],[32.18839,-24.21703],[32.18983,-24.21771],[32.19064,-24.2167],[32.19302,-24.2169],[32.1966,-24.22081],[32.1962,-24.2221],[32.19722,-24.2248],[32.20034,-24.22459],[32.19967,-24.22673],[32.20465,-24.229],[32.20733,-24.23315],[32.16119,-24.23315],[32.16128,-24.21411]]]]}},
{"type":"Feature","properties":{"id":4,"name":"Massingir"},"geometry":{"type":"Polygon","coordinates":[[[32.20733,-24.23314],[32.20465,-24.229],[32.19967,-24.22673],[32.20034,-24.22459],[32.19722,-24.2248],[32.1962,-24.2221],[32.1966,-24.22081],[32.19302,-24.2169],[32.19064,-24.2167],[32.18983,-24.21771],[32.18839,-24.21703],[32.18667,-24.21866],[32.18453,-24.21792],[32.18278,-24.21945],[32.18144,-24.21932],[32.17914,-24.21732],[32.17736,-24.21922],[32.17232,-24.21943],[32.17134,-24.21809],[32.16875,-24.21764],[32.16475,-24.21926],[32.1637,-24.21884],[32.16413,-24.21767],[32.16229,-24.21636],[32.16119,-24.21406],[32.16119,-23.7992],[32.39804,-23.7992],[32.39856,-23.8046],[32.40442,-23.81679],[32.40973,-23.83031],[32.43511,-23.88019],[32.4464,-23.90481],[32.45295,-23.92756],[32.4564,-23.94298],[32.45931,-23.95112],[32.4624,-23.95696],[32.46918,-23.96427],[32.4737,-23.96747],[32.48945,-23.98168],[32.49755,-23.98985],[32.50472,-23.99854],[32.50907,-23.99941],[32.5134,-24.00205],[32.52283,-24.00426],[32.53133,-24.00758],[32.53715,-24.01405],[32.54434,-24.01949],[32.55686,-24.03226],[32.5628,-24.035],[32.57392,-24.03578],[32.58129,-24.03749],[32.58673,-24.04],[32.59618,-24.04744],[32.59937,-24.04881],[32.61236,-24.05086],[32.61324,-24.05268],[32.61219,-24.05607],[32.61521,-24.06158],[32.61381,-24.06587],[32.61434,-24.07077],[32.61911,-24.08276],[32.61958,-24.08759],[32.62244,-24.09501],[32.62451,-24.09774],[32.62698,-24.09922],[32.63395,-24.10118],[32.63597,-24.10363],[32.63819,-24.10844],[32.63942,-24.10938],[32.634,-24.11464],[32.62824,-24.11839],[32.62327,-24.11974],[32.62077,-24.12281],[32.61908,-24.12306],[32.61723,-24.12136],[32.61605,-24.12134],[32.61289,-24.12285],[32.61147,-24.12524],[32.58352,-24.23315],[32.20733,-24.23314]]]}}
]
}
