{
  "type": "FeatureCollection",
  "features": [
    {
      "type": "Feature",
      "geometry": {
        "type": "Polygon",
        "coordinates": [
          [
            [
              32.263181717640755,
              -23.855196852546918
            ],
            [
              32.263181717640755,
              -23.80920311
            ],
            [
              32.217187975093836,
              -23.80920311
            ],
            [
              32.217187975093836,
              -23.855196852546918
            ],
            [
              32.263181717640755,
              -23.855196852546918
            ]
          ]
        ]
      },
      "properties": {
        "id": "C1",
        "bounds": [
          32.217187975093836,
          -23.855196852546918,
          32.263181717640755,
          -23.80920311
        ],
        "flood_share": 0.148
      }
    },
    {
      "type": "Feature",
      "geometry": {
        "type": "Polygon",
        "coordinates": [
          [
            [
              32.217187975093836,
              -23.901190595093837
            ],
            [
              32.217187975093836,
              -23.855196852546918
            ],
            [
              32.17119423254692,
              -23.855196852546918
            ],
            [
              32.17119423254692,
              -23.901190595093837
            ],
            [
              32.217187975093836,
              -23.901190595093837
            ]
          ]
        ]
      },
      "properties": {
        "id": "B2",
        "bounds": [
          32.17119423254692,
          -23.901190595093837,
          32.217187975093836,
          -23.855196852546918
        ],
        "flood_share": 0.166
      }
    },
    {
      "type": "Feature",
      "geometry": {
        "type": "Polygon",
        "coordinates": [
          [
            [
              32.263181717640755,
              -23.901190595093837
            ],
            [
              32.263181717640755,
              -23.855196852546918
            ],
            [
              32.217187975093836,
              -23.855196852546918
            ],
            [
              32.217187975093836,
              -23.901190595093837
            ],
            [
              32.263181717640755,
              -23.901190595093837
            ]
          ]
        ]
      },
      "properties": {
        "id": "C2",
        "bounds": [
          32.217187975093836,
          -23.901190595093837,
          32.263181717640755,
          -23.855196852546918
        ],
        "flood_share": 0.382
      }
    },
    {
      "type": "Feature",
      "geometry": {
        "type": "Polygon",
        "coordinates": [
          [
            [
              32.309175460187674,
              -23.901190595093837
            ],
            [
              32.309175460187674,
              -23.855196852546918
            ],
            [
              32.263181717640755,
              -23.855196852546918
            ],
            [
              32.263181717640755,
              -23.901190595093837
            ],
            [
              32.309175460187674,
              -23.901190595093837
            ]
          ]
        ]
      },
      "properties": {
        "id": "D2",
        "bounds": [
          32.263181717640755,
          -23.901190595093837,
          32.309175460187674,
          -23.855196852546918
        ],
        "flood_share": 0.301
      }
    },
    {
      "type": "Feature",
      "geometry": {
        "type": "Polygon",
        "coordinates": [
          [
            [
              32.309175460187674,
              -23.947184337640756
            ],
            [
              32.309175460187674,
              -23.901190595093837
            ],
            [
              32.263181717640755,
              -23.901190595093837
            ],
            [
              32.263181717640755,
              -23.947184337640756
            ],
            [
              32.309175460187674,
              -23.947184337640756
            ]
          ]
        ]
      },
      "properties": {
        "id": "D3",
        "bounds": [
          32.263181717640755,
          -23.947184337640756,
          32.309175460187674,
          -23.901190595093837
        ],
        "flood_share": 0.247
      }
    },
    {
      "type": "Feature",
      "geometry": {
        "type": "Polygon",
        "coordinates": [
          [
            [
              32.309175460187674,
              -23.993178080187676
            ],
            [
              32.309175460187674,
              -23.947184337640756
            ],
            [
              32.263181717640755,
              -23.947184337640756
            ],
            [
              32.263181717640755,
              -23.993178080187676
            ],
            [
              32.309175460187674,
              -23.993178080187676
            ]
          ]
        ]
      },
      "properties": {
        "id": "D4",
        "bounds": [
          32.263181717640755,
          -23.993178080187676,
          32.309175460187674,
          -23.947184337640756
        ],
        "flood_share": 0.151
      }
    },
    {
      "type": "Feature",
      "geometry": {
        "type": "Polygon",
        "coordinates": [
          [
            [
              32.355169202734594,
              -23.993178080187676
            ],
            [
              32.355169202734594,
              -23.947184337640756
            ],
            [
              32.309175460187674,
              -23.947184337640756
            ],
            [
              32.309175460187674,
              -23.993178080187676
            ],
            [
              32.355169202734594,
              -23.993178080187676
            ]
          ]
        ]
      },
      "properties": {
        "id": "E4",
        "bounds": [
          32.309175460187674,
          -23.993178080187676,
          32.355169202734594,
          -23.947184337640756
        ],
        "flood_share": 0.408
      }
    },
    {
      "type": "Feature",
      "geometry": {
        "type": "Polygon",
        "coordinates": [
          [
            [
              32.40116294528151,
              -23.993178080187676
            ],
            [
              32.40116294528151,
              -23.947184337640756
            ],
            [
              32.355169202734594,
              -23.947184337640756
            ],
            [
              32.355169202734594,
              -23.993178080187676
            ],
            [
              32.40116294528151,
              -23.993178080187676
            ]
          ]
        ]
      },
      "properties": {
        "id": "F4",
        "bounds": [
          32.355169202734594,
          -23.993178080187676,
          32.40116294528151,
          -23.947184337640756
        ],
        "flood_share": 0.213
      }
    },
    {
      "type": "Feature",
      "geometry": {
        "type": "Polygon",
        "coordinates": [
          [
            [
              32.44715668782843,
              -23.993178080187676
            ],
            [
              32.44715668782843,
              -23.947184337640756
            ],
            [
              32.40116294528151,
              -23.947184337640756
            ],
            [
              32.40116294528151,
              -23.993178080187676
            ],
            [
              32.44715668782843,
              -23.993178080187676
            ]
          ]
        ]
      },
      "properties": {
        "id": "G4",
        "bounds": [
          32.40116294528151,
          -23.993178080187676,
          32.44715668782843,
          -23.947184337640756
        ],
        "flood_share": 0.128
      }
    },
    {
      "type": "Feature",
      "geometry": {
        "type": "Polygon",
        "coordinates": [
          [
            [
              32.40116294528151,
              -24.039171822734595
            ],
            [
              32.40116294528151,
              -23.993178080187676
            ],
            [
              32.355169202734594,
              -23.993178080187676
            ],
            [
              32.355169202734594,
              -24.039171822734595
            ],
            [
              32.40116294528151,
              -24.039171822734595
            ]
          ]
        ]
      },
      "properties": {
        "id": "F5",
        "bounds": [
          32.355169202734594,
          -24.039171822734595,
          32.40116294528151,
          -23.993178080187676
        ],
        "flood_share": 0.079
      }
    },
    {
      "type": "Feature",
      "geometry": {
        "type": "Polygon",
        "coordinates": [
          [
            [
              32.44715668782843,
              -24.039171822734595
            ],
            [
              32.44715668782843,
              -23.993178080187676
            ],
            [
              32.40116294528151,
              -23.993178080187676
            ],
            [
              32.40116294528151,
              -24.039171822734595
            ],
            [
              32.44715668782843,
              -24.039171822734595
            ]
          ]
        ]
      },
      "properties": {
        "id": "G5",
        "bounds": [
          32.40116294528151,
          -24.039171822734595,
          32.44715668782843,
          -23.993178080187676
        ],
        "flood_share": 0.219
      }
    },
    {
      "type": "Feature",
      "geometry": {
        "type": "Polygon",
        "coordinates": [
          [
            [
              32.49315043037535,
              -24.039171822734595
            ],
            [
              32.49315043037535,
              -23.993178080187676
            ],
            [
              32.44715668782843,
              -23.993178080187676
            ],
            [
              32.44715668782843,
              -24.039171822734595
            ],
            [
              32.49315043037535,
              -24.039171822734595
            ]
          ]
        ]
      },
      "properties": {
        "id": "H5",
        "bounds": [
          32.44715668782843,
          -24.039171822734595,
          32.49315043037535,
          -23.993178080187676
        ],
        "flood_share": 0.13
      }
    },
    {
      "type": "Feature",
      "geometry": {
        "type": "Polygon",
        "coordinates": [
          [
            [
              32.49315043037535,
              -24.085165565281514
            ],
            [
              32.49315043037535,
              -24.039171822734595
            ],
            [
              32.44715668782843,
              -24.039171822734595
            ],
            [
              32.44715668782843,
              -24.085165565281514
            ],
            [
              32.49315043037535,
              -24.085165565281514
            ]
          ]
        ]
      },
      "properties": {
        "id": "H6",
        "bounds": [
          32.44715668782843,
          -24.085165565281514,
          32.49315043037535,
          -24.039171822734595
        ],
        "flood_share": 0.216
      }
    },
    {
      "type": "Feature",
      "geometry": {
        "type": "Polygon",
        "coordinates": [
          [
            [
              32.49315043037535,
              -24.131159307828437
            ],
            [
              32.49315043037535,
              -24.085165565281514
            ],
            [
              32.44715668782843,
              -24.085165565281514
            ],
            [
              32.44715668782843,
              -24.131159307828437
            ],
            [
              32.49315043037535,
              -24.131159307828437
            ]
          ]
        ]
      },
      "properties": {
        "id": "H7",
        "bounds": [
          32.44715668782843,
          -24.131159307828437,
          32.49315043037535,
          -24.085165565281514
        ],
        "flood_share": 0.071
      }
    },
    {
      "type": "Feature",
      "geometry": {
        "type": "Polygon",
        "coordinates": [
          [
            [
              32.53914417292227,
              -24.131159307828437
            ],
            [
              32.53914417292227,
              -24.085165565281514
            ],
            [
              32.49315043037535,
              -24.085165565281514
            ],
            [
              32.49315043037535,
              -24.131159307828437
            ],
            [
              32.53914417292227,
              -24.131159307828437
            ]
          ]
        ]
      },
      "properties": {
        "id": "I7",
        "bounds": [
          32.49315043037535,
          -24.131159307828437,
          32.53914417292227,
          -24.085165565281514
        ],
        "flood_share": 0.201
      }
    },
    {
      "type": "Feature",
      "geometry": {
        "type": "Polygon",
        "coordinates": [
          [
            [
              32.63113165801611,
              -24.131159307828437
            ],
            [
              32.63113165801611,
              -24.085165565281514
            ],
            [
              32.58513791546919,
              -24.085165565281514
            ],
            [
              32.58513791546919,
              -24.131159307828437
            ],
            [
              32.63113165801611,
              -24.131159307828437
            ]
          ]
        ]
      },
      "properties": {
        "id": "K7",
        "bounds": [
          32.58513791546919,
          -24.131159307828437,
          32.63113165801611,
          -24.085165565281514
        ],
        "flood_share": 0.19
      }
    },
    {
      "type": "Feature",
      "geometry": {
        "type": "Polygon",
        "coordinates": [
          [
            [
              32.53914417292227,
              -24.177153050375356
            ],
            [
              32.53914417292227,
              -24.131159307828437
            ],
            [
              32.49315043037535,
              -24.131159307828437
            ],
            [
              32.49315043037535,
              -24.177153050375356
            ],
            [
              32.53914417292227,
              -24.177153050375356
            ]
          ]
        ]
      },
      "properties": {
        "id": "I8",
        "bounds": [
          32.49315043037535,
          -24.177153050375356,
          32.53914417292227,
          -24.131159307828437
        ],
        "flood_share": 0.289
      }
    },
    {
      "type": "Feature",
      "geometry": {
        "type": "Polygon",
        "coordinates": [
          [
            [
              32.58513791546919,
              -24.177153050375356
            ],
            [
              32.58513791546919,
              -24.131159307828437
            ],
            [
              32.53914417292227,
              -24.131159307828437
            ],
            [
              32.53914417292227,
              -24.177153050375356
            ],
            [
              32.58513791546919,
              -24.177153050375356
            ]
          ]
        ]
      },
      "properties": {
        "id": "J8",
        "bounds": [
          32.53914417292227,
          -24.177153050375356,
          32.58513791546919,
          -24.131159307828437
        ],
        "flood_share": 0.172
      }
    },
    {
      "type": "Feature",
      "geometry": {
        "type": "Polygon",
        "coordinates": [
          [
            [
              32.63113165801611,
              -24.177153050375356
            ],
            [
              32.63113165801611,
              -24.131159307828437
            ],
            [
              32.58513791546919,
              -24.131159307828437
            ],
            [
              32.58513791546919,
              -24.177153050375356
            ],
            [
              32.63113165801611,
              -24.177153050375356
            ]
          ]
        ]
      },
      "properties": {
        "id": "K8",
        "bounds": [
          32.58513791546919,
          -24.177153050375356,
          32.63113165801611,
          -24.131159307828437
        ],
        "flood_share": 0.167
      }
    },
    {
      "type": "Feature",
      "geometry": {
        "type": "Polygon",
        "coordinates": [
          [
            [
              32.53914417292227,
              -24.223146792922275
            ],
            [
              32.53914417292227,
              -24.177153050375356
            ],
            [
              32.49315043037535,
              -24.177153050375356
            ],
            [
              32.49315043037535,
              -24.223146792922275
            ],
            [
              32.53914417292227,
              -24.223146792922275
            ]
          ]
        ]
      },
      "properties": {
        "id": "I9",
        "bounds": [
          32.49315043037535,
          -24.223146792922275,
          32.53914417292227,
          -24.177153050375356
        ],
        "flood_share": 0.058
      }
    }
  ]
}