{
"type": "FeatureCollection",
"name": "districts",
"crs": { "type": "name", "properties": { "name": "urn:ogc:def:crs:OGC:1.3:CRS84" } },
"xy_coordinate_resolution": 1e-05,
"features": [
{"type":"Feature","properties":{"id":1,"name":"Montería"},"geometry":{"type":"Polygon","coordinates":[[[-76.17086,8.92526],[-76.17086,8.92635],[-76.16711,8.92837],[-76.16698,8.92947],[-76.16472,8.93097],[-76.16232,8.93118],[-76.16131,8.93325],[-76.16022,8.93314],[-76.15991,8.93473],[-76.15778,8.9335],[-76.15555,8.93695],[-76.15246,8.93301],[-76.15125,8.93259],[-76.1484,8.93578],[-76.14771,8.93767],[-76.14768,8.93888],[-76.15003,8.94104],[-76.14937,8.94408],[-76.13985,8.94364],[-76.13972,8.94938],[-76.13183,8.94766],[-76.13012,8.9523],[-76.12422,8.94888],[-76.1255,8.94515],[-76.13292,8.94681],[-76.1327,8.9442],[-76.12606,8.94247],[-76.12506,8.94479],[-76.12273,8.94412],[-76.12274,8.94462],[-76.11879,8.94447],[-76.11688,8.94728],[-76.11442,8.94541],[-76.1156,8.94404],[-76.11238,8.94208],[-76.10952,8.94501],[-76.10608,8.94328],[-76.10898,8.93942],[-76.10727,8.93834],[-76.10275,8.93973],[-76.09766,8.94253],[-76.09677,8.94154],[-76.0978,8.94023],[-76.09674,8.93756],[-76.09276,8.93933],[-76.09157,8.93763],[-76.08729,8.94114],[-76.08543,8.9395],[-76.07929,8.9387],[-76.0775,8.9363],[-76.07618,8.93703],[-76.07551,8.94106],[-76.07208,8.93962],[-76.0717,8.94203],[-76.07263,8.9459],[-76.06761,8.9488],[-76.06707,8.9474],[-76.0648,8.94661],[-76.06494,8.94548],[-76.06091,8.94281],[-76.05724,8.94243],[-76.05604,8.94314],[-76.05354,8.94129],[-76.05275,8.9431],[-76.0538,8.94358],[-76.05428,8.94518],[-76.05164,8.94823],[-76.0506,8.94701],[-76.04743,8.94576],[-76.0467,8.94692],[-76.04551,8.94665],[-76.04457,8.94845],[-76.04285,8.94799],[-76.03869,8.95103],[-76.03661,8.95066],[-76.03418,8.94842],[-76.03294,8.94958],[-76.02797,8.94809],[-76.02673,8.9457],[-76.02819,8.9443],[-76.02699,8.94003],[-76.01969,8.93811],[-76.0163,8.93568],[-76.01977,8.93103],[-76.01704,8.93004],[-76.01671,8.92552],[-76.01469,8.92442],[-76.01471,8.92069],[-76.01389,8.92137],[-76.01308,8.92036],[-76.01623,8.91852],[-76.01223,8.91548],[-76.0125,8.91322],[-76.01148,8.91322],[-76.01306,8.90783],[-76.00721,8.90653],[-76.00727,8.90563],[-76.00472,8.90553],[-76.00461,8.90373],[-76.00222,8.90355],[-76.00214,8.90264],[-75.99608,8.90287],[-75.99493,8.90231],[-75.99506,8.90158],[-75.99365,8.90145],[-75.99445,8.89832],[-75.99546,8.89825],[-75.99535,8.89488],[-75.99121,8.89374],[-75.98826,8.8918],[-75.98392,8.8975],[-75.98233,8.89707],[-75.98595,8.89223],[-75.98022,8.88834],[-75.97535,8.89109],[-75.97157,8.89006],[-75.96839,8.89122],[-75.967,8.88914],[-75.96429,8.89013],[-75.96393,8.88924],[-75.96177,8.88977],[-75.96139,8.88905],[-75.95593,8.89044],[-75.95563,8.88948],[-75.95367,8.89026],[-75.95339,8.88949],[-75.94918,8.89157],[-75.94441,8.89163],[-75.94637,8.88957],[-75.94774,8.88575],[-75.95171,8.88604],[-75.9526,8.88415],[-75.94972,8.8799],[-75.94691,8.88099],[-75.94548,8.88242],[-75.94663,8.8856],[-75.94544,8.88528],[-75.94469,8.88719],[-75.94218,8.88618],[-75.94176,8.88403],[-75.93892,8.88317],[-75.94023,8.87998],[-75.93653,8.87939],[-75.93397,8.88794],[-75.92764,8.88356],[-75.92089,8.88073],[-75.91706,8.87492],[-75.91096,8.87613],[-75.91086,8.87773],[-75.91013,8.87681],[-75.9092,8.87792],[-75.90764,8.87804],[-75.90643,8.87597],[-75.90846,8.87476],[-75.90557,8.86972],[-75.89896,8.87133],[-75.89354,8.86467],[-75.89263,8.8624],[-75.8839,8.86241],[-75.87982,8.86046],[-75.87856,8.87423],[-75.87742,8.87556],[-75.86867,8.86487],[-75.85415,8.85716],[-75.8539,8.85611],[-75.85103,8.85415],[-75.85201,8.85251],[-75.85528,8.85222],[-75.85562,8.84886],[-75.85747,8.84602],[-75.85571,8.84207],[-75.85553,8.83659],[-75.85307,8.83358],[-75.85282,8.83181],[-75.85088,8.83119],[-75.84494,8.82641],[-75.84219,8.82662],[-75.84157,8.82896],[-75.84478,8.83317],[-75.84508,8.83588],[-75.8437,8.83971],[-75.84207,8.84014],[-75.84464,8.83582],[-75.84367,8.83432],[-75.84392,8.83273],[-75.84227,8.8319],[-75.84292,8.83118],[-75.84152,8.8294],[-75.83972,8.8283],[-75.8345,8.83593],[-75.83302,8.83517],[-75.8329,8.83326],[-75.8215,8.82086],[-75.81946,8.82445],[-75.81663,8.82355],[-75.8107,8.82485],[-75.81073,8.82303],[-75.80624,8.82058],[-75.80298,8.81472],[-75.80162,8.81523],[-75.79761,8.80639],[-75.79063,8.80628],[-75.79069,8.80396],[-75.79006,8.80351],[-75.7932,8.79839],[-75.79515,8.79951],[-75.79781,8.79381],[-75.80005,8.7941],[-75.80099,8.79311],[-75.79917,8.79148],[-75.79805,8.7925],[-75.79754,8.79216],[-75.79701,8.78772],[-75.79319,8.78943],[-75.79262,8.79142],[-75.78964,8.79164],[-75.78742,8.78332],[-75.79073,8.77846],[-75.7924,8.77398],[-75.79787,8.77289],[-75.80052,8.76833],[-75.79854,8.76668],[-75.7984,8.76473],[-75.79609,8.76317],[-75.79656,8.75852],[-75.79846,8.75786],[-75.79958,8.75614],[-75.79957,8.75342],[-75.79879,8.75125],[-75.79282,8.75663],[-75.79093,8.75029],[-75.78622,8.75249],[-75.78472,8.75167],[-75.7847,8.74898],[-75.7825,8.74769],[-75.77812,8.74308],[-75.77792,8.74062],[-75.77618,8.73759],[-75.78299,8.73045],[-75.7723,8.72404],[-75.77056,8.72101],[-75.76846,8.72027],[-75.76764,8.71915],[-75.7645,8.7194],[-75.76274,8.71831],[-75.76063,8.71823],[-75.76171,8.71205],[-75.76586,8.70882],[-75.76135,8.70218],[-75.76244,8.69354],[-75.76348,8.69155],[-75.76222,8.68885],[-75.76369,8.68794],[-75.763,8.68698],[-75.76393,8.68607],[-75.76554,8.68612],[-75.76513,8.68363],[-75.76735,8.68137],[-75.7701,8.67385],[-75.77178,8.67229],[-75.77356,8.66734],[-75.77398,8.66491],[-75.77247,8.66228],[-75.77208,8.65677],[-75.77052,8.65595],[-75.76892,8.65282],[-75.76832,8.65345],[-75.7659,8.64811],[-75.76098,8.64835],[-75.75967,8.65007],[-75.75854,8.65023],[-75.7568,8.64882],[-75.75638,8.6462],[-75.75759,8.64493],[-75.7542,8.64526],[-75.74909,8.64311],[-75.74983,8.64219],[-75.74897,8.64166],[-75.75184,8.63913],[-75.75281,8.63677],[-75.75319,8.63238],[-75.75255,8.62874],[-75.7415,8.62506],[-75.73974,8.61995],[-75.73198,8.61824],[-75.73033,8.6144],[-75.71732,8.61528],[-75.71701,8.61337],[-75.71496,8.61297],[-75.71496,8.61353],[-75.71333,8.61221],[-75.70779,8.61277],[-75.70739,8.61067],[-75.70634,8.61182],[-75.70534,8.60871],[-75.70745,8.60562],[-75.70674,8.60491],[-75.70774,8.60358],[-75.7068,8.60103],[-75.70383,8.60384],[-75.70213,8.60149],[-75.70236,8.59953],[-75.70588,8.59901],[-75.7077,8.59737],[-75.70663,8.59575],[-75.70904,8.59208],[-75.70863,8.58889],[-75.70717,8.58798],[-75.70364,8.59042],[-75.69911,8.58619],[-75.69977,8.58435],[-75.69572,8.58348],[-75.69322,8.58415],[-75.69274,8.58546],[-75.69396,8.58639],[-75.69223,8.58906],[-75.6891,8.58739],[-75.68887,8.58612],[-75.68991,8.58647],[-75.69041,8.58566],[-75.6895,8.58518],[-75.69009,8.58427],[-75.68189,8.58295],[-75.67794,8.57862],[-75.67774,8.57483],[-75.68084,8.57439],[-75.68189,8.57304],[-75.68221,8.57355],[-75.68419,8.57243],[-75.68335,8.57011],[-75.68389,8.56865],[-75.68585,8.56851],[-75.68576,8.56415],[-75.68706,8.55869],[-75.69331,8.55499],[-75.69012,8.55278],[-75.68828,8.55029],[-75.69007,8.54607],[-75.68661,8.54099],[-75.68676,8.53876],[-75.68556,8.53869],[-75.68462,8.53993],[-75.6841,8.5365],[-75.68243,8.53641],[-75.68278,8.53204],[-75.68134,8.53127],[-75.67657,8.53152],[-75.67682,8.52883],[-75.67932,8.52846],[-75.67939,8.52391],[-75.6836,8.51765],[-75.68553,8.51885],[-75.68922,8.51803],[-75.68839,8.51413],[-75.69142,8.51226],[-75.69067,8.51009],[-75.68886,8.51144],[-75.68715,8.5079],[-75.68212,8.51376],[-75.67831,8.51408],[-75.67693,8.51207],[-75.6771,8.5092],[-75.67842,8.50637],[-75.67727,8.50509],[-75.67788,8.50284],[-75.67274,8.50268],[-75.66635,8.50053],[-75.66644,8.493],[-75.66972,8.48994],[-75.67025,8.48845],[-75.672,8.48846],[-75.67132,8.4854],[-75.66826,8.48418],[-75.66815,8.47985],[-75.67211,8.47812],[-75.67073,8.477],[-75.67329,8.46967],[-75.67354,8.46581],[-75.67256,8.46292],[-75.66775,8.46054],[-75.66864,8.4592],[-75.66989,8.45934],[-75.67047,8.45784],[-75.67585,8.45502],[-75.67655,8.4573],[-75.67872,8.45645],[-75.6803,8.45671],[-75.68021,8.45498],[-75.67464,8.45349],[-75.67487,8.4524],[-75.67272,8.45114],[-75.67426,8.44826],[-75.67669,8.44755],[-75.67751,8.44376],[-75.68077,8.44243],[-75.68084,8.43602],[-75.68529,8.43507],[-75.68597,8.43341],[-75.68302,8.43169],[-75.6816,8.42989],[-75.67793,8.43128],[-75.67839,8.42569],[-75.68075,8.42094],[-75.67955,8.41676],[-75.67597,8.41721],[-75.6754,8.41637],[-75.67053,8.41607],[-75.66877,8.41513],[-75.66833,8.41942],[-75.66317,8.41973],[-75.66263,8.40999],[-75.66401,8.41016],[-75.66464,8.40774],[-75.66219,8.40306],[-75.65919,8.40624],[-75.64932,8.40849],[-75.64928,8.40233],[-75.64525,8.3968],[-75.64822,8.39082],[-75.6469,8.38919],[-75.65467,8.38823],[-75.65748,8.38394],[-75.65816,8.37861],[-75.66141,8.37891],[-75.66154,8.37726],[-75.66442,8.37769],[-75.66585,8.37363],[-75.66968,8.36859],[-75.66439,8.36801],[-75.66343,8.36072],[-75.66012,8.36016],[-75.65811,8.35589],[-75.6622,8.35547],[-75.66153,8.35186],[-75.67288,8.35095],[-75.67397,8.34807],[-75.67491,8.34843],[-75.67763,8.34547],[-75.67711,8.34492],[-75.6785,8.34261],[-75.67446,8.34196],[-75.67474,8.33832],[-75.67118,8.33879],[-75.66988,8.34],[-75.66946,8.33627],[-75.67206,8.33409],[-75.66483,8.33325],[-75.66565,8.33215],[-75.66487,8.33084],[-75.6654,8.33046],[-75.66245,8.32728],[-75.66602,8.3236],[-75.66536,8.32235],[-75.66916,8.32157],[-75.66772,8.31785],[-75.67062,8.31745],[-75.67118,8.32101],[-75.67627,8.31985],[-75.67966,8.32149],[-75.68329,8.32183],[-75.68029,8.31665],[-75.68259,8.31541],[-75.68646,8.31633],[-75.68807,8.30619],[-75.68478,8.30153],[-75.69831,8.3039],[-75.69812,8.30758],[-75.69943,8.31109],[-75.70482,8.31493],[-75.70792,8.30894],[-75.70972,8.30845],[-75.70966,8.30274],[-75.71143,8.29646],[-75.70996,8.29576],[-75.70976,8.29189],[-75.72888,8.29432],[-75.73542,8.29319],[-75.73629,8.28909],[-75.73984,8.2871],[-75.74665,8.29403],[-75.7489,8.29248],[-75.7535,8.28483],[-75.75886,8.28742],[-75.75922,8.29607],[-75.76937,8.2988],[-75.7744,8.30352],[-75.77456,8.30599],[-75.77736,8.30905],[-75.79284,8.30273],[-75.79684,8.31346],[-75.80145,8.31489],[-75.8055,8.31842],[-75.80941,8.32038],[-75.81347,8.31688],[-75.81632,8.31677],[-75.81741,8.3162],[-75.81735,8.31537],[-75.81817,8.31585],[-75.81787,8.31468],[-75.81845,8.31515],[-75.81869,8.31414],[-75.81964,8.31391],[-75.82004,8.3119],[-75.82092,8.31167],[-75.81981,8.30786],[-75.82085,8.30692],[-75.82042,8.30539],[-75.82161,8.30549],[-75.82152,8.30429],[-75.82221,8.30437],[-75.82279,8.30298],[-75.82476,8.30279],[-75.82622,8.29939],[-75.82827,8.29775],[-75.82882,8.29457],[-75.82981,8.29472],[-75.8301,8.29238],[-75.82831,8.29113],[-75.82702,8.2884],[-75.82742,8.28609],[-75.82928,8.28397],[-75.8286,8.28303],[-75.82936,8.28278],[-75.82922,8.28046],[-75.83322,8.27762],[-75.83626,8.27321],[-75.83775,8.27299],[-75.83886,8.2755],[-75.84659,8.27294],[-75.84667,8.2694],[-75.85263,8.27411],[-75.85342,8.27176],[-75.86557,8.27262],[-75.86797,8.27558],[-75.87069,8.27364],[-75.87148,8.28026],[-75.87085,8.28305],[-75.87238,8.29131],[-75.87231,8.29832],[-75.87073,8.30568],[-75.87188,8.31157],[-75.87191,8.31707],[-75.87805,8.31647],[-75.87817,8.31984],[-75.88238,8.31957],[-75.88286,8.3182],[-75.8879,8.32339],[-75.89105,8.32394],[-75.89104,8.32794],[-75.89775,8.32659],[-75.89993,8.3252],[-75.91582,8.32708],[-75.9697,8.32889],[-75.96974,8.33589],[-75.97674,8.33595],[-75.9778,8.33182],[-75.97449,8.3302],[-75.97561,8.32877],[-76.06336,8.33234],[-76.06052,8.3354],[-76.05985,8.33729],[-76.05971,8.33924],[-76.06127,8.34268],[-76.06083,8.3443],[-76.05947,8.34581],[-76.0562,8.34691],[-76.0545,8.34834],[-76.05397,8.34994],[-76.05456,8.35139],[-76.06159,8.35295],[-76.06237,8.35415],[-76.06329,8.35338],[-76.06369,8.35126],[-76.06772,8.35015],[-76.07301,8.34734],[-76.07496,8.34475],[-76.07838,8.34407],[-76.08148,8.34542],[-76.08867,8.35423],[-76.08705,8.35596],[-76.08788,8.35764],[-76.0908,8.3586],[-76.09118,8.35983],[-76.08998,8.36096],[-76.08822,8.36057],[-76.08975,8.36235],[-76.09016,8.36484],[-76.08708,8.3659],[-76.08661,8.36813],[-76.08548,8.36806],[-76.08535,8.36882],[-76.08671,8.37065],[-76.08881,8.37142],[-76.08995,8.37525],[-76.09221,8.37592],[-76.09344,8.37747],[-76.09425,8.37632],[-76.09629,8.37586],[-76.09835,8.3785],[-76.09964,8.38245],[-76.10228,8.3823],[-76.10562,8.38431],[-76.107,8.38623],[-76.10989,8.38702],[-76.11347,8.39135],[-76.11526,8.39087],[-76.11908,8.3915],[-76.12344,8.39397],[-76.12614,8.39416],[-76.12819,8.39355],[-76.12894,8.38972],[-76.13456,8.38578],[-76.13494,8.38312],[-76.13869,8.38079],[-76.1408,8.38077],[-76.14273,8.38176],[-76.14755,8.38109],[-76.14783,8.38342],[-76.14946,8.38486],[-76.15463,8.38088],[-76.15849,8.38143],[-76.15993,8.37982],[-76.16138,8.38075],[-76.16554,8.38062],[-76.16734,8.38418],[-76.16903,8.3943],[-76.17247,8.39554],[-76.17247,8.65046],[-76.16602,8.65133],[-76.16576,8.64864],[-76.16033,8.65084],[-76.16039,8.65445],[-76.16158,8.65501],[-76.1625,8.65315],[-76.16658,8.65471],[-76.1638,8.65642],[-76.16769,8.65832],[-76.16658,8.66385],[-76.1678,8.6648],[-76.16567,8.66481],[-76.16438,8.67475],[-76.16526,8.67871],[-76.16682,8.68067],[-76.16426,8.6808],[-76.15965,8.67941],[-76.15885,8.68054],[-76.16128,8.68703],[-76.15412,8.68993],[-76.15347,8.68854],[-76.15187,8.68903],[-76.15148,8.688],[-76.15106,8.68127],[-76.14988,8.67864],[-76.15134,8.67721],[-76.15009,8.67332],[-76.14761,8.67359],[-76.1472,8.6763],[-76.14487,8.6781],[-76.1427,8.68324],[-76.14317,8.68865],[-76.13834,8.69076],[-76.13517,8.69683],[-76.1353,8.6986],[-76.13904,8.70228],[-76.13845,8.70302],[-76.14007,8.70485],[-76.13665,8.70723],[-76.13837,8.70906],[-76.13722,8.7128],[-76.13825,8.71402],[-76.13773,8.71537],[-76.13834,8.71625],[-76.13701,8.71728],[-76.13805,8.72186],[-76.14297,8.7218],[-76.14235,8.72348],[-76.14394,8.72281],[-76.14,8.72913],[-76.1383,8.73597],[-76.13371,8.73582],[-76.13191,8.73478],[-76.12806,8.73528],[-76.1276,8.7287],[-76.12982,8.72364],[-76.11985,8.72237],[-76.11823,8.72784],[-76.12191,8.72828],[-76.12127,8.73066],[-76.11664,8.73506],[-76.11651,8.74047],[-76.1197,8.74033],[-76.12203,8.75044],[-76.12532,8.74955],[-76.12636,8.74996],[-76.12557,8.7509],[-76.12646,8.75098],[-76.12512,8.75311],[-76.1244,8.75284],[-76.12464,8.75358],[-76.12211,8.75232],[-76.11609,8.75467],[-76.1173,8.75805],[-76.11721,8.76027],[-76.12123,8.76073],[-76.12299,8.76211],[-76.12059,8.7668],[-76.12707,8.76845],[-76.12444,8.77347],[-76.12578,8.77409],[-76.12577,8.77654],[-76.12901,8.78099],[-76.13247,8.78886],[-76.13492,8.78845],[-76.1385,8.7949],[-76.14322,8.7937],[-76.14538,8.79783],[-76.14333,8.80216],[-76.14073,8.80239],[-76.14057,8.80717],[-76.14067,8.80855],[-76.14278,8.80813],[-76.14571,8.81281],[-76.14606,8.81481],[-76.14482,8.81551],[-76.1456,8.81753],[-76.14045,8.8224],[-76.13805,8.827],[-76.14513,8.8349],[-76.14648,8.83773],[-76.14355,8.83969],[-76.14271,8.85632],[-76.13949,8.85835],[-76.13725,8.85806],[-76.13686,8.85874],[-76.13751,8.86507],[-76.13303,8.86572],[-76.133,8.86704],[-76.12964,8.86579],[-76.12623,8.86768],[-76.12484,8.86488],[-76.12321,8.86357],[-76.12345,8.86138],[-76.12224,8.8602],[-76.11747,8.86181],[-76.11911,8.86677],[-76.1188,8.86822],[-76.11736,8.8691],[-76.11755,8.87215],[-76.11963,8.87394],[-76.11296,8.87986],[-76.11908,8.88431],[-76.11974,8.88289],[-76.12103,8.88384],[-76.11863,8.88722],[-76.11828,8.88902],[-76.1234,8.89015],[-76.12686,8.89206],[-76.12799,8.89118],[-76.12783,8.89336],[-76.13264,8.89165],[-76.13587,8.89161],[-76.13697,8.89429],[-76.13685,8.89652],[-76.14478,8.8939],[-76.14581,8.89739],[-76.1477,8.89697],[-76.14796,8.89858],[-76.1501,8.89732],[-76.14993,8.89445],[-76.15317,8.89211],[-76.15412,8.89223],[-76.15301,8.89329],[-76.15299,8.89428],[-76.1539,8.89459],[-76.15618,8.89316],[-76.15599,8.89187],[-76.15819,8.89165],[-76.16146,8.89163],[-76.1618,8.89262],[-76.16522,8.89297],[-76.16549,8.89362],[-76.16614,8.89292],[-76.16753,8.89311],[-76.17247,8.8949],[-76.17247,8.92454],[-76.17086,8.92526]]]}},
{"type":"Feature","properties":{"id":2,"name":"Canalete"},"geometry":{"type":"MultiPolygon","coordinates":[[[[-76.17247,8.80773],[-76.16866,8.80716],[-76.16475,8.80841],[-76.164,8.80648],[-76.16151,8.80664],[-76.15638,8.80469],[-76.15536,8.80516],[-76.15069,8.8022],[-76.14874,8.80391],[-76.14455,8.7985],[-76.14538,8.79783],[-76.14322,8.7937],[-76.1385,8.7949],[-76.13492,8.78845],[-76.13226,8.78856],[-76.12901,8.78099],[-76.12577,8.77654],[-76.12578,8.77409],[-76.12444,8.77347],[-76.12707,8.76845],[-76.12059,8.7668],[-76.12299,8.76211],[-76.12123,8.76073],[-76.11721,8.76027],[-76.1173,8.75805],[-76.11609,8.75467],[-76.12211,8.75232],[-76.12464,8.75358],[-76.1244,8.75284],[-76.12512,8.75311],[-76.12646,8.75098],[-76.12557,8.7509],[-76.12636,8.74996],[-76.12532,8.74955],[-76.12203,8.75044],[-76.1197,8.74033],[-76.11651,8.74047],[-76.11664,8.73506],[-76.12127,8.73066],[-76.12191,8.72828],[-76.11823,8.72784],[-76.11985,8.72237],[-76.12982,8.72364],[-76.1276,8.7287],[-76.12806,8.73528],[-76.13191,8.73478],[-76.13371,8.73582],[-76.1383,8.73597],[-76.14,8.72913],[-76.14394,8.72281],[-76.14235,8.72348],[-76.14297,8.7218],[-76.13805,8.72186],[-76.13701,8.71728],[-76.13834,8.71625],[-76.13773,8.71537],[-76.13825,8.71402],[-76.13722,8.7128],[-76.13837,8.70906],[-76.13665,8.70723],[-76.14007,8.70485],[-76.13845,8.70302],[-76.13904,8.70228],[-76.1353,8.6986],[-76.13514,8.69699],[-76.13834,8.69076],[-76.14317,8.68865],[-76.1427,8.68324],[-76.14487,8.6781],[-76.1472,8.6763],[-76.14761,8.67359],[-76.15009,8.67332],[-76.15134,8.67721],[-76.14988,8.67864],[-76.15106,8.68127],[-76.15148,8.688],[-76.15187,8.68903],[-76.15347,8.68854],[-76.15412,8.68993],[-76.16128,8.68703],[-76.15885,8.68054],[-76.15965,8.67941],[-76.16426,8.6808],[-76.16682,8.68067],[-76.16526,8.67871],[-76.16438,8.67475],[-76.16567,8.66481],[-76.1678,8.6648],[-76.16658,8.66385],[-76.16769,8.65832],[-76.1638,8.65642],[-76.16658,8.65471],[-76.1625,8.65315],[-76.16158,8.65501],[-76.16039,8.65445],[-76.16033,8.65084],[-76.16576,8.64864],[-76.16602,8.65133],[-76.17247,8.65046],[-76.17247,8.80773]]],[[[-76.17247,8.64769],[-76.17207,8.64701],[-76.17247,8.64667],[-76.17247,8.64769]]]]}},
{"type":"Feature","properties":{"id":3,"name":"Cereté"},"geometry":{"type":"Polygon","coordinates":[[[-75.79299,8.79872],[-75.79006,8.80351],[-75.79069,8.80396],[-75.79063,8.80628],[-75.79761,8.80639],[-75.80162,8.81523],[-75.80298,8.81472],[-75.80624,8.82058],[-75.81073,8.82303],[-75.8107,8.82485],[-75.81663,8.82355],[-75.81946,8.82445],[-75.8215,8.82086],[-75.8329,8.83326],[-75.83302,8.83517],[-75.8345,8.83593],[-75.83981,8.82829],[-75.84292,8.83118],[-75.84227,8.8319],[-75.84392,8.83273],[-75.84367,8.83432],[-75.84462,8.8357],[-75.84207,8.84014],[-75.8437,8.83971],[-75.84508,8.83588],[-75.84478,8.83317],[-75.84157,8.82896],[-75.84219,8.82662],[-75.84494,8.82641],[-75.85088,8.83119],[-75.85282,8.83181],[-75.85307,8.83358],[-75.85553,8.83659],[-75.85571,8.84207],[-75.85747,8.84602],[-75.85562,8.84886],[-75.85528,8.85222],[-75.85201,8.85251],[-75.85103,8.85415],[-75.8539,8.85611],[-75.85415,8.85716],[-75.86867,8.86487],[-75.87742,8.87556],[-75.87856,8.87423],[-75.87982,8.86046],[-75.8839,8.86241],[-75.89263,8.8624],[-75.89354,8.86467],[-75.89896,8.87133],[-75.90557,8.86972],[-75.90846,8.87476],[-75.90643,8.87597],[-75.90764,8.87804],[-75.9092,8.87792],[-75.91013,8.87681],[-75.91086,8.87773],[-75.91096,8.87613],[-75.91706,8.87492],[-75.92089,8.88073],[-75.92764,8.88356],[-75.93397,8.88794],[-75.93653,8.87939],[-75.94023,8.87998],[-75.93892,8.88317],[-75.94176,8.88403],[-75.94218,8.88618],[-75.94469,8.88719],[-75.94544,8.88528],[-75.94663,8.8856],[-75.94548,8.88242],[-75.94691,8.88099],[-75.94972,8.8799],[-75.9526,8.88415],[-75.95171,8.88604],[-75.94774,8.88575],[-75.94637,8.88957],[-75.94441,8.89163],[-75.94918,8.89157],[-75.95339,8.88949],[-75.95367,8.89026],[-75.95563,8.88948],[-75.95593,8.89044],[-75.96139,8.88905],[-75.96177,8.88977],[-75.96393,8.88924],[-75.96429,8.89013],[-75.967,8.88914],[-75.96839,8.89122],[-75.97157,8.89006],[-75.97535,8.89109],[-75.98022,8.88834],[-75.98595,8.89223],[-75.98233,8.89707],[-75.98392,8.8975],[-75.98826,8.8918],[-75.99121,8.89374],[-75.99535,8.89488],[-75.99546,8.89825],[-75.99445,8.89832],[-75.99365,8.90145],[-75.99506,8.90158],[-75.99493,8.90231],[-75.99674,8.90295],[-75.99679,8.90242],[-76.00214,8.90264],[-76.00222,8.90355],[-76.00461,8.90373],[-76.00472,8.90553],[-76.00727,8.90563],[-76.00721,8.90653],[-76.01306,8.90783],[-76.01148,8.91322],[-76.0125,8.91322],[-76.01223,8.91548],[-76.01623,8.91852],[-76.01308,8.92036],[-76.01389,8.92137],[-76.01471,8.92069],[-76.01469,8.92442],[-76.01671,8.92552],[-76.01704,8.93004],[-76.01977,8.93103],[-76.0163,8.93568],[-76.01969,8.93811],[-76.02699,8.94003],[-76.02819,8.9443],[-76.02673,8.9457],[-76.02797,8.94809],[-76.03294,8.94958],[-76.03418,8.94842],[-76.03661,8.95066],[-76.03869,8.95103],[-76.04285,8.94799],[-76.04457,8.94845],[-76.04551,8.94665],[-76.0467,8.94692],[-76.04743,8.94576],[-76.0506,8.94701],[-76.05164,8.94823],[-76.04512,8.95442],[-76.04363,8.95298],[-76.04265,8.95538],[-76.0399,8.95312],[-76.03773,8.95591],[-76.03266,8.9537],[-76.0315,8.95199],[-76.02877,8.95676],[-76.028,8.95991],[-76.02534,8.95804],[-76.02304,8.95949],[-76.02135,8.9474],[-76.02004,8.9477],[-76.01832,8.94676],[-76.01462,8.95248],[-76.01239,8.95356],[-76.01036,8.95252],[-76.00778,8.95265],[-76.00164,8.9568],[-76.00076,8.96012],[-75.99444,8.95806],[-75.98712,8.95715],[-75.98654,8.95675],[-75.98843,8.95129],[-75.98626,8.94996],[-75.98547,8.95113],[-75.98223,8.95054],[-75.98237,8.94872],[-75.97989,8.94856],[-75.97686,8.94969],[-75.96976,8.94854],[-75.9675,8.9441],[-75.96014,8.9439],[-75.95882,8.94474],[-75.95953,8.94063],[-75.95903,8.93216],[-75.95726,8.93371],[-75.95649,8.93043],[-75.95441,8.93196],[-75.95072,8.93251],[-75.94222,8.92794],[-75.94347,8.92774],[-75.94536,8.92411],[-75.9434,8.92327],[-75.94383,8.92194],[-75.93357,8.91957],[-75.93452,8.91512],[-75.9264,8.91447],[-75.9278,8.91301],[-75.92733,8.9084],[-75.91786,8.90798],[-75.91785,8.90996],[-75.91202,8.91107],[-75.90664,8.90954],[-75.90511,8.91223],[-75.90225,8.90826],[-75.90061,8.91287],[-75.89955,8.91273],[-75.89905,8.91558],[-75.89633,8.91507],[-75.89246,8.91559],[-75.89163,8.91626],[-75.89191,8.91823],[-75.8912,8.91927],[-75.88835,8.91799],[-75.88282,8.91236],[-75.8812,8.91336],[-75.882,8.91377],[-75.88073,8.91523],[-75.88031,8.91728],[-75.87271,8.91566],[-75.87043,8.91397],[-75.86874,8.91644],[-75.8632,8.91597],[-75.86229,8.91501],[-75.85604,8.91581],[-75.85418,8.91767],[-75.85158,8.91788],[-75.85434,8.91871],[-75.85629,8.92047],[-75.85099,8.91923],[-75.84791,8.91711],[-75.8479,8.913],[-75.84277,8.90594],[-75.83874,8.90831],[-75.83493,8.90569],[-75.8277,8.9043],[-75.82544,8.90568],[-75.82756,8.90886],[-75.82727,8.91071],[-75.82529,8.91096],[-75.82341,8.90763],[-75.82008,8.92166],[-75.81713,8.92177],[-75.81585,8.92103],[-75.81108,8.92623],[-75.81163,8.92724],[-75.80779,8.93028],[-75.81319,8.94389],[-75.81201,8.9449],[-75.80636,8.94209],[-75.77675,8.94014],[-75.77375,8.94285],[-75.76775,8.94473],[-75.76722,8.94902],[-75.76578,8.95038],[-75.76353,8.95102],[-75.7637,8.95703],[-75.76258,8.95951],[-75.76509,8.96133],[-75.7655,8.96468],[-75.7641,8.96616],[-75.76519,8.96817],[-75.76557,8.97141],[-75.76283,8.97075],[-75.76162,8.97428],[-75.75774,8.97813],[-75.75552,8.97588],[-75.75363,8.9751],[-75.74841,8.97599],[-75.74615,8.9744],[-75.73435,8.97716],[-75.73377,8.97427],[-75.7267,8.97574],[-75.72657,8.9744],[-75.72518,8.97389],[-75.72333,8.97634],[-75.71789,8.97528],[-75.71813,8.97339],[-75.71515,8.96921],[-75.72248,8.96595],[-75.72924,8.96177],[-75.73397,8.95531],[-75.72725,8.95191],[-75.72812,8.94958],[-75.72108,8.94641],[-75.71653,8.94827],[-75.71369,8.94708],[-75.71207,8.94833],[-75.70563,8.94914],[-75.7053,8.94432],[-75.70902,8.93574],[-75.71281,8.93456],[-75.72307,8.91495],[-75.73148,8.91539],[-75.7447,8.89141],[-75.74369,8.88661],[-75.726,8.88481],[-75.7275,8.88109],[-75.72778,8.87235],[-75.72837,8.87237],[-75.72854,8.87121],[-75.72801,8.86895],[-75.7245,8.86303],[-75.72237,8.8647],[-75.71809,8.86109],[-75.72638,8.85713],[-75.72454,8.84909],[-75.72911,8.8501],[-75.73492,8.84662],[-75.73649,8.85139],[-75.74386,8.84909],[-75.74512,8.84688],[-75.74333,8.84359],[-75.74475,8.84155],[-75.74399,8.84193],[-75.74249,8.8409],[-75.74327,8.83927],[-75.74019,8.83828],[-75.74285,8.83606],[-75.74218,8.8348],[-75.74291,8.82907],[-75.7503,8.81749],[-75.74595,8.80933],[-75.74382,8.80883],[-75.77211,8.80056],[-75.76375,8.79985],[-75.76405,8.79715],[-75.76837,8.79021],[-75.76919,8.79045],[-75.76857,8.79183],[-75.76932,8.79248],[-75.77038,8.79314],[-75.7717,8.79227],[-75.77248,8.7931],[-75.77404,8.78891],[-75.77624,8.78591],[-75.78244,8.79207],[-75.7844,8.79167],[-75.78415,8.79412],[-75.78537,8.79429],[-75.78571,8.79116],[-75.78611,8.79273],[-75.78737,8.79145],[-75.78732,8.7928],[-75.79299,8.79872]]]}},
{"type":"Feature","properties":{"id":4,"name":"Chimá"},"geometry":{"type":"Polygon","coordinates":[[[-75.60126,9.04127],[-75.60352,9.04242],[-75.60761,9.04218],[-75.60802,9.04112],[-75.61008,9.04222],[-75.61393,9.04064],[-75.61513,9.04167],[-75.61657,9.03938],[-75.61845,9.03838],[-75.61989,9.03509],[-75.62717,9.03112],[-75.62568,9.02997],[-75.62563,9.02888],[-75.63351,9.02366],[-75.63427,9.02429],[-75.63672,9.02153],[-75.63893,9.02262],[-75.63889,9.02352],[-75.64163,9.0207],[-75.64384,9.02152],[-75.64605,9.01761],[-75.65072,9.01545],[-75.65446,9.0195],[-75.65676,9.01938],[-75.66232,9.01533],[-75.66493,9.01731],[-75.67036,9.00883],[-75.67415,9.00917],[-75.6753,9.0117],[-75.68436,9.01197],[-75.68483,9.00174],[-75.68832,8.99795],[-75.69177,8.99753],[-75.69653,8.99564],[-75.69967,8.9982],[-75.70396,8.99151],[-75.70767,8.98329],[-75.71088,8.98386],[-75.71021,8.98536],[-75.71476,8.98693],[-75.71504,8.98624],[-75.71661,8.98664],[-75.71687,8.98595],[-75.72145,8.98657],[-75.72162,8.98895],[-75.72387,8.989],[-75.72429,8.99103],[-75.72553,8.99129],[-75.72636,8.99306],[-75.72788,8.99386],[-75.72448,8.99667],[-75.7252,8.99715],[-75.7271,8.99599],[-75.7259,8.99696],[-75.72591,8.99845],[-75.72519,8.99752],[-75.7207,8.99685],[-75.71971,8.99739],[-75.71958,8.99865],[-75.72196,9.00293],[-75.72286,9.00761],[-75.72051,9.01254],[-75.72366,9.0162],[-75.72075,9.01765],[-75.7206,9.01852],[-75.71986,9.0183],[-75.71948,9.01983],[-75.72206,9.02276],[-75.72067,9.02544],[-75.72233,9.02611],[-75.72178,9.03316],[-75.72531,9.03774],[-75.72202,9.05187],[-75.72701,9.05365],[-75.72649,9.0573],[-75.72313,9.06572],[-75.72422,9.06887],[-75.72762,9.06808],[-75.72636,9.07188],[-75.72563,9.07173],[-75.72574,9.07323],[-75.72411,9.07453],[-75.72521,9.08109],[-75.72609,9.08258],[-75.73002,9.08484],[-75.72906,9.08717],[-75.73003,9.08866],[-75.73099,9.08857],[-75.73231,9.09204],[-75.7331,9.09164],[-75.73303,9.09363],[-75.73566,9.09697],[-75.7352,9.10141],[-75.73786,9.1031],[-75.73829,9.10457],[-75.73705,9.10626],[-75.73695,9.10819],[-75.73806,9.1117],[-75.74427,9.12008],[-75.74724,9.12256],[-75.74841,9.12492],[-75.74831,9.13214],[-75.73101,9.14139],[-75.71163,9.15821],[-75.70653,9.15828],[-75.70417,9.15906],[-75.7012,9.15682],[-75.70287,9.15511],[-75.70171,9.15336],[-75.70026,9.15271],[-75.69979,9.15131],[-75.68834,9.16245],[-75.68769,9.16168],[-75.66827,9.19812],[-75.65702,9.20463],[-75.65626,9.20717],[-75.64779,9.20945],[-75.63706,9.2094],[-75.63778,9.20491],[-75.63436,9.20509],[-75.63301,9.20854],[-75.62856,9.20866],[-75.62702,9.21294],[-75.62322,9.2126],[-75.6225,9.21841],[-75.61879,9.22439],[-75.61654,9.23146],[-75.61362,9.23101],[-75.60689,9.23274],[-75.60646,9.23472],[-75.6027,9.23931],[-75.60148,9.2381],[-75.60054,9.2387],[-75.60054,9.04215],[-75.60126,9.04127]]]}},
{"type":"Feature","properties":{"id":5,"name":"Cienaga De Oro"},"geometry":{"type":"MultiPolygon","coordinates":[[[[-75.60098,8.74518],[-75.60387,8.74542],[-75.60792,8.74819],[-75.60565,8.75206],[-75.60557,8.75404],[-75.60725,8.75506],[-75.60922,8.75469],[-75.60855,8.75115],[-75.61182,8.75104],[-75.61131,8.75617],[-75.61401,8.75679],[-75.61519,8.7547],[-75.61407,8.75453],[-75.61429,8.75282],[-75.61998,8.7519],[-75.62185,8.75291],[-75.62326,8.75505],[-75.62195,8.75605],[-75.62235,8.75748],[-75.62127,8.761],[-75.62191,8.76219],[-75.61929,8.76419],[-75.62013,8.76659],[-75.62292,8.76527],[-75.62419,8.76791],[-75.63001,8.77444],[-75.63181,8.77453],[-75.63226,8.77352],[-75.63636,8.77347],[-75.63638,8.77459],[-75.63906,8.77456],[-75.63695,8.77854],[-75.63631,8.78246],[-75.63193,8.78374],[-75.63217,8.7875],[-75.63294,8.78815],[-75.63442,8.79469],[-75.63698,8.79409],[-75.63695,8.79632],[-75.6356,8.7979],[-75.63637,8.80116],[-75.63829,8.80115],[-75.63902,8.79894],[-75.64503,8.80094],[-75.64549,8.80298],[-75.65248,8.80346],[-75.65484,8.80773],[-75.65519,8.81004],[-75.65783,8.80798],[-75.66016,8.80729],[-75.66432,8.81636],[-75.66721,8.81573],[-75.66988,8.8187],[-75.67325,8.82747],[-75.68389,8.83485],[-75.6825,8.83636],[-75.69769,8.83727],[-75.69936,8.83542],[-75.6997,8.83123],[-75.7016,8.83],[-75.70469,8.83007],[-75.71101,8.83535],[-75.70218,8.84323],[-75.71589,8.86184],[-75.71809,8.86109],[-75.72237,8.8647],[-75.7245,8.86303],[-75.72686,8.86694],[-75.72854,8.87121],[-75.72837,8.87237],[-75.72778,8.87235],[-75.7275,8.88109],[-75.726,8.88481],[-75.74369,8.88661],[-75.7447,8.89141],[-75.73148,8.91539],[-75.72307,8.91495],[-75.71281,8.93456],[-75.70902,8.93574],[-75.70623,8.94193],[-75.70525,8.94482],[-75.70563,8.94914],[-75.71207,8.94833],[-75.71369,8.94708],[-75.71653,8.94827],[-75.72108,8.94641],[-75.72812,8.94958],[-75.72725,8.95191],[-75.73397,8.95531],[-75.72924,8.96177],[-75.72248,8.96595],[-75.71515,8.96921],[-75.71813,8.97339],[-75.71796,8.97471],[-75.7037,8.97074],[-75.70215,8.97173],[-75.7007,8.9778],[-75.69908,8.98063],[-75.70343,8.97834],[-75.70261,8.98119],[-75.70503,8.98196],[-75.7053,8.98105],[-75.70699,8.9814],[-75.70822,8.98181],[-75.70784,8.98253],[-75.71133,8.98325],[-75.71088,8.98386],[-75.70767,8.98329],[-75.70396,8.99151],[-75.69967,8.9982],[-75.69653,8.99564],[-75.68754,8.99852],[-75.68483,9.00174],[-75.68436,9.01197],[-75.6753,9.0117],[-75.67415,9.00917],[-75.67036,9.00883],[-75.66493,9.01731],[-75.66232,9.01533],[-75.65676,9.01938],[-75.65446,9.0195],[-75.65072,9.01545],[-75.64605,9.01761],[-75.64384,9.02152],[-75.64163,9.0207],[-75.63889,9.02352],[-75.63893,9.02262],[-75.63672,9.02153],[-75.63427,9.02429],[-75.63351,9.02366],[-75.62563,9.02888],[-75.62568,9.02997],[-75.62717,9.03112],[-75.61989,9.03509],[-75.61845,9.03838],[-75.61657,9.03938],[-75.61513,9.04167],[-75.61393,9.04064],[-75.61008,9.04222],[-75.60802,9.04112],[-75.60761,9.04218],[-75.60352,9.04242],[-75.60126,9.04127],[-75.60054,9.04215],[-75.60098,8.74518]]],[[[-75.60066,8.72177],[-75.60268,8.72263],[-75.60427,8.72117],[-75.60408,8.72537],[-75.61003,8.72869],[-75.60567,8.73467],[-75.60261,8.7329],[-75.60118,8.73484],[-75.60054,8.73448],[-75.60066,8.72177]]],[[[-75.60054,8.63958],[-75.60221,8.63902],[-75.60345,8.63997],[-75.60236,8.64145],[-75.60961,8.64471],[-75.61314,8.64738],[-75.60788,8.65165],[-75.60952,8.65276],[-75.61326,8.65173],[-75.61458,8.64978],[-75.61622,8.65057],[-75.61756,8.66098],[-75.61943,8.66325],[-75.61901,8.66687],[-75.62045,8.66862],[-75.62283,8.6677],[-75.62442,8.66855],[-75.62331,8.67195],[-75.61936,8.67098],[-75.61465,8.67428],[-75.61247,8.67786],[-75.6202,8.6829],[-75.61862,8.68776],[-75.61966,8.6886],[-75.61575,8.69092],[-75.61024,8.68865],[-75.61056,8.69212],[-75.61269,8.69352],[-75.61236,8.69882],[-75.61756,8.70249],[-75.61263,8.70551],[-75.61033,8.7003],[-75.60606,8.69955],[-75.60278,8.70287],[-75.60338,8.70663],[-75.60173,8.71094],[-75.60054,8.7102],[-75.60054,8.63958]]]]}},
{"type":"Feature","properties":{"id":6,"name":"Cotorra"},"geometry":{"type":"Polygon","coordinates":[[[-75.73976,9.11351],[-75.73806,9.1117],[-75.73695,9.10853],[-75.73703,9.1063],[-75.73828,9.1047],[-75.73794,9.10324],[-75.73516,9.10129],[-75.73569,9.09705],[-75.73303,9.09363],[-75.7331,9.09164],[-75.73231,9.09204],[-75.73099,9.08857],[-75.73003,9.08866],[-75.72906,9.08717],[-75.73002,9.08484],[-75.72533,9.08174],[-75.72411,9.07453],[-75.72574,9.07323],[-75.72563,9.07173],[-75.72636,9.07188],[-75.72671,9.06938],[-75.72835,9.06679],[-75.73045,9.06622],[-75.73133,9.06398],[-75.73472,9.06231],[-75.73524,9.0607],[-75.73855,9.05934],[-75.739,9.06009],[-75.73877,9.05909],[-75.73968,9.05806],[-75.74064,9.05895],[-75.73985,9.05646],[-75.74242,9.05387],[-75.74062,9.05112],[-75.739,9.05106],[-75.73922,9.04828],[-75.74145,9.04847],[-75.74205,9.04265],[-75.74414,9.04262],[-75.74531,9.03856],[-75.74377,9.03721],[-75.74445,9.03577],[-75.74403,9.03196],[-75.74466,9.03115],[-75.74359,9.02694],[-75.7448,9.02419],[-75.74726,9.02296],[-75.74847,9.02453],[-75.75978,9.03105],[-75.76041,9.02528],[-75.75937,9.02428],[-75.76155,9.02083],[-75.75925,9.01882],[-75.75951,9.01803],[-75.76038,9.01841],[-75.76153,9.01692],[-75.76426,9.01881],[-75.76583,9.01603],[-75.76526,9.01588],[-75.76573,9.01451],[-75.77064,9.01645],[-75.77158,9.01502],[-75.77992,9.01832],[-75.78002,9.0175],[-75.78265,9.01761],[-75.78073,9.01149],[-75.78338,9.00256],[-75.78598,9.00316],[-75.78569,9.00479],[-75.79106,9.00654],[-75.79277,9.00566],[-75.79269,9.00398],[-75.79464,9.00372],[-75.79598,9.00119],[-75.79928,9.00012],[-75.79944,9.00268],[-75.80131,9.00673],[-75.8043,9.00917],[-75.8058,9.01234],[-75.80936,9.00955],[-75.81102,9.01037],[-75.82087,9.00236],[-75.82284,9.00216],[-75.82325,9.00453],[-75.82811,9.00391],[-75.82953,9.00945],[-75.83014,9.00957],[-75.82813,9.03162],[-75.83206,9.03392],[-75.83316,9.03662],[-75.83044,9.03849],[-75.8316,9.03876],[-75.83095,9.03919],[-75.83176,9.04021],[-75.83787,9.04268],[-75.84353,9.04257],[-75.84215,9.04452],[-75.84233,9.04657],[-75.84357,9.05006],[-75.84605,9.05285],[-75.84533,9.05416],[-75.84222,9.05619],[-75.84189,9.05945],[-75.83846,9.06338],[-75.83779,9.0665],[-75.83311,9.06653],[-75.83048,9.06805],[-75.82913,9.06673],[-75.82994,9.06632],[-75.82784,9.06267],[-75.82884,9.06073],[-75.82486,9.05938],[-75.82311,9.06034],[-75.82022,9.05716],[-75.81719,9.05612],[-75.81727,9.05254],[-75.81417,9.05234],[-75.814,9.05179],[-75.81551,9.05126],[-75.81531,9.05044],[-75.81856,9.0505],[-75.81871,9.04848],[-75.8145,9.0473],[-75.81396,9.04623],[-75.80461,9.04894],[-75.79916,9.04824],[-75.79861,9.04906],[-75.79163,9.04936],[-75.79036,9.05124],[-75.78998,9.05437],[-75.78627,9.05356],[-75.78563,9.05756],[-75.78793,9.06068],[-75.78805,9.06312],[-75.78998,9.06541],[-75.78934,9.06797],[-75.79304,9.06988],[-75.79217,9.07751],[-75.7942,9.07949],[-75.79389,9.08076],[-75.79587,9.08302],[-75.79698,9.08317],[-75.79876,9.0831],[-75.80124,9.08132],[-75.80373,9.08503],[-75.80352,9.08642],[-75.79545,9.0957],[-75.79033,9.09952],[-75.77238,9.10787],[-75.76443,9.11233],[-75.77117,9.10898],[-75.77044,9.11078],[-75.77166,9.11068],[-75.77209,9.11212],[-75.76994,9.11357],[-75.7715,9.1148],[-75.77268,9.11395],[-75.77415,9.11521],[-75.77502,9.11438],[-75.77532,9.11545],[-75.77026,9.11543],[-75.76777,9.11395],[-75.76481,9.11531],[-75.76211,9.11456],[-75.76047,9.11544],[-75.75085,9.11501],[-75.74572,9.1114],[-75.74334,9.11088],[-75.74118,9.11325],[-75.73976,9.11351]]]}},
{"type":"Feature","properties":{"id":7,"name":"Lorica"},"geometry":{"type":"Polygon","coordinates":[[[-75.68838,9.16241],[-75.69979,9.15131],[-75.70026,9.15271],[-75.70171,9.15336],[-75.70287,9.15511],[-75.7012,9.15682],[-75.70417,9.15906],[-75.70653,9.15828],[-75.71163,9.15821],[-75.73101,9.14139],[-75.74831,9.13214],[-75.74824,9.12407],[-75.74427,9.12008],[-75.73979,9.11353],[-75.74128,9.11317],[-75.74334,9.11088],[-75.74572,9.1114],[-75.75085,9.11501],[-75.76047,9.11544],[-75.76211,9.11456],[-75.76481,9.11531],[-75.76777,9.11395],[-75.77026,9.11543],[-75.77532,9.11545],[-75.77502,9.11438],[-75.77415,9.11521],[-75.77268,9.11395],[-75.7715,9.1148],[-75.76994,9.11357],[-75.77209,9.11212],[-75.77166,9.11068],[-75.77044,9.11078],[-75.77117,9.10898],[-75.76443,9.11233],[-75.77363,9.10726],[-75.78869,9.10054],[-75.79617,9.09492],[-75.80393,9.0855],[-75.80124,9.08132],[-75.79876,9.0831],[-75.79587,9.08302],[-75.79389,9.08076],[-75.7942,9.07949],[-75.79221,9.07766],[-75.79304,9.06988],[-75.78934,9.06797],[-75.78998,9.06541],[-75.78805,9.06312],[-75.78793,9.06068],[-75.78559,9.05739],[-75.78627,9.05356],[-75.78998,9.05437],[-75.79036,9.05124],[-75.79163,9.04936],[-75.79861,9.04906],[-75.79916,9.04824],[-75.80461,9.04894],[-75.81396,9.04623],[-75.8145,9.0473],[-75.81871,9.04848],[-75.81856,9.0505],[-75.81531,9.05044],[-75.81551,9.05126],[-75.814,9.05179],[-75.81417,9.05234],[-75.81727,9.05254],[-75.81719,9.05612],[-75.82022,9.05716],[-75.82311,9.06034],[-75.82486,9.05938],[-75.82884,9.06073],[-75.82784,9.06267],[-75.82994,9.06632],[-75.82913,9.06673],[-75.83048,9.06805],[-75.83311,9.06653],[-75.83779,9.0665],[-75.83846,9.06338],[-75.84189,9.05945],[-75.84222,9.05619],[-75.84595,9.05332],[-75.84336,9.04969],[-75.84233,9.04657],[-75.84215,9.04452],[-75.84353,9.04257],[-75.84492,9.04319],[-75.84345,9.04517],[-75.84906,9.04509],[-75.84952,9.0425],[-75.85276,9.04245],[-75.85382,9.03999],[-75.86521,9.04342],[-75.86721,9.04064],[-75.87848,9.0453],[-75.8778,9.04624],[-75.87908,9.04867],[-75.87899,9.0539],[-75.88094,9.05404],[-75.88283,9.05001],[-75.88614,9.05211],[-75.88945,9.05216],[-75.88868,9.06065],[-75.88981,9.06084],[-75.89202,9.04676],[-75.89849,9.04744],[-75.89699,9.05149],[-75.8991,9.05265],[-75.89937,9.05131],[-75.90649,9.05311],[-75.90567,9.05559],[-75.9075,9.05626],[-75.90736,9.05833],[-75.91093,9.06134],[-75.90949,9.06882],[-75.91379,9.06937],[-75.91305,9.06807],[-75.91436,9.06139],[-75.92035,9.06507],[-75.92148,9.06208],[-75.92307,9.06138],[-75.92832,9.06294],[-75.92691,9.06562],[-75.92689,9.0731],[-75.93533,9.07248],[-75.93613,9.07171],[-75.93268,9.06478],[-75.93477,9.06355],[-75.93731,9.05959],[-75.9459,9.05541],[-75.95012,9.04966],[-75.95256,9.04831],[-75.95322,9.04652],[-75.95442,9.04609],[-75.9544,9.04366],[-75.95749,9.04403],[-75.95995,9.0425],[-75.96558,9.04236],[-75.96545,9.03916],[-75.96427,9.03676],[-75.96887,9.03348],[-75.96774,9.0313],[-75.96945,9.03144],[-75.96948,9.03006],[-75.9703,9.03048],[-75.97118,9.02841],[-75.97068,9.02766],[-75.97138,9.02766],[-75.97255,9.02503],[-75.97842,9.02789],[-75.98581,9.03],[-75.98553,9.02786],[-75.98734,9.02798],[-75.98904,9.03702],[-75.99392,9.03549],[-75.99281,9.03299],[-75.99399,9.03257],[-75.99392,9.02451],[-75.99483,9.0243],[-75.99584,9.02564],[-75.99525,9.02848],[-75.99742,9.03134],[-75.99939,9.03089],[-75.9996,9.02936],[-76.00436,9.03008],[-76.0092,9.02545],[-76.01342,9.02398],[-76.01596,9.02553],[-76.01599,9.02688],[-76.0193,9.02682],[-76.01986,9.026],[-76.02482,9.03109],[-76.02808,9.03114],[-76.02771,9.0301],[-76.02886,9.02801],[-76.03891,9.02817],[-76.04018,9.0292],[-76.04389,9.03394],[-76.04244,9.03443],[-76.043,9.03522],[-76.03973,9.03792],[-76.04008,9.03899],[-76.03669,9.03965],[-76.03467,9.04214],[-76.03938,9.04613],[-76.04327,9.04453],[-76.04808,9.04933],[-76.05308,9.0524],[-76.05443,9.05244],[-76.0541,9.06021],[-76.06636,9.06004],[-76.06627,9.05885],[-76.06802,9.05765],[-76.0701,9.05941],[-76.07576,9.05698],[-76.08185,9.06133],[-76.09356,9.05421],[-76.09373,9.05498],[-76.09651,9.05397],[-76.09787,9.05495],[-76.10023,9.05457],[-76.10134,9.05617],[-76.10352,9.05556],[-76.10421,9.0589],[-76.10587,9.05842],[-76.10614,9.05934],[-76.10746,9.05925],[-76.10854,9.06327],[-76.11032,9.06321],[-76.11061,9.06467],[-76.10787,9.06584],[-76.10854,9.06751],[-76.10918,9.06644],[-76.11089,9.06784],[-76.11303,9.06798],[-76.11556,9.07009],[-76.1165,9.06933],[-76.11635,9.07023],[-76.11718,9.0707],[-76.1168,9.07244],[-76.12053,9.06991],[-76.12051,9.071],[-76.1218,9.07191],[-76.1212,9.07411],[-76.11965,9.07471],[-76.12088,9.07484],[-76.12092,9.07625],[-76.12181,9.07638],[-76.12177,9.07826],[-76.12254,9.0786],[-76.12329,9.07765],[-76.12347,9.07897],[-76.12466,9.07961],[-76.12639,9.07896],[-76.12734,9.08201],[-76.12884,9.08344],[-76.13262,9.08089],[-76.13424,9.08166],[-76.13436,9.08283],[-76.13561,9.08283],[-76.138,9.08591],[-76.13853,9.08278],[-76.14391,9.07903],[-76.14483,9.07922],[-76.14527,9.08219],[-76.14718,9.08159],[-76.14951,9.08247],[-76.15067,9.08187],[-76.15425,9.08215],[-76.15388,9.08511],[-76.15172,9.08644],[-76.15109,9.08626],[-76.15163,9.0852],[-76.15097,9.08453],[-76.15007,9.086],[-76.149,9.08475],[-76.14765,9.08595],[-76.14526,9.08601],[-76.14499,9.08734],[-76.14625,9.08752],[-76.14632,9.08918],[-76.14709,9.08943],[-76.14643,9.09031],[-76.14549,9.08996],[-76.14511,9.09199],[-76.14415,9.09025],[-76.14326,9.09106],[-76.1436,9.09211],[-76.14133,9.09173],[-76.14032,9.09279],[-76.14008,9.09078],[-76.13899,9.09312],[-76.13681,9.09399],[-76.13611,9.09268],[-76.1351,9.0944],[-76.13442,9.09192],[-76.13333,9.09134],[-76.13047,9.09336],[-76.12934,9.09027],[-76.12542,9.09317],[-76.12513,9.09711],[-76.12634,9.09791],[-76.1233,9.0991],[-76.12235,9.10147],[-76.12007,9.10178],[-76.12056,9.10291],[-76.11786,9.10571],[-76.11694,9.10746],[-76.1175,9.10803],[-76.11527,9.11052],[-76.11563,9.11109],[-76.11385,9.11315],[-76.11275,9.11663],[-76.11414,9.1195],[-76.11295,9.12055],[-76.11467,9.12304],[-76.11515,9.12594],[-76.11332,9.1272],[-76.11262,9.13071],[-76.11116,9.13214],[-76.1122,9.13578],[-76.11519,9.13735],[-76.11602,9.13941],[-76.1154,9.1399],[-76.11595,9.1411],[-76.11528,9.14217],[-76.1155,9.14483],[-76.11428,9.1459],[-76.11419,9.14965],[-76.11353,9.15036],[-76.10651,9.15338],[-76.10435,9.15247],[-76.09776,9.15624],[-76.09256,9.16047],[-76.0887,9.15761],[-76.08747,9.15981],[-76.08354,9.162],[-76.08072,9.16517],[-76.07868,9.16394],[-76.07809,9.16211],[-76.07422,9.15995],[-76.07098,9.16051],[-76.06498,9.15844],[-76.06201,9.16027],[-76.05983,9.15953],[-76.05648,9.15991],[-76.05044,9.15774],[-76.0489,9.15929],[-76.04802,9.16161],[-76.04811,9.1663],[-76.04479,9.17065],[-76.04484,9.17504],[-76.04389,9.1765],[-76.04623,9.1803],[-76.04837,9.18133],[-76.04833,9.18285],[-76.05076,9.18659],[-76.05357,9.18849],[-76.0563,9.18798],[-76.05812,9.18964],[-76.06108,9.18962],[-76.06391,9.18822],[-76.06536,9.1884],[-76.06849,9.18458],[-76.07471,9.18793],[-76.06976,9.19528],[-76.07104,9.19901],[-76.05978,9.20253],[-76.05894,9.20002],[-76.05266,9.20344],[-76.0519,9.20213],[-76.01001,9.21712],[-76.00927,9.22842],[-75.99867,9.22746],[-75.99864,9.23067],[-76.00101,9.23934],[-75.99926,9.24129],[-75.99749,9.24185],[-75.99615,9.24437],[-75.99196,9.24424],[-75.98753,9.25371],[-75.97725,9.25262],[-75.97605,9.25609],[-75.97399,9.25572],[-75.97124,9.25927],[-75.97191,9.26103],[-75.96468,9.26294],[-75.96485,9.26442],[-75.96105,9.26408],[-75.95257,9.28045],[-75.95484,9.28168],[-75.953,9.28441],[-75.95138,9.28987],[-75.93635,9.302],[-75.93821,9.30415],[-75.93811,9.30516],[-75.93484,9.30846],[-75.92791,9.31171],[-75.9268,9.3094],[-75.92351,9.31224],[-75.92261,9.31177],[-75.92183,9.31425],[-75.92237,9.31618],[-75.92511,9.32072],[-75.92405,9.32293],[-75.92043,9.3245],[-75.91652,9.32474],[-75.91523,9.32362],[-75.91448,9.32103],[-75.90454,9.32177],[-75.90462,9.33461],[-75.90328,9.33823],[-75.90045,9.34009],[-75.89093,9.3439],[-75.88871,9.34336],[-75.88781,9.34195],[-75.88456,9.34177],[-75.88109,9.33915],[-75.87911,9.33865],[-75.86417,9.33727],[-75.85898,9.33008],[-75.85797,9.32456],[-75.8573,9.32406],[-75.85751,9.3183],[-75.85573,9.31606],[-75.85731,9.31315],[-75.8579,9.30438],[-75.85555,9.30076],[-75.85347,9.29911],[-75.84887,9.30198],[-75.84478,9.30228],[-75.84406,9.30014],[-75.84647,9.29614],[-75.84223,9.29178],[-75.83899,9.29425],[-75.84137,9.29984],[-75.83754,9.30309],[-75.83949,9.30517],[-75.83314,9.30911],[-75.83158,9.31147],[-75.82778,9.30995],[-75.8147,9.31302],[-75.81378,9.3098],[-75.8141,9.30765],[-75.80953,9.30924],[-75.80096,9.30092],[-75.80217,9.29819],[-75.80018,9.2966],[-75.79939,9.29336],[-75.80091,9.29004],[-75.79465,9.29036],[-75.79218,9.28743],[-75.79224,9.28374],[-75.78986,9.28474],[-75.78871,9.28617],[-75.78651,9.28669],[-75.78702,9.28774],[-75.7849,9.28818],[-75.78422,9.28937],[-75.78118,9.28873],[-75.7806,9.29036],[-75.77874,9.28948],[-75.78091,9.28524],[-75.77729,9.28394],[-75.77516,9.28171],[-75.77067,9.2829],[-75.7699,9.28165],[-75.77123,9.28092],[-75.77035,9.28008],[-75.7732,9.27734],[-75.77146,9.27608],[-75.77282,9.274],[-75.77136,9.27254],[-75.77167,9.26903],[-75.77061,9.26563],[-75.77372,9.26274],[-75.77492,9.25872],[-75.77035,9.25547],[-75.76906,9.25345],[-75.77077,9.24974],[-75.77685,9.24503],[-75.77405,9.24057],[-75.77505,9.24038],[-75.77488,9.23836],[-75.77265,9.22919],[-75.77709,9.22682],[-75.78153,9.22187],[-75.77722,9.21939],[-75.77631,9.21526],[-75.77473,9.21416],[-75.7699,9.214],[-75.76538,9.21196],[-75.76183,9.21301],[-75.76087,9.21061],[-75.75762,9.20758],[-75.75634,9.20736],[-75.75369,9.20839],[-75.75279,9.21357],[-75.75026,9.21605],[-75.74862,9.21552],[-75.74673,9.21312],[-75.74743,9.21127],[-75.7498,9.2091],[-75.7497,9.20736],[-75.74144,9.20639],[-75.73868,9.20798],[-75.73583,9.2143],[-75.73348,9.21504],[-75.72906,9.21401],[-75.72811,9.21445],[-75.72781,9.21866],[-75.72386,9.21822],[-75.71714,9.21381],[-75.71236,9.21647],[-75.70853,9.21628],[-75.70725,9.2137],[-75.70932,9.20894],[-75.70949,9.20562],[-75.70673,9.20512],[-75.70398,9.20738],[-75.70146,9.20395],[-75.7018,9.20192],[-75.70508,9.19899],[-75.70446,9.19041],[-75.70264,9.18965],[-75.69964,9.1898],[-75.69831,9.18857],[-75.69601,9.18384],[-75.69905,9.18051],[-75.6953,9.17649],[-75.69446,9.17606],[-75.69064,9.17842],[-75.68902,9.17857],[-75.68884,9.17765],[-75.69048,9.17547],[-75.68713,9.17456],[-75.68933,9.17238],[-75.68765,9.17057],[-75.68838,9.16241]]]}},
{"type":"Feature","properties":{"id":8,"name":"Los Córdobas"},"geometry":{"type":"Polygon","coordinates":[[[-76.17237,8.89483],[-76.16753,8.89311],[-76.16614,8.89292],[-76.16549,8.89362],[-76.16522,8.89297],[-76.1618,8.89262],[-76.16146,8.89163],[-76.15819,8.89165],[-76.15599,8.89187],[-76.15618,8.89316],[-76.1539,8.89459],[-76.15299,8.89428],[-76.15301,8.89329],[-76.15412,8.89223],[-76.15317,8.89211],[-76.14993,8.89445],[-76.1501,8.89732],[-76.14796,8.89858],[-76.1477,8.89697],[-76.14581,8.89739],[-76.14478,8.8939],[-76.13685,8.89652],[-76.13697,8.89429],[-76.13587,8.89161],[-76.13264,8.89165],[-76.12783,8.89336],[-76.12799,8.89118],[-76.12686,8.89206],[-76.1234,8.89015],[-76.11828,8.88902],[-76.11863,8.88722],[-76.12103,8.88384],[-76.11974,8.88289],[-76.11908,8.88431],[-76.11296,8.87986],[-76.11963,8.87394],[-76.11755,8.87215],[-76.11736,8.8691],[-76.1188,8.86822],[-76.11911,8.86677],[-76.11736,8.86188],[-76.12224,8.8602],[-76.12345,8.86138],[-76.12321,8.86357],[-76.12484,8.86488],[-76.12623,8.86768],[-76.12964,8.86579],[-76.133,8.86704],[-76.13303,8.86572],[-76.13751,8.86507],[-76.13667,8.85945],[-76.13725,8.85806],[-76.13949,8.85835],[-76.14271,8.85632],[-76.14355,8.83969],[-76.14644,8.83741],[-76.14092,8.82958],[-76.13805,8.827],[-76.14045,8.8224],[-76.1456,8.81753],[-76.14482,8.81551],[-76.14606,8.81481],[-76.14571,8.81281],[-76.14278,8.80813],[-76.14067,8.80855],[-76.14057,8.80717],[-76.14073,8.80239],[-76.14333,8.80216],[-76.1446,8.79857],[-76.14874,8.80391],[-76.15069,8.8022],[-76.15536,8.80516],[-76.15638,8.80469],[-76.16151,8.80664],[-76.164,8.80648],[-76.16475,8.80841],[-76.16866,8.80716],[-76.17247,8.80773],[-76.17237,8.89483]]]}},
{"type":"Feature","properties":{"id":9,"name":"Momil"},"geometry":{"type":"Polygon","coordinates":[[[-75.60124,9.23893],[-75.6007,9.23875],[-75.60148,9.2381],[-75.6027,9.23931],[-75.60646,9.23472],[-75.60689,9.23274],[-75.61362,9.23101],[-75.61654,9.23146],[-75.61879,9.22439],[-75.6225,9.21841],[-75.62322,9.2126],[-75.62702,9.21294],[-75.62856,9.20866],[-75.63301,9.20854],[-75.63436,9.20509],[-75.63778,9.20491],[-75.63706,9.2094],[-75.64768,9.20948],[-75.65626,9.20717],[-75.65702,9.20463],[-75.66827,9.19812],[-75.68769,9.16168],[-75.68854,9.16357],[-75.68765,9.17057],[-75.68933,9.17238],[-75.68709,9.17442],[-75.69052,9.17559],[-75.68882,9.17841],[-75.69064,9.17842],[-75.69446,9.17606],[-75.6953,9.17649],[-75.69905,9.18051],[-75.69601,9.18384],[-75.69831,9.18857],[-75.69923,9.18965],[-75.70309,9.18971],[-75.70468,9.19101],[-75.70508,9.19899],[-75.70169,9.20209],[-75.70162,9.20474],[-75.70398,9.20738],[-75.70723,9.20496],[-75.70907,9.20524],[-75.70971,9.2064],[-75.70725,9.2137],[-75.70871,9.21635],[-75.70256,9.225],[-75.69536,9.24868],[-75.69686,9.25639],[-75.69527,9.25698],[-75.69866,9.26257],[-75.69933,9.26588],[-75.70051,9.26505],[-75.70138,9.26803],[-75.69961,9.27947],[-75.69392,9.28584],[-75.69789,9.29202],[-75.69758,9.29368],[-75.6983,9.29545],[-75.69699,9.29551],[-75.69585,9.29442],[-75.69573,9.29657],[-75.69409,9.29917],[-75.68915,9.29666],[-75.68873,9.29744],[-75.69323,9.30041],[-75.69123,9.30385],[-75.68712,9.29979],[-75.68689,9.30357],[-75.68816,9.30679],[-75.69069,9.30884],[-75.69043,9.31012],[-75.69398,9.31057],[-75.69459,9.31152],[-75.69383,9.3138],[-75.69127,9.31268],[-75.69078,9.31399],[-75.68878,9.31397],[-75.6879,9.31475],[-75.68779,9.31336],[-75.68584,9.31301],[-75.68594,9.31429],[-75.68497,9.31443],[-75.68449,9.31618],[-75.68563,9.31675],[-75.6854,9.3173],[-75.68382,9.31825],[-75.681,9.31791],[-75.68027,9.32138],[-75.67232,9.33192],[-75.67134,9.33197],[-75.67139,9.3314],[-75.66961,9.33394],[-75.66495,9.33339],[-75.66464,9.33408],[-75.66201,9.3337],[-75.66161,9.33472],[-75.65902,9.33489],[-75.6538,9.33304],[-75.6487,9.33015],[-75.64267,9.33502],[-75.638,9.34569],[-75.63168,9.34929],[-75.62548,9.34954],[-75.62499,9.34703],[-75.61956,9.34045],[-75.61493,9.33772],[-75.61367,9.33129],[-75.61176,9.33133],[-75.60751,9.32703],[-75.60435,9.32763],[-75.60054,9.3258],[-75.60054,9.30018],[-75.60301,9.29941],[-75.60441,9.29591],[-75.60389,9.29255],[-75.6069,9.2877],[-75.60795,9.2838],[-75.60994,9.28297],[-75.60937,9.28099],[-75.60405,9.27989],[-75.60054,9.28005],[-75.60054,9.23944],[-75.60124,9.23893]]]}},
{"type":"Feature","properties":{"id":10,"name":"Montelíbano"},"geometry":{"type":"Polygon","coordinates":[[[-75.83626,8.13396],[-75.83678,8.13597],[-75.83498,8.14013],[-75.83692,8.14119],[-75.83696,8.14325],[-75.83543,8.14516],[-75.83541,8.1465],[-75.83388,8.14752],[-75.83191,8.14763],[-75.83105,8.14903],[-75.82853,8.14916],[-75.82585,8.15413],[-75.82113,8.15344],[-75.81934,8.15518],[-75.81949,8.157],[-75.81715,8.16093],[-75.81532,8.16063],[-75.81451,8.16267],[-75.81159,8.16463],[-75.80955,8.16502],[-75.80679,8.16348],[-75.80321,8.17211],[-75.80198,8.17178],[-75.80084,8.17043],[-75.80069,8.16823],[-75.79689,8.16607],[-75.79826,8.16413],[-75.79829,8.16067],[-75.80098,8.15303],[-75.79531,8.15159],[-75.79706,8.14429],[-75.7916,8.14132],[-75.79063,8.13762],[-75.79174,8.13654],[-75.78978,8.1337],[-75.83626,8.13396]]]}},
{"type":"Feature","properties":{"id":11,"name":"Moñitos"},"geometry":{"type":"Polygon","coordinates":[[[-76.17246,9.2102],[-76.16965,9.21431],[-76.16834,9.21972],[-76.1697,9.22259],[-76.16951,9.22557],[-76.17045,9.22633],[-76.16968,9.23031],[-76.1665,9.23256],[-76.14579,9.23965],[-76.13397,9.24542],[-76.1171,9.25694],[-76.10856,9.26473],[-76.10588,9.26814],[-76.10156,9.27602],[-76.10063,9.2843],[-76.10494,9.29285],[-76.10739,9.29333],[-76.10808,9.29465],[-76.1118,9.2952],[-76.11215,9.29628],[-76.11042,9.29995],[-76.10993,9.30438],[-76.10811,9.30716],[-76.09904,9.31393],[-76.097,9.31007],[-76.09356,9.30924],[-76.09309,9.30805],[-76.08809,9.30436],[-76.08698,9.30216],[-76.08808,9.30056],[-76.08334,9.29756],[-76.0839,9.2962],[-76.08259,9.29537],[-76.08251,9.29381],[-76.08126,9.29341],[-76.0812,9.28945],[-76.07919,9.28884],[-76.08011,9.2874],[-76.0754,9.2858],[-76.0763,9.28212],[-76.07582,9.28032],[-76.07723,9.27745],[-76.07593,9.27661],[-76.07589,9.27319],[-76.07111,9.27214],[-76.07092,9.27029],[-76.06811,9.26626],[-76.06702,9.26627],[-76.06631,9.26828],[-76.06559,9.26805],[-76.06616,9.26628],[-76.06102,9.26783],[-76.06196,9.25724],[-76.06367,9.25209],[-76.05934,9.24979],[-76.06333,9.24069],[-76.05271,9.24194],[-76.04717,9.23933],[-76.04626,9.24147],[-76.04371,9.24061],[-76.0418,9.23647],[-76.04184,9.2349],[-76.04004,9.23327],[-76.03893,9.2288],[-76.04501,9.2253],[-76.04759,9.22287],[-76.04891,9.22441],[-76.05005,9.22371],[-76.05123,9.22408],[-76.05486,9.21857],[-76.0606,9.21825],[-76.06265,9.21946],[-76.06394,9.21798],[-76.06463,9.21849],[-76.06541,9.21769],[-76.06847,9.21278],[-76.07038,9.20613],[-76.07104,9.19901],[-76.06976,9.19528],[-76.07471,9.18793],[-76.06849,9.18458],[-76.06536,9.1884],[-76.06391,9.18822],[-76.06077,9.18966],[-76.05812,9.18964],[-76.0563,9.18798],[-76.05357,9.18849],[-76.05076,9.18659],[-76.04833,9.18285],[-76.04837,9.18133],[-76.04623,9.1803],[-76.04374,9.17618],[-76.04484,9.17504],[-76.04479,9.17065],[-76.04811,9.1663],[-76.04802,9.16161],[-76.0489,9.15929],[-76.05044,9.15774],[-76.05648,9.15991],[-76.05983,9.15953],[-76.06201,9.16027],[-76.06498,9.15844],[-76.07098,9.16051],[-76.07422,9.15995],[-76.07809,9.16211],[-76.07868,9.16394],[-76.08072,9.16517],[-76.08354,9.162],[-76.08747,9.15981],[-76.0887,9.15761],[-76.09256,9.16047],[-76.09776,9.15624],[-76.10435,9.15247],[-76.10651,9.15338],[-76.11353,9.15036],[-76.11419,9.14965],[-76.11428,9.1459],[-76.1155,9.14483],[-76.11528,9.14217],[-76.11595,9.1411],[-76.1154,9.1399],[-76.116,9.13926],[-76.11519,9.13735],[-76.1122,9.13578],[-76.11117,9.13191],[-76.11262,9.13071],[-76.11332,9.1272],[-76.11515,9.12594],[-76.11467,9.12304],[-76.11295,9.12055],[-76.11414,9.1195],[-76.11275,9.11663],[-76.11385,9.11315],[-76.11563,9.11109],[-76.11527,9.11052],[-76.1175,9.10803],[-76.11694,9.10746],[-76.11786,9.10571],[-76.12056,9.10291],[-76.12031,9.10151],[-76.12235,9.10147],[-76.1233,9.0991],[-76.12634,9.09791],[-76.12513,9.09711],[-76.12502,9.09608],[-76.12542,9.09317],[-76.1266,9.09188],[-76.12977,9.09029],[-76.12962,9.09159],[-76.13075,9.09337],[-76.13333,9.09134],[-76.13442,9.09192],[-76.1351,9.0944],[-76.13611,9.09268],[-76.13681,9.09399],[-76.13899,9.09312],[-76.14008,9.09078],[-76.14032,9.09279],[-76.14133,9.09173],[-76.1436,9.09211],[-76.14326,9.09106],[-76.14415,9.09025],[-76.14511,9.09199],[-76.14549,9.08996],[-76.14643,9.09031],[-76.14709,9.08943],[-76.14632,9.08918],[-76.14625,9.08752],[-76.14499,9.08734],[-76.14514,9.08618],[-76.14784,9.08588],[-76.149,9.08475],[-76.15007,9.086],[-76.15118,9.08463],[-76.15142,9.08648],[-76.15437,9.08422],[-76.15522,9.08565],[-76.15745,9.08541],[-76.15707,9.08686],[-76.15814,9.08658],[-76.15845,9.08771],[-76.15742,9.08877],[-76.15948,9.0896],[-76.15891,9.09089],[-76.16027,9.09148],[-76.16042,9.09284],[-76.1616,9.09102],[-76.16315,9.09173],[-76.16302,9.09532],[-76.16476,9.09574],[-76.16418,9.09931],[-76.16519,9.0993],[-76.16562,9.10057],[-76.16457,9.10088],[-76.16619,9.10147],[-76.16724,9.10086],[-76.16778,9.09911],[-76.16871,9.09914],[-76.16891,9.1034],[-76.17034,9.10545],[-76.17064,9.10753],[-76.1714,9.10838],[-76.17247,9.10793],[-76.17246,9.2102]]]}},
{"type":"Feature","properties":{"id":12,"name":"Planeta Rica"},"geometry":{"type":"Polygon","coordinates":[[[-75.78978,8.1337],[-75.79174,8.13654],[-75.79063,8.13762],[-75.7916,8.14132],[-75.79706,8.14429],[-75.79531,8.15159],[-75.80098,8.15303],[-75.79829,8.16067],[-75.79826,8.16413],[-75.79689,8.16607],[-75.80039,8.16807],[-75.79528,8.17745],[-75.7936,8.18487],[-75.79037,8.18346],[-75.79056,8.18524],[-75.78753,8.19064],[-75.78581,8.19566],[-75.78602,8.19846],[-75.78295,8.20337],[-75.78027,8.2062],[-75.77851,8.20599],[-75.77445,8.2119],[-75.77506,8.21233],[-75.77421,8.2156],[-75.7725,8.21743],[-75.77017,8.22272],[-75.7671,8.22711],[-75.76274,8.223],[-75.75554,8.23154],[-75.75199,8.23802],[-75.75484,8.24014],[-75.75325,8.2534],[-75.75609,8.2525],[-75.75642,8.25371],[-75.7564,8.25811],[-75.75421,8.26308],[-75.75756,8.26391],[-75.75866,8.26599],[-75.76034,8.26495],[-75.76169,8.26515],[-75.76302,8.26701],[-75.76341,8.26651],[-75.76501,8.26708],[-75.76645,8.27127],[-75.76767,8.27213],[-75.76897,8.27511],[-75.77042,8.28018],[-75.76975,8.28381],[-75.76759,8.28537],[-75.76476,8.29005],[-75.76438,8.29198],[-75.76532,8.29632],[-75.76677,8.29769],[-75.75922,8.29607],[-75.75886,8.28742],[-75.7535,8.28483],[-75.7489,8.29248],[-75.74665,8.29403],[-75.73984,8.2871],[-75.73629,8.28909],[-75.73542,8.29319],[-75.72888,8.29432],[-75.70976,8.29189],[-75.70996,8.29576],[-75.71143,8.29646],[-75.70966,8.30274],[-75.70972,8.30845],[-75.70792,8.30894],[-75.70482,8.31493],[-75.69943,8.31109],[-75.69812,8.30758],[-75.69831,8.3039],[-75.68478,8.30153],[-75.68807,8.30619],[-75.68646,8.31633],[-75.68259,8.31541],[-75.68029,8.31665],[-75.68329,8.32183],[-75.67966,8.32149],[-75.67627,8.31985],[-75.67118,8.32101],[-75.67062,8.31745],[-75.66772,8.31785],[-75.66916,8.32157],[-75.66536,8.32235],[-75.66602,8.3236],[-75.66245,8.32728],[-75.6654,8.33046],[-75.66487,8.33084],[-75.66565,8.33215],[-75.66483,8.33325],[-75.67206,8.33409],[-75.66946,8.33627],[-75.66988,8.34],[-75.67118,8.33879],[-75.67474,8.33832],[-75.67446,8.34196],[-75.6785,8.34261],[-75.67711,8.34492],[-75.67763,8.34547],[-75.67491,8.34843],[-75.67397,8.34807],[-75.67288,8.35095],[-75.66153,8.35186],[-75.6622,8.35547],[-75.65811,8.35589],[-75.66012,8.36016],[-75.66343,8.36072],[-75.66439,8.36801],[-75.66968,8.36859],[-75.66585,8.37363],[-75.66442,8.37769],[-75.66154,8.37726],[-75.66141,8.37891],[-75.65816,8.37861],[-75.65748,8.38394],[-75.65467,8.38823],[-75.6469,8.38919],[-75.64822,8.39082],[-75.64525,8.3968],[-75.64928,8.40233],[-75.64932,8.40849],[-75.65919,8.40624],[-75.66219,8.40306],[-75.66464,8.40774],[-75.66401,8.41016],[-75.66263,8.40999],[-75.66317,8.41973],[-75.66833,8.41942],[-75.66877,8.41513],[-75.67053,8.41607],[-75.6754,8.41637],[-75.67597,8.41721],[-75.67955,8.41676],[-75.68075,8.42094],[-75.67839,8.42569],[-75.67793,8.43128],[-75.6816,8.42989],[-75.68302,8.43169],[-75.68597,8.43341],[-75.68529,8.43507],[-75.68084,8.43602],[-75.68077,8.44243],[-75.67751,8.44376],[-75.67669,8.44755],[-75.67426,8.44826],[-75.67272,8.45114],[-75.67487,8.4524],[-75.67464,8.45349],[-75.68021,8.45498],[-75.6803,8.45671],[-75.67872,8.45645],[-75.67655,8.4573],[-75.67585,8.45502],[-75.67047,8.45784],[-75.66989,8.45934],[-75.66864,8.4592],[-75.66775,8.46054],[-75.67256,8.46292],[-75.67354,8.46581],[-75.67329,8.46967],[-75.67073,8.477],[-75.67211,8.47812],[-75.66815,8.47985],[-75.66826,8.48418],[-75.67132,8.4854],[-75.672,8.48846],[-75.67025,8.48845],[-75.66972,8.48994],[-75.66644,8.493],[-75.66635,8.50053],[-75.67274,8.50268],[-75.67788,8.50284],[-75.67727,8.50509],[-75.67842,8.50637],[-75.6771,8.5092],[-75.67693,8.51207],[-75.67831,8.51408],[-75.67823,8.51547],[-75.67362,8.52083],[-75.6714,8.5196],[-75.67115,8.52027],[-75.67259,8.5211],[-75.67118,8.52393],[-75.67029,8.52399],[-75.67176,8.52576],[-75.67032,8.53182],[-75.67368,8.53329],[-75.67312,8.53452],[-75.6717,8.5345],[-75.67349,8.53669],[-75.67177,8.53561],[-75.67,8.53828],[-75.66738,8.53887],[-75.66328,8.53766],[-75.66236,8.53575],[-75.65929,8.53589],[-75.65795,8.5392],[-75.65108,8.54045],[-75.64955,8.55777],[-75.64989,8.56084],[-75.64223,8.56143],[-75.64154,8.55961],[-75.64197,8.55822],[-75.63918,8.55594],[-75.63982,8.55309],[-75.63579,8.55063],[-75.63143,8.5498],[-75.62648,8.54997],[-75.6217,8.55301],[-75.61988,8.55192],[-75.61295,8.55052],[-75.60992,8.54797],[-75.61003,8.54615],[-75.60353,8.54286],[-75.60384,8.54209],[-75.60299,8.54112],[-75.60054,8.54073],[-75.60054,8.1337],[-75.78978,8.1337]]]}},
{"type":"Feature","properties":{"id":13,"name":"Pueblo Nuevo"},"geometry":{"type":"Polygon","coordinates":[[[-75.60086,8.54093],[-75.60299,8.54112],[-75.60384,8.54209],[-75.60353,8.54286],[-75.61003,8.54615],[-75.60992,8.54797],[-75.61385,8.55089],[-75.61988,8.55192],[-75.6217,8.55301],[-75.62729,8.54986],[-75.63227,8.54988],[-75.63667,8.55099],[-75.63816,8.55265],[-75.63982,8.55309],[-75.63918,8.55594],[-75.64197,8.55822],[-75.64154,8.55961],[-75.64223,8.56143],[-75.64108,8.56446],[-75.64439,8.56487],[-75.64315,8.56784],[-75.64534,8.56791],[-75.64582,8.57025],[-75.64472,8.57228],[-75.64397,8.57761],[-75.64271,8.57955],[-75.643,8.58146],[-75.64181,8.58641],[-75.64011,8.58579],[-75.64018,8.58521],[-75.63626,8.58417],[-75.63338,8.58988],[-75.63519,8.59151],[-75.63342,8.59696],[-75.6333,8.60064],[-75.63106,8.60047],[-75.63159,8.60339],[-75.62947,8.60358],[-75.62926,8.60424],[-75.62949,8.60601],[-75.63084,8.60738],[-75.62849,8.61326],[-75.62823,8.62435],[-75.62664,8.62863],[-75.62496,8.63065],[-75.62046,8.63016],[-75.6189,8.62653],[-75.61649,8.62701],[-75.61686,8.62424],[-75.61482,8.62433],[-75.61294,8.6255],[-75.60946,8.62515],[-75.61066,8.63675],[-75.60988,8.63846],[-75.60584,8.63861],[-75.60345,8.63997],[-75.60221,8.63902],[-75.60054,8.63958],[-75.60086,8.54093]]]}},
{"type":"Feature","properties":{"id":14,"name":"Puerto Escondido"},"geometry":{"type":"Polygon","coordinates":[[[-76.17246,9.10794],[-76.1714,9.10838],[-76.17064,9.10753],[-76.17034,9.10545],[-76.16891,9.1034],[-76.16871,9.09914],[-76.16778,9.09911],[-76.16724,9.10086],[-76.16619,9.10147],[-76.16457,9.10088],[-76.16562,9.10057],[-76.16519,9.0993],[-76.16418,9.09931],[-76.16476,9.09574],[-76.16302,9.09532],[-76.16315,9.09173],[-76.1616,9.09102],[-76.16042,9.09284],[-76.16027,9.09148],[-76.15891,9.09089],[-76.15948,9.0896],[-76.15742,9.08877],[-76.15839,9.08785],[-76.15832,9.08677],[-76.15707,9.08686],[-76.15745,9.08541],[-76.15502,9.0855],[-76.15406,9.08196],[-76.14951,9.08247],[-76.14686,9.0816],[-76.14527,9.08219],[-76.14483,9.07922],[-76.14391,9.07903],[-76.13853,9.08278],[-76.138,9.08591],[-76.13561,9.08283],[-76.13436,9.08283],[-76.13424,9.08166],[-76.13262,9.08089],[-76.12902,9.08351],[-76.12743,9.08217],[-76.12639,9.07896],[-76.12466,9.07961],[-76.12347,9.07897],[-76.12329,9.07765],[-76.12254,9.0786],[-76.12177,9.07826],[-76.12181,9.07638],[-76.12092,9.07625],[-76.12088,9.07484],[-76.12036,9.07512],[-76.11965,9.07471],[-76.1212,9.07411],[-76.1218,9.07191],[-76.12051,9.071],[-76.12053,9.06991],[-76.1168,9.07244],[-76.11718,9.0707],[-76.11635,9.07023],[-76.1165,9.06933],[-76.11556,9.07009],[-76.11303,9.06798],[-76.11089,9.06784],[-76.10918,9.06644],[-76.10854,9.06751],[-76.10791,9.06577],[-76.11064,9.06462],[-76.11089,9.05944],[-76.11005,9.05758],[-76.10911,9.05772],[-76.10808,9.05635],[-76.107,9.05623],[-76.10785,9.05537],[-76.10692,9.05473],[-76.10637,9.0524],[-76.1051,9.05322],[-76.10448,9.05192],[-76.10278,9.05156],[-76.10268,9.05048],[-76.10122,9.0508],[-76.10162,9.04888],[-76.09955,9.04669],[-76.09811,9.04758],[-76.09739,9.04714],[-76.09681,9.0459],[-76.09729,9.04497],[-76.09519,9.04586],[-76.09328,9.0439],[-76.0915,9.04331],[-76.09227,9.04217],[-76.09065,9.03842],[-76.08671,9.0394],[-76.08577,9.03716],[-76.08095,9.03678],[-76.08048,9.03535],[-76.07889,9.03458],[-76.07925,9.03087],[-76.07826,9.02768],[-76.08107,9.02766],[-76.08214,9.01853],[-76.0749,9.01956],[-76.07453,9.02766],[-76.06937,9.0299],[-76.06811,9.02941],[-76.07055,9.02527],[-76.07103,9.0223],[-76.0731,9.01787],[-76.06542,9.01744],[-76.06634,9.01486],[-76.06669,9.00882],[-76.0688,9.00498],[-76.0701,9.00299],[-76.07485,9.00455],[-76.07599,9.00135],[-76.07887,9.00224],[-76.08152,8.99852],[-76.07734,8.99767],[-76.08163,8.99337],[-76.08249,8.99121],[-76.08564,8.99268],[-76.08689,8.99093],[-76.08781,8.99192],[-76.09147,8.99012],[-76.09365,8.9868],[-76.09339,8.98356],[-76.0922,8.98137],[-76.09249,8.97837],[-76.09432,8.97864],[-76.09434,8.97262],[-76.09151,8.97194],[-76.09147,8.96942],[-76.08941,8.96779],[-76.092,8.96529],[-76.08531,8.96289],[-76.0729,8.96515],[-76.07359,8.95696],[-76.08352,8.9554],[-76.08372,8.9536],[-76.08111,8.95119],[-76.08248,8.9495],[-76.08235,8.94776],[-76.08551,8.94483],[-76.08495,8.94316],[-76.09157,8.93763],[-76.09276,8.93933],[-76.09674,8.93756],[-76.0978,8.94023],[-76.09677,8.94154],[-76.09766,8.94253],[-76.10275,8.93973],[-76.10727,8.93834],[-76.10898,8.93942],[-76.10608,8.94328],[-76.10952,8.94501],[-76.11238,8.94208],[-76.1156,8.94404],[-76.11442,8.94541],[-76.11688,8.94728],[-76.11879,8.94447],[-76.12274,8.94462],[-76.12273,8.94412],[-76.12506,8.94479],[-76.12606,8.94247],[-76.1327,8.9442],[-76.13292,8.94681],[-76.1255,8.94515],[-76.12422,8.94888],[-76.13012,8.9523],[-76.13183,8.94766],[-76.13972,8.94938],[-76.13985,8.94364],[-76.14937,8.94408],[-76.15003,8.94104],[-76.14768,8.93888],[-76.14771,8.93767],[-76.1484,8.93578],[-76.15125,8.93259],[-76.15246,8.93301],[-76.15555,8.93695],[-76.15778,8.9335],[-76.15991,8.93473],[-76.16022,8.93314],[-76.16131,8.93325],[-76.16232,8.93118],[-76.16472,8.93097],[-76.17247,8.92454],[-76.17246,9.10794]]]}},
{"type":"Feature","properties":{"id":15,"name":"Purísima"},"geometry":{"type":"MultiPolygon","coordinates":[[[[-75.63072,9.34949],[-75.6354,9.34763],[-75.638,9.34569],[-75.64267,9.33502],[-75.64842,9.33028],[-75.64913,9.33004],[-75.65338,9.33284],[-75.65902,9.33489],[-75.66161,9.33472],[-75.66201,9.3337],[-75.66464,9.33408],[-75.66495,9.33339],[-75.66961,9.33394],[-75.67139,9.3314],[-75.67134,9.33197],[-75.67232,9.33192],[-75.68027,9.32138],[-75.681,9.31791],[-75.68382,9.31825],[-75.6854,9.3173],[-75.68563,9.31675],[-75.68449,9.31618],[-75.68497,9.31443],[-75.68594,9.31429],[-75.68584,9.31301],[-75.68779,9.31336],[-75.6879,9.31475],[-75.68878,9.31397],[-75.69078,9.31399],[-75.69127,9.31268],[-75.69393,9.31363],[-75.69459,9.31152],[-75.69398,9.31057],[-75.69043,9.31012],[-75.69069,9.30884],[-75.68816,9.30679],[-75.68689,9.30357],[-75.68712,9.29979],[-75.69123,9.30385],[-75.69323,9.30041],[-75.68873,9.29744],[-75.68915,9.29666],[-75.69409,9.29917],[-75.69573,9.29657],[-75.69585,9.29442],[-75.69699,9.29551],[-75.6983,9.29545],[-75.69758,9.29368],[-75.69789,9.29202],[-75.69392,9.28584],[-75.69961,9.27947],[-75.70138,9.26803],[-75.70051,9.26505],[-75.69933,9.26588],[-75.69866,9.26257],[-75.69527,9.25698],[-75.69686,9.25639],[-75.69536,9.24868],[-75.70256,9.225],[-75.70871,9.21635],[-75.71236,9.21647],[-75.71714,9.21381],[-75.72386,9.21822],[-75.72781,9.21866],[-75.72811,9.21445],[-75.72906,9.21401],[-75.73348,9.21504],[-75.73583,9.2143],[-75.73868,9.20798],[-75.74144,9.20639],[-75.74586,9.2073],[-75.74887,9.20691],[-75.74991,9.20761],[-75.7498,9.2091],[-75.74673,9.21289],[-75.74937,9.216],[-75.75211,9.21481],[-75.75359,9.20859],[-75.75588,9.20737],[-75.75762,9.20758],[-75.76087,9.21061],[-75.76183,9.21301],[-75.76573,9.21201],[-75.76948,9.21387],[-75.77403,9.21393],[-75.77631,9.21526],[-75.77722,9.21939],[-75.78153,9.22187],[-75.77709,9.22682],[-75.77265,9.22919],[-75.77488,9.23836],[-75.77505,9.24038],[-75.77405,9.24057],[-75.77685,9.24503],[-75.77077,9.24974],[-75.76906,9.25345],[-75.77035,9.25547],[-75.77492,9.25872],[-75.77372,9.26274],[-75.77061,9.26563],[-75.77167,9.26903],[-75.77136,9.27254],[-75.77282,9.274],[-75.77146,9.27608],[-75.7732,9.27734],[-75.77035,9.28008],[-75.77123,9.28092],[-75.7699,9.28165],[-75.77067,9.2829],[-75.77516,9.28171],[-75.77729,9.28394],[-75.77425,9.28811],[-75.77424,9.28892],[-75.77633,9.28988],[-75.77589,9.29442],[-75.76562,9.29532],[-75.76571,9.29865],[-75.7633,9.29961],[-75.76268,9.30425],[-75.76139,9.30607],[-75.75044,9.30509],[-75.75003,9.29771],[-75.7479,9.29299],[-75.74619,9.29359],[-75.74414,9.29574],[-75.7431,9.29996],[-75.73595,9.29917],[-75.73512,9.3016],[-75.74002,9.30727],[-75.74035,9.30936],[-75.73119,9.30724],[-75.72759,9.31482],[-75.72322,9.31216],[-75.72089,9.31449],[-75.71757,9.3147],[-75.71731,9.31761],[-75.71593,9.31898],[-75.71499,9.31862],[-75.71474,9.32115],[-75.71586,9.32112],[-75.71552,9.32259],[-75.71659,9.3232],[-75.71459,9.32439],[-75.71289,9.33844],[-75.70704,9.33614],[-75.70522,9.33632],[-75.70492,9.33773],[-75.708,9.3386],[-75.70843,9.34156],[-75.70719,9.34194],[-75.70438,9.34699],[-75.70967,9.34954],[-75.68113,9.34954],[-75.67868,9.34803],[-75.67983,9.34459],[-75.67922,9.34426],[-75.6778,9.34748],[-75.6715,9.34309],[-75.66787,9.34954],[-75.64141,9.34954],[-75.64096,9.34888],[-75.63747,9.3486],[-75.63605,9.34954],[-75.63072,9.34949]]],[[[-75.62958,9.34954],[-75.62995,9.34934],[-75.63037,9.34954],[-75.62958,9.34954]]]]}},
{"type":"Feature","properties":{"id":16,"name":"San Antero"},"geometry":{"type":"Polygon","coordinates":[[[-75.70944,9.34942],[-75.70438,9.34699],[-75.70719,9.34194],[-75.70845,9.34133],[-75.70793,9.33851],[-75.70613,9.33849],[-75.70483,9.33747],[-75.7053,9.33623],[-75.70704,9.33614],[-75.71289,9.33844],[-75.71459,9.32439],[-75.71659,9.3232],[-75.71552,9.32259],[-75.71586,9.32112],[-75.71474,9.32115],[-75.71499,9.31862],[-75.71593,9.31898],[-75.71731,9.31761],[-75.71757,9.3147],[-75.72089,9.31449],[-75.72322,9.31216],[-75.72759,9.31482],[-75.73119,9.30724],[-75.74024,9.30948],[-75.74002,9.30727],[-75.73728,9.30338],[-75.7353,9.30196],[-75.73515,9.3009],[-75.73595,9.29917],[-75.7431,9.29996],[-75.74414,9.29574],[-75.747,9.29303],[-75.7479,9.29299],[-75.74896,9.29432],[-75.74978,9.29661],[-75.75044,9.30509],[-75.76154,9.30605],[-75.76268,9.30425],[-75.7633,9.29961],[-75.76571,9.29865],[-75.76562,9.29532],[-75.77589,9.29442],[-75.77633,9.28988],[-75.77424,9.28892],[-75.77425,9.28811],[-75.77729,9.28394],[-75.78091,9.28524],[-75.77874,9.28948],[-75.7806,9.29036],[-75.78118,9.28873],[-75.78422,9.28937],[-75.7849,9.28818],[-75.78702,9.28774],[-75.78651,9.28669],[-75.78871,9.28617],[-75.78986,9.28474],[-75.79224,9.28374],[-75.79218,9.28743],[-75.79465,9.29036],[-75.80091,9.29004],[-75.79939,9.29336],[-75.80018,9.2966],[-75.80217,9.29819],[-75.80096,9.30092],[-75.80953,9.30924],[-75.8141,9.30765],[-75.81378,9.3098],[-75.8147,9.31302],[-75.82778,9.30995],[-75.83158,9.31147],[-75.83314,9.30911],[-75.83949,9.30517],[-75.83754,9.30309],[-75.84137,9.29984],[-75.83899,9.29425],[-75.84223,9.29178],[-75.84647,9.29614],[-75.84406,9.30014],[-75.84478,9.30228],[-75.84887,9.30198],[-75.85347,9.29911],[-75.85555,9.30076],[-75.8579,9.30438],[-75.85731,9.31315],[-75.85573,9.31606],[-75.85751,9.3183],[-75.8573,9.32406],[-75.85797,9.32456],[-75.85898,9.33008],[-75.86417,9.33727],[-75.85749,9.34954],[-75.70944,9.34942]]]}},
{"type":"Feature","properties":{"id":17,"name":"San Bernardo Del Viento"},"geometry":{"type":"Polygon","coordinates":[[[-75.85754,9.3495],[-75.86417,9.33727],[-75.87911,9.33865],[-75.88109,9.33915],[-75.88456,9.34177],[-75.88781,9.34195],[-75.88871,9.34336],[-75.89093,9.3439],[-75.90045,9.34009],[-75.90328,9.33823],[-75.90462,9.33461],[-75.90454,9.32177],[-75.91448,9.32103],[-75.91523,9.32362],[-75.91652,9.32474],[-75.92043,9.3245],[-75.92405,9.32293],[-75.92511,9.32072],[-75.92237,9.31618],[-75.92183,9.31425],[-75.92261,9.31177],[-75.92351,9.31224],[-75.9268,9.3094],[-75.92791,9.31171],[-75.93484,9.30846],[-75.93811,9.30516],[-75.93821,9.30415],[-75.93635,9.302],[-75.95138,9.28987],[-75.953,9.28441],[-75.95484,9.28168],[-75.95257,9.28045],[-75.96105,9.26408],[-75.96485,9.26442],[-75.96468,9.26294],[-75.97191,9.26103],[-75.97124,9.25927],[-75.97399,9.25572],[-75.97605,9.25609],[-75.97725,9.25262],[-75.98753,9.25371],[-75.99196,9.24424],[-75.99615,9.24437],[-75.99749,9.24185],[-75.99926,9.24129],[-76.00101,9.23934],[-75.99864,9.23067],[-75.99867,9.22746],[-76.00927,9.22842],[-76.01001,9.21712],[-76.0519,9.20213],[-76.05266,9.20344],[-76.05894,9.20002],[-76.05978,9.20253],[-76.07104,9.19901],[-76.06964,9.20977],[-76.06463,9.21849],[-76.06394,9.21798],[-76.06265,9.21946],[-76.0606,9.21825],[-76.05486,9.21857],[-76.05123,9.22408],[-76.05005,9.22371],[-76.04891,9.22441],[-76.04759,9.22287],[-76.04501,9.2253],[-76.03893,9.2288],[-76.04004,9.23327],[-76.04184,9.2349],[-76.0418,9.23647],[-76.04371,9.24061],[-76.04626,9.24147],[-76.04717,9.23933],[-76.05271,9.24194],[-76.06333,9.24069],[-76.05934,9.24979],[-76.06367,9.25209],[-76.06196,9.25724],[-76.06102,9.26783],[-76.06616,9.26628],[-76.06559,9.26805],[-76.06631,9.26828],[-76.06702,9.26627],[-76.06811,9.26626],[-76.07092,9.27029],[-76.07111,9.27214],[-76.07576,9.27303],[-76.07593,9.27661],[-76.07723,9.27745],[-76.07582,9.28032],[-76.0763,9.28212],[-76.0754,9.2858],[-76.08011,9.2874],[-76.07919,9.28884],[-76.0812,9.28945],[-76.08126,9.29341],[-76.08251,9.29381],[-76.08259,9.29537],[-76.0839,9.2962],[-76.08334,9.29756],[-76.08808,9.30056],[-76.08698,9.30216],[-76.0885,9.30489],[-76.09309,9.30805],[-76.09356,9.30924],[-76.09628,9.30958],[-76.09833,9.31169],[-76.09904,9.31393],[-76.09833,9.3153],[-76.09507,9.31894],[-76.09177,9.32455],[-76.08823,9.32616],[-76.0861,9.32971],[-76.08473,9.33226],[-76.08532,9.33497],[-76.08088,9.33699],[-76.07466,9.33829],[-76.07433,9.33951],[-76.07302,9.339],[-76.0327,9.34954],[-75.85754,9.3495]]]}},
{"type":"Feature","properties":{"id":18,"name":"San Carlos"},"geometry":{"type":"Polygon","coordinates":[[[-75.60054,8.7102],[-75.60173,8.71094],[-75.60252,8.71002],[-75.60333,8.70694],[-75.60289,8.70257],[-75.60606,8.69955],[-75.61033,8.7003],[-75.61263,8.70551],[-75.61756,8.70249],[-75.61236,8.69882],[-75.61269,8.69352],[-75.61056,8.69212],[-75.61024,8.68865],[-75.61575,8.69092],[-75.61966,8.6886],[-75.61862,8.68776],[-75.6202,8.6829],[-75.61247,8.67786],[-75.61465,8.67428],[-75.61936,8.67098],[-75.62331,8.67195],[-75.62442,8.66855],[-75.62283,8.6677],[-75.62045,8.66862],[-75.61901,8.66687],[-75.61943,8.66325],[-75.61756,8.66098],[-75.61622,8.65057],[-75.61458,8.64978],[-75.61326,8.65173],[-75.60952,8.65276],[-75.60788,8.65165],[-75.61314,8.64738],[-75.60961,8.64471],[-75.60236,8.64145],[-75.60385,8.63943],[-75.60584,8.63861],[-75.60988,8.63846],[-75.61066,8.63675],[-75.60946,8.62515],[-75.61294,8.6255],[-75.61482,8.62433],[-75.61686,8.62424],[-75.61649,8.62701],[-75.6189,8.62653],[-75.62046,8.63016],[-75.62496,8.63065],[-75.62664,8.62863],[-75.62823,8.62435],[-75.62849,8.61326],[-75.63084,8.60738],[-75.62949,8.60601],[-75.62926,8.60424],[-75.62947,8.60358],[-75.63159,8.60339],[-75.63106,8.60047],[-75.6333,8.60064],[-75.63342,8.59696],[-75.63519,8.59151],[-75.63338,8.58988],[-75.63626,8.58417],[-75.64018,8.58521],[-75.64011,8.58579],[-75.64181,8.58641],[-75.643,8.58146],[-75.64271,8.57955],[-75.64397,8.57761],[-75.64472,8.57228],[-75.64582,8.57025],[-75.64534,8.56791],[-75.64315,8.56784],[-75.64439,8.56487],[-75.64108,8.56446],[-75.64162,8.56202],[-75.64323,8.56118],[-75.64989,8.56084],[-75.64955,8.55777],[-75.65108,8.54045],[-75.65795,8.5392],[-75.65929,8.53589],[-75.66236,8.53575],[-75.66328,8.53766],[-75.66738,8.53887],[-75.67,8.53828],[-75.67177,8.53561],[-75.67349,8.53669],[-75.6717,8.5345],[-75.67312,8.53452],[-75.67368,8.53329],[-75.67032,8.53182],[-75.67176,8.52576],[-75.67029,8.52399],[-75.67118,8.52393],[-75.67259,8.5211],[-75.67115,8.52027],[-75.6714,8.5196],[-75.67362,8.52083],[-75.67768,8.51646],[-75.67831,8.51408],[-75.68212,8.51376],[-75.68715,8.5079],[-75.68886,8.51144],[-75.69067,8.51009],[-75.69142,8.51226],[-75.68839,8.51413],[-75.68922,8.51803],[-75.68553,8.51885],[-75.6836,8.51765],[-75.67939,8.52391],[-75.67932,8.52846],[-75.67682,8.52883],[-75.67657,8.53152],[-75.68134,8.53127],[-75.68278,8.53204],[-75.68243,8.53641],[-75.6841,8.5365],[-75.68462,8.53993],[-75.68556,8.53869],[-75.68676,8.53876],[-75.68661,8.54099],[-75.69007,8.54607],[-75.68828,8.55029],[-75.69012,8.55278],[-75.69331,8.55499],[-75.68706,8.55869],[-75.68576,8.56415],[-75.68585,8.56851],[-75.68389,8.56865],[-75.68335,8.57011],[-75.68419,8.57243],[-75.68221,8.57355],[-75.68189,8.57304],[-75.68084,8.57439],[-75.67774,8.57483],[-75.67822,8.57939],[-75.67936,8.57975],[-75.68189,8.58295],[-75.69009,8.58427],[-75.6895,8.58518],[-75.69041,8.58566],[-75.68991,8.58647],[-75.68887,8.58612],[-75.6891,8.58739],[-75.69223,8.58906],[-75.69396,8.58639],[-75.69274,8.58546],[-75.69322,8.58415],[-75.69572,8.58348],[-75.69977,8.58435],[-75.69911,8.58619],[-75.70364,8.59042],[-75.70717,8.58798],[-75.70863,8.58889],[-75.70904,8.59208],[-75.70663,8.59575],[-75.7077,8.59737],[-75.70588,8.59901],[-75.70236,8.59953],[-75.70213,8.60149],[-75.70383,8.60384],[-75.7068,8.60103],[-75.70774,8.60358],[-75.70674,8.60491],[-75.70745,8.60562],[-75.70534,8.60871],[-75.70634,8.61182],[-75.70739,8.61067],[-75.70779,8.61277],[-75.71333,8.61221],[-75.71496,8.61353],[-75.71496,8.61297],[-75.71701,8.61337],[-75.71732,8.61528],[-75.73033,8.6144],[-75.73198,8.61824],[-75.73974,8.61995],[-75.7415,8.62506],[-75.75255,8.62874],[-75.75319,8.63238],[-75.75281,8.63677],[-75.75184,8.63913],[-75.74897,8.64166],[-75.74983,8.64219],[-75.74909,8.64311],[-75.7542,8.64526],[-75.75759,8.64493],[-75.75638,8.6462],[-75.7568,8.64882],[-75.75854,8.65023],[-75.75967,8.65007],[-75.76098,8.64835],[-75.7659,8.64811],[-75.76832,8.65345],[-75.76892,8.65282],[-75.77052,8.65595],[-75.77202,8.65665],[-75.77247,8.66228],[-75.77398,8.66491],[-75.77356,8.66734],[-75.77178,8.67229],[-75.7701,8.67385],[-75.76735,8.68137],[-75.76513,8.68363],[-75.76554,8.68612],[-75.76393,8.68607],[-75.763,8.68698],[-75.76369,8.68794],[-75.76222,8.68885],[-75.76348,8.69155],[-75.76244,8.69354],[-75.76135,8.70218],[-75.76586,8.70882],[-75.76171,8.71205],[-75.76063,8.71823],[-75.76274,8.71831],[-75.7645,8.7194],[-75.76764,8.71915],[-75.76846,8.72027],[-75.77056,8.72101],[-75.7723,8.72404],[-75.78299,8.73045],[-75.77618,8.73759],[-75.77792,8.74062],[-75.77812,8.74308],[-75.7825,8.74769],[-75.7847,8.74898],[-75.78472,8.75167],[-75.78622,8.75249],[-75.79093,8.75029],[-75.79282,8.75663],[-75.79879,8.75125],[-75.79958,8.75614],[-75.79846,8.75786],[-75.79656,8.75852],[-75.79609,8.76317],[-75.7984,8.76473],[-75.79854,8.76668],[-75.80052,8.76833],[-75.79787,8.77289],[-75.7924,8.77398],[-75.79073,8.77846],[-75.78742,8.78332],[-75.78964,8.79164],[-75.79262,8.79142],[-75.79319,8.78943],[-75.79701,8.78772],[-75.79754,8.79216],[-75.8,8.79171],[-75.80095,8.79332],[-75.80005,8.7941],[-75.79781,8.79381],[-75.79515,8.79951],[-75.78984,8.79544],[-75.78732,8.7928],[-75.78737,8.79145],[-75.78611,8.79273],[-75.78571,8.79116],[-75.78537,8.79429],[-75.78415,8.79412],[-75.7844,8.79167],[-75.78244,8.79207],[-75.77624,8.78591],[-75.77404,8.78891],[-75.77248,8.7931],[-75.7717,8.79227],[-75.77038,8.79314],[-75.76932,8.79248],[-75.76857,8.79183],[-75.76919,8.79045],[-75.76837,8.79021],[-75.76405,8.79715],[-75.76375,8.79985],[-75.77211,8.80056],[-75.74382,8.80883],[-75.74595,8.80933],[-75.7503,8.81749],[-75.74291,8.82907],[-75.74218,8.8348],[-75.74285,8.83606],[-75.74019,8.83828],[-75.74327,8.83927],[-75.74249,8.8409],[-75.74489,8.84184],[-75.74333,8.84359],[-75.7452,8.84666],[-75.74409,8.84894],[-75.73608,8.85142],[-75.73492,8.84662],[-75.72911,8.8501],[-75.72454,8.84909],[-75.72638,8.85713],[-75.71589,8.86184],[-75.70218,8.84323],[-75.71101,8.83535],[-75.70469,8.83007],[-75.70015,8.83055],[-75.69936,8.83542],[-75.69769,8.83727],[-75.6825,8.83636],[-75.68389,8.83485],[-75.67325,8.82747],[-75.66988,8.8187],[-75.66721,8.81573],[-75.66432,8.81636],[-75.66016,8.80729],[-75.65783,8.80798],[-75.65519,8.81004],[-75.65484,8.80773],[-75.65248,8.80346],[-75.64549,8.80298],[-75.64503,8.80094],[-75.63902,8.79894],[-75.63829,8.80115],[-75.63637,8.80116],[-75.6356,8.7979],[-75.63695,8.79632],[-75.63698,8.79409],[-75.63442,8.79469],[-75.63294,8.78815],[-75.63217,8.7875],[-75.63193,8.78374],[-75.63631,8.78246],[-75.63695,8.77854],[-75.63906,8.77456],[-75.63638,8.77459],[-75.63636,8.77347],[-75.63226,8.77352],[-75.63181,8.77453],[-75.63001,8.77444],[-75.62419,8.76791],[-75.62292,8.76527],[-75.62013,8.76659],[-75.61929,8.76419],[-75.62191,8.76219],[-75.62127,8.761],[-75.62235,8.75748],[-75.62195,8.75605],[-75.62326,8.75505],[-75.62185,8.75291],[-75.61998,8.7519],[-75.61429,8.75282],[-75.61407,8.75453],[-75.61519,8.7547],[-75.61401,8.75679],[-75.61131,8.75617],[-75.61182,8.75104],[-75.60855,8.75115],[-75.60922,8.75469],[-75.60725,8.75506],[-75.60557,8.75404],[-75.60565,8.75206],[-75.60792,8.74819],[-75.60387,8.74542],[-75.60054,8.7451],[-75.60054,8.73448],[-75.60118,8.73484],[-75.60261,8.7329],[-75.60567,8.73467],[-75.61003,8.72869],[-75.60408,8.72537],[-75.60427,8.72117],[-75.60268,8.72263],[-75.60054,8.72176],[-75.60054,8.7102]]]}},
{"type":"Feature","properties":{"id":19,"name":"San Pelayo"},"geometry":{"type":"Polygon","coordinates":[[[-76.04512,8.95442],[-76.05428,8.94518],[-76.0538,8.94358],[-76.05275,8.9431],[-76.05354,8.94129],[-76.05604,8.94314],[-76.05724,8.94243],[-76.06091,8.94281],[-76.06494,8.94548],[-76.0648,8.94661],[-76.06707,8.9474],[-76.06761,8.9488],[-76.07263,8.9459],[-76.0717,8.94203],[-76.07208,8.93962],[-76.07551,8.94106],[-76.07618,8.93703],[-76.0775,8.9363],[-76.07929,8.9387],[-76.08543,8.9395],[-76.08729,8.94114],[-76.08495,8.94316],[-76.08551,8.94483],[-76.0826,8.94732],[-76.08248,8.9495],[-76.08111,8.95119],[-76.08372,8.9536],[-76.08352,8.9554],[-76.07359,8.95696],[-76.0729,8.96515],[-76.08531,8.96289],[-76.092,8.96529],[-76.08941,8.96779],[-76.09147,8.96942],[-76.09151,8.97194],[-76.09434,8.97262],[-76.09432,8.97864],[-76.09249,8.97837],[-76.0922,8.98137],[-76.09339,8.98356],[-76.09365,8.9868],[-76.09147,8.99012],[-76.08781,8.99192],[-76.08689,8.99093],[-76.08564,8.99268],[-76.08249,8.99121],[-76.08163,8.99337],[-76.07734,8.99767],[-76.08152,8.99852],[-76.07887,9.00224],[-76.07599,9.00135],[-76.07485,9.00455],[-76.0701,9.00299],[-76.06677,9.00856],[-76.06634,9.01486],[-76.06542,9.01744],[-76.0731,9.01787],[-76.07103,9.0223],[-76.07055,9.02527],[-76.06817,9.02894],[-76.06937,9.0299],[-76.07453,9.02766],[-76.0749,9.01956],[-76.08214,9.01853],[-76.08107,9.02766],[-76.07826,9.02768],[-76.07925,9.03087],[-76.07889,9.03458],[-76.08048,9.03535],[-76.08095,9.03678],[-76.08577,9.03716],[-76.08671,9.0394],[-76.09065,9.03842],[-76.09227,9.04217],[-76.0915,9.04331],[-76.09328,9.0439],[-76.09519,9.04586],[-76.09729,9.04497],[-76.09681,9.0459],[-76.09739,9.04714],[-76.09811,9.04758],[-76.09955,9.04669],[-76.10162,9.04888],[-76.10122,9.0508],[-76.10268,9.05048],[-76.10278,9.05156],[-76.10448,9.05192],[-76.1051,9.05322],[-76.10637,9.0524],[-76.10692,9.05473],[-76.10785,9.05537],[-76.107,9.05623],[-76.10808,9.05635],[-76.10911,9.05772],[-76.11005,9.05758],[-76.11089,9.05944],[-76.11032,9.06321],[-76.10854,9.06327],[-76.10746,9.05925],[-76.10614,9.05934],[-76.10587,9.05842],[-76.10421,9.0589],[-76.10352,9.05556],[-76.1014,9.05619],[-76.10023,9.05457],[-76.09787,9.05495],[-76.09656,9.05397],[-76.09176,9.05501],[-76.08185,9.06133],[-76.07576,9.05698],[-76.0701,9.05941],[-76.06802,9.05765],[-76.06627,9.05885],[-76.06636,9.06004],[-76.0541,9.06021],[-76.05443,9.05244],[-76.05308,9.0524],[-76.04808,9.04933],[-76.04327,9.04453],[-76.03938,9.04613],[-76.03467,9.04214],[-76.03669,9.03965],[-76.04008,9.03899],[-76.03973,9.03792],[-76.043,9.03522],[-76.04244,9.03443],[-76.04389,9.03394],[-76.04354,9.03275],[-76.04226,9.03238],[-76.03891,9.02817],[-76.02886,9.02801],[-76.02771,9.0301],[-76.02808,9.03114],[-76.02482,9.03109],[-76.01986,9.026],[-76.0193,9.02682],[-76.01599,9.02688],[-76.01596,9.02553],[-76.01342,9.02398],[-76.0092,9.02545],[-76.00436,9.03008],[-75.9996,9.02936],[-75.99939,9.03089],[-75.99742,9.03134],[-75.99525,9.02848],[-75.99584,9.02564],[-75.99483,9.0243],[-75.99392,9.02451],[-75.99399,9.03257],[-75.99281,9.03299],[-75.99392,9.03549],[-75.98904,9.03702],[-75.98734,9.02798],[-75.98553,9.02786],[-75.98581,9.03],[-75.97842,9.02789],[-75.97255,9.02503],[-75.97138,9.02766],[-75.97068,9.02766],[-75.97118,9.02841],[-75.9703,9.03048],[-75.96948,9.03006],[-75.96945,9.03144],[-75.96774,9.0313],[-75.96887,9.03348],[-75.96427,9.03676],[-75.96545,9.03916],[-75.96558,9.04236],[-75.95995,9.0425],[-75.95749,9.04403],[-75.9544,9.04366],[-75.95442,9.04609],[-75.95322,9.04652],[-75.95256,9.04831],[-75.95012,9.04966],[-75.9459,9.05541],[-75.93731,9.05959],[-75.93477,9.06355],[-75.93268,9.06478],[-75.9359,9.07207],[-75.92689,9.0731],[-75.92691,9.06562],[-75.92832,9.06294],[-75.92228,9.06148],[-75.92035,9.06507],[-75.91436,9.06139],[-75.91305,9.06807],[-75.91379,9.06937],[-75.90949,9.06882],[-75.91093,9.06134],[-75.90736,9.05833],[-75.9075,9.05626],[-75.90567,9.05559],[-75.90649,9.05311],[-75.89937,9.05131],[-75.8991,9.05265],[-75.89699,9.05149],[-75.89849,9.04744],[-75.89202,9.04676],[-75.88981,9.06084],[-75.88868,9.06065],[-75.88945,9.05216],[-75.88614,9.05211],[-75.88283,9.05001],[-75.88094,9.05404],[-75.87899,9.0539],[-75.87908,9.04867],[-75.8778,9.04624],[-75.87848,9.0453],[-75.86721,9.04064],[-75.86521,9.04342],[-75.85382,9.03999],[-75.85276,9.04245],[-75.84952,9.0425],[-75.84906,9.04509],[-75.84387,9.04518],[-75.84492,9.04319],[-75.84359,9.04312],[-75.84404,9.04249],[-75.83787,9.04268],[-75.83176,9.04021],[-75.83095,9.03919],[-75.8316,9.03876],[-75.83043,9.03843],[-75.83316,9.03662],[-75.83239,9.03426],[-75.82813,9.03162],[-75.83014,9.00957],[-75.82953,9.00945],[-75.82811,9.00391],[-75.82325,9.00453],[-75.82284,9.00216],[-75.82087,9.00236],[-75.81102,9.01037],[-75.80936,9.00955],[-75.8058,9.01234],[-75.8043,9.00917],[-75.80131,9.00673],[-75.79944,9.00268],[-75.79928,9.00012],[-75.79598,9.00119],[-75.79464,9.00372],[-75.79269,9.00398],[-75.79277,9.00566],[-75.79106,9.00654],[-75.78569,9.00479],[-75.78598,9.00316],[-75.78338,9.00256],[-75.78073,9.01149],[-75.78265,9.01761],[-75.78002,9.0175],[-75.77992,9.01832],[-75.77158,9.01502],[-75.77064,9.01645],[-75.76573,9.01451],[-75.76526,9.01588],[-75.76583,9.01603],[-75.76426,9.01881],[-75.76153,9.01692],[-75.76038,9.01841],[-75.75951,9.01803],[-75.75925,9.01882],[-75.76155,9.02083],[-75.75937,9.02428],[-75.76041,9.02528],[-75.75978,9.03105],[-75.74847,9.02453],[-75.74726,9.02296],[-75.74516,9.0238],[-75.74359,9.02694],[-75.74466,9.03115],[-75.74403,9.03196],[-75.74445,9.03577],[-75.74377,9.03721],[-75.74531,9.03856],[-75.74414,9.04262],[-75.74205,9.04265],[-75.74145,9.04847],[-75.73922,9.04828],[-75.739,9.05106],[-75.74062,9.05112],[-75.74242,9.05387],[-75.73985,9.05646],[-75.74064,9.05895],[-75.73968,9.05806],[-75.73877,9.05909],[-75.7391,9.05952],[-75.739,9.06009],[-75.73855,9.05934],[-75.73524,9.0607],[-75.73472,9.06231],[-75.73133,9.06398],[-75.73045,9.06622],[-75.72869,9.0665],[-75.72762,9.06808],[-75.72422,9.06887],[-75.72313,9.06572],[-75.72649,9.0573],[-75.72701,9.05365],[-75.72202,9.05187],[-75.72531,9.03774],[-75.72178,9.03316],[-75.72233,9.02611],[-75.72067,9.02544],[-75.72206,9.02276],[-75.71948,9.01983],[-75.71986,9.0183],[-75.7206,9.01852],[-75.72075,9.01765],[-75.72366,9.0162],[-75.72051,9.01254],[-75.72286,9.00761],[-75.72196,9.00293],[-75.71998,9.00037],[-75.71959,8.99833],[-75.71971,8.99739],[-75.72093,8.99685],[-75.72519,8.99752],[-75.72591,8.99845],[-75.7259,8.99696],[-75.7271,8.99599],[-75.7252,8.99715],[-75.72448,8.99667],[-75.72788,8.99386],[-75.72636,8.99306],[-75.72553,8.99129],[-75.72429,8.99103],[-75.72387,8.989],[-75.72162,8.98895],[-75.72145,8.98657],[-75.71687,8.98595],[-75.71661,8.98664],[-75.71504,8.98624],[-75.71476,8.98693],[-75.71021,8.98536],[-75.71133,8.98325],[-75.70784,8.98253],[-75.70822,8.98181],[-75.70699,8.9814],[-75.7053,8.98105],[-75.70503,8.98196],[-75.70261,8.98119],[-75.70343,8.97834],[-75.69908,8.98063],[-75.7007,8.9778],[-75.70215,8.97173],[-75.7037,8.97074],[-75.72333,8.97634],[-75.72518,8.97389],[-75.72657,8.9744],[-75.7267,8.97574],[-75.73377,8.97427],[-75.73435,8.97716],[-75.74615,8.9744],[-75.74841,8.97599],[-75.75363,8.9751],[-75.75552,8.97588],[-75.75774,8.97813],[-75.76162,8.97428],[-75.76283,8.97075],[-75.76557,8.97141],[-75.76519,8.96817],[-75.7641,8.96616],[-75.7655,8.96468],[-75.76509,8.96133],[-75.7626,8.95932],[-75.7637,8.95703],[-75.76347,8.95114],[-75.76722,8.94902],[-75.76729,8.94544],[-75.76795,8.9446],[-75.77375,8.94285],[-75.77727,8.94007],[-75.80636,8.94209],[-75.81157,8.94502],[-75.81319,8.94389],[-75.80779,8.93028],[-75.81163,8.92724],[-75.81108,8.92623],[-75.81585,8.92103],[-75.81713,8.92177],[-75.82008,8.92166],[-75.82341,8.90763],[-75.82529,8.91096],[-75.82727,8.91071],[-75.82756,8.90886],[-75.82544,8.90568],[-75.8277,8.9043],[-75.83493,8.90569],[-75.83874,8.90831],[-75.84277,8.90594],[-75.8479,8.913],[-75.84791,8.91711],[-75.85099,8.91923],[-75.85629,8.92047],[-75.85434,8.91871],[-75.85158,8.91788],[-75.85418,8.91767],[-75.85604,8.91581],[-75.86229,8.91501],[-75.8632,8.91597],[-75.86874,8.91644],[-75.87043,8.91397],[-75.87271,8.91566],[-75.88031,8.91728],[-75.88073,8.91523],[-75.882,8.91377],[-75.8812,8.91336],[-75.88282,8.91236],[-75.88835,8.91799],[-75.8912,8.91927],[-75.89191,8.91823],[-75.89163,8.91626],[-75.89246,8.91559],[-75.89633,8.91507],[-75.89905,8.91558],[-75.89955,8.91273],[-75.90061,8.91287],[-75.90225,8.90826],[-75.90511,8.91223],[-75.90664,8.90954],[-75.91202,8.91107],[-75.91785,8.90996],[-75.91786,8.90798],[-75.92733,8.9084],[-75.9278,8.91301],[-75.9264,8.91447],[-75.93452,8.91512],[-75.93357,8.91957],[-75.94383,8.92194],[-75.9434,8.92327],[-75.94536,8.92411],[-75.94347,8.92774],[-75.94222,8.92794],[-75.95072,8.93251],[-75.95441,8.93196],[-75.95649,8.93043],[-75.95726,8.93371],[-75.95903,8.93216],[-75.95953,8.94063],[-75.95882,8.94474],[-75.96014,8.9439],[-75.9675,8.9441],[-75.96976,8.94854],[-75.97686,8.94969],[-75.97989,8.94856],[-75.98237,8.94872],[-75.98223,8.95054],[-75.98547,8.95113],[-75.98626,8.94996],[-75.98843,8.95129],[-75.98654,8.95675],[-75.98712,8.95715],[-75.99444,8.95806],[-76.00076,8.96012],[-76.00164,8.9568],[-76.00778,8.95265],[-76.01036,8.95252],[-76.01239,8.95356],[-76.01462,8.95248],[-76.01832,8.94676],[-76.02004,8.9477],[-76.02135,8.9474],[-76.02304,8.95949],[-76.02534,8.95804],[-76.028,8.95991],[-76.02877,8.95676],[-76.0315,8.95199],[-76.03266,8.9537],[-76.03773,8.95591],[-76.0399,8.95312],[-76.04265,8.95538],[-76.04363,8.95298],[-76.04512,8.95442]]]}},
{"type":"Feature","properties":{"id":20,"name":"Tuchin"},"geometry":{"type":"Polygon","coordinates":[[[-75.60054,9.2387],[-75.60124,9.23893],[-75.60054,9.23944],[-75.60054,9.2387]]]}},
{"type":"Feature","properties":{"id":21,"name":"Valencia"},"geometry":{"type":"Polygon","coordinates":[[[-76.17247,8.14728],[-76.17247,8.39554],[-76.16903,8.3943],[-76.16734,8.38418],[-76.16554,8.38062],[-76.16138,8.38075],[-76.15993,8.37982],[-76.15849,8.38143],[-76.15439,8.38099],[-76.14946,8.38486],[-76.14783,8.38342],[-76.14755,8.38109],[-76.14273,8.38176],[-76.1408,8.38077],[-76.13869,8.38079],[-76.13494,8.38312],[-76.13456,8.38578],[-76.1288,8.38986],[-76.12806,8.39367],[-76.12344,8.39397],[-76.11908,8.3915],[-76.11526,8.39087],[-76.11347,8.39135],[-76.10989,8.38702],[-76.107,8.38623],[-76.10562,8.38431],[-76.10228,8.3823],[-76.09964,8.38245],[-76.09835,8.3785],[-76.09629,8.37586],[-76.09425,8.37632],[-76.09344,8.37747],[-76.09221,8.37592],[-76.08986,8.37517],[-76.08883,8.37144],[-76.08669,8.37064],[-76.08528,8.36834],[-76.08661,8.36814],[-76.08708,8.3659],[-76.09008,8.36499],[-76.08975,8.36235],[-76.08821,8.36061],[-76.09055,8.36066],[-76.09092,8.35872],[-76.0879,8.35767],[-76.08705,8.35596],[-76.08867,8.35423],[-76.08148,8.34542],[-76.07838,8.34407],[-76.07496,8.34475],[-76.07301,8.34734],[-76.06772,8.35015],[-76.06369,8.35126],[-76.06329,8.35338],[-76.06237,8.35415],[-76.06159,8.35295],[-76.05594,8.3521],[-76.05409,8.35076],[-76.055,8.34781],[-76.05947,8.34581],[-76.06118,8.34343],[-76.05971,8.33924],[-76.05985,8.33729],[-76.06337,8.33192],[-76.06088,8.32828],[-76.06047,8.32532],[-76.06337,8.3201],[-76.06372,8.31587],[-76.06079,8.31046],[-76.06266,8.30485],[-76.06179,8.30132],[-76.05833,8.29614],[-76.05689,8.29225],[-76.05296,8.29108],[-76.05181,8.2896],[-76.0521,8.28722],[-76.05464,8.28382],[-76.05484,8.28043],[-76.05336,8.27791],[-76.0503,8.27602],[-76.04769,8.27285],[-76.04719,8.26836],[-76.04888,8.26542],[-76.05317,8.26455],[-76.05562,8.26622],[-76.05988,8.27236],[-76.06474,8.27349],[-76.06712,8.27322],[-76.07014,8.27161],[-76.07151,8.26964],[-76.07153,8.26736],[-76.07029,8.26551],[-76.06564,8.26467],[-76.06288,8.26036],[-76.06263,8.25819],[-76.06581,8.25008],[-76.065,8.24721],[-76.05758,8.24528],[-76.05349,8.24252],[-76.04989,8.24122],[-76.04878,8.23943],[-76.04821,8.2366],[-76.04898,8.23607],[-76.04823,8.23598],[-76.05022,8.23267],[-76.05015,8.22577],[-76.0496,8.22408],[-76.04582,8.22055],[-76.04533,8.21843],[-76.0464,8.21655],[-76.05169,8.21392],[-76.05881,8.21641],[-76.0614,8.21585],[-76.06378,8.21383],[-76.06406,8.2118],[-76.06314,8.21071],[-76.05643,8.20974],[-76.0542,8.20634],[-76.05479,8.2052],[-76.0567,8.20434],[-76.06193,8.20424],[-76.0633,8.20264],[-76.06284,8.19923],[-76.05846,8.19479],[-76.05872,8.19273],[-76.06304,8.18908],[-76.06332,8.18705],[-76.06181,8.1792],[-76.06445,8.17768],[-76.06915,8.18075],[-76.07134,8.18043],[-76.073,8.17855],[-76.07265,8.17585],[-76.07334,8.17429],[-76.07571,8.1729],[-76.08315,8.17588],[-76.08838,8.17365],[-76.09423,8.17253],[-76.09524,8.17073],[-76.09514,8.16347],[-76.09753,8.15972],[-76.10126,8.15802],[-76.10686,8.1581],[-76.10849,8.15702],[-76.10875,8.15413],[-76.10546,8.14988],[-76.10514,8.14837],[-76.10595,8.14553],[-76.10842,8.14356],[-76.11117,8.1432],[-76.11349,8.14437],[-76.11556,8.14948],[-76.11869,8.15443],[-76.12072,8.15576],[-76.12235,8.15524],[-76.12356,8.1532],[-76.12055,8.14556],[-76.1211,8.14364],[-76.12327,8.14169],[-76.12734,8.14534],[-76.13009,8.14587],[-76.13149,8.14518],[-76.13275,8.14731],[-76.13551,8.14701],[-76.13806,8.14572],[-76.14131,8.14636],[-76.14221,8.1476],[-76.1414,8.14861],[-76.1426,8.14942],[-76.14362,8.14867],[-76.14358,8.1493],[-76.14604,8.14878],[-76.14657,8.14728],[-76.1475,8.14746],[-76.1459,8.14649],[-76.15474,8.14791],[-76.15593,8.14955],[-76.15801,8.15036],[-76.15998,8.14832],[-76.16176,8.14864],[-76.16282,8.14749],[-76.17247,8.14728]]]}},
{"type":"Feature","properties":{"id":22,"name":"Coveñas"},"geometry":{"type":"Polygon","coordinates":[[[-75.66793,9.34948],[-75.6715,9.34309],[-75.6778,9.34748],[-75.67922,9.34426],[-75.67983,9.34459],[-75.67868,9.34803],[-75.68113,9.34954],[-75.66793,9.34948]]]}},
{"type":"Feature","properties":{"id":23,"name":"Palmito"},"geometry":{"type":"MultiPolygon","coordinates":[[[[-75.63609,9.34946],[-75.63747,9.3486],[-75.64096,9.34888],[-75.64141,9.34954],[-75.63609,9.34946]]],[[[-75.60081,9.32591],[-75.60435,9.32763],[-75.60751,9.32703],[-75.61176,9.33133],[-75.61367,9.33129],[-75.61493,9.33772],[-75.61956,9.34045],[-75.62499,9.34703],[-75.62548,9.34954],[-75.60054,9.34954],[-75.60081,9.32591]]],[[[-75.60102,9.28017],[-75.60405,9.27989],[-75.60937,9.28099],[-75.60994,9.28297],[-75.60795,9.2838],[-75.6069,9.2877],[-75.60389,9.29255],[-75.60441,9.29591],[-75.60301,9.29941],[-75.60054,9.30018],[-75.60102,9.28017]]]]}},
{"type":"Feature","properties":{"id":24,"name":"Tierralta"},"geometry":{"type":"MultiPolygon","coordinates":[[[[-76.17235,8.14727],[-76.16266,8.14752],[-76.16176,8.14864],[-76.15998,8.14832],[-76.1581,8.15036],[-76.15593,8.14955],[-76.15474,8.14791],[-76.1459,8.14649],[-76.1475,8.14746],[-76.14657,8.14728],[-76.14604,8.14878],[-76.14358,8.1493],[-76.14362,8.14867],[-76.1426,8.14942],[-76.1414,8.14861],[-76.14221,8.1476],[-76.14131,8.14636],[-76.13806,8.14572],[-76.13551,8.14701],[-76.13275,8.14731],[-76.13149,8.14518],[-76.13009,8.14587],[-76.12734,8.14534],[-76.12327,8.14169],[-76.1211,8.14364],[-76.12055,8.14556],[-76.12356,8.1532],[-76.12235,8.15524],[-76.12072,8.15576],[-76.11869,8.15443],[-76.11556,8.14948],[-76.11349,8.14437],[-76.11148,8.14327],[-76.10914,8.14328],[-76.10619,8.1452],[-76.10514,8.14837],[-76.10546,8.14988],[-76.10875,8.15413],[-76.10849,8.15702],[-76.10686,8.1581],[-76.10126,8.15802],[-76.09753,8.15972],[-76.09514,8.16347],[-76.09524,8.17073],[-76.09423,8.17253],[-76.08838,8.17365],[-76.08315,8.17588],[-76.07571,8.1729],[-76.07334,8.17429],[-76.07265,8.17585],[-76.073,8.17855],[-76.07134,8.18043],[-76.06915,8.18075],[-76.06445,8.17768],[-76.06181,8.1792],[-76.06332,8.18705],[-76.06304,8.18908],[-76.05872,8.19273],[-76.05846,8.19479],[-76.06284,8.19923],[-76.0633,8.20264],[-76.06193,8.20424],[-76.0567,8.20434],[-76.05479,8.2052],[-76.0542,8.20634],[-76.05643,8.20974],[-76.06314,8.21071],[-76.06406,8.2118],[-76.06378,8.21383],[-76.0614,8.21585],[-76.05881,8.21641],[-76.05169,8.21392],[-76.0464,8.21655],[-76.0453,8.21878],[-76.04582,8.22055],[-76.0496,8.22408],[-76.05015,8.22577],[-76.05022,8.23267],[-76.04823,8.23598],[-76.04898,8.23607],[-76.04821,8.2366],[-76.0484,8.23815],[-76.04962,8.24099],[-76.05883,8.24587],[-76.065,8.24721],[-76.06581,8.25008],[-76.06263,8.25819],[-76.06288,8.26036],[-76.06564,8.26467],[-76.07029,8.26551],[-76.07152,8.26715],[-76.07151,8.26964],[-76.07064,8.27111],[-76.06553,8.27345],[-76.05988,8.27236],[-76.05562,8.26622],[-76.05317,8.26455],[-76.04888,8.26542],[-76.04712,8.26884],[-76.04769,8.27285],[-76.0503,8.27602],[-76.05336,8.27791],[-76.05484,8.28043],[-76.05464,8.28382],[-76.0521,8.28722],[-76.05189,8.28985],[-76.05296,8.29108],[-76.05712,8.29253],[-76.05833,8.29614],[-76.06072,8.29909],[-76.06245,8.30324],[-76.06253,8.30562],[-76.06122,8.30768],[-76.06079,8.31046],[-76.06366,8.31546],[-76.0637,8.31808],[-76.06046,8.32609],[-76.06088,8.32828],[-76.06321,8.33111],[-76.06336,8.33234],[-75.97561,8.32877],[-75.97449,8.3302],[-75.9778,8.33182],[-75.97674,8.33595],[-75.96974,8.33589],[-75.9697,8.32889],[-75.91582,8.32708],[-75.89993,8.3252],[-75.89775,8.32659],[-75.89104,8.32794],[-75.89105,8.32394],[-75.8879,8.32339],[-75.88286,8.3182],[-75.88238,8.31957],[-75.87817,8.31984],[-75.87805,8.31647],[-75.87191,8.31707],[-75.87188,8.31157],[-75.87073,8.30568],[-75.87231,8.29832],[-75.87238,8.29131],[-75.87085,8.28305],[-75.87148,8.28026],[-75.87069,8.27364],[-75.86797,8.27558],[-75.86557,8.27262],[-75.85342,8.27176],[-75.85263,8.27411],[-75.84667,8.2694],[-75.84659,8.27294],[-75.83886,8.2755],[-75.83775,8.27299],[-75.83626,8.27321],[-75.83322,8.27762],[-75.82922,8.28046],[-75.82936,8.28278],[-75.8286,8.28303],[-75.82928,8.28397],[-75.8281,8.28475],[-75.82702,8.28769],[-75.82815,8.29091],[-75.83015,8.29251],[-75.82981,8.29472],[-75.82862,8.29498],[-75.82827,8.29775],[-75.82622,8.29939],[-75.82468,8.30286],[-75.82279,8.30298],[-75.82221,8.30437],[-75.82152,8.30429],[-75.82161,8.30549],[-75.82042,8.30539],[-75.82085,8.30692],[-75.81981,8.30786],[-75.82092,8.31167],[-75.82004,8.3119],[-75.81964,8.31391],[-75.81869,8.31414],[-75.81845,8.31515],[-75.81787,8.31468],[-75.81817,8.31585],[-75.81735,8.31537],[-75.81741,8.3162],[-75.81632,8.31677],[-75.81347,8.31688],[-75.8088,8.32027],[-75.80145,8.31489],[-75.79684,8.31346],[-75.79284,8.30273],[-75.77736,8.30905],[-75.77456,8.30599],[-75.7744,8.30352],[-75.77333,8.30236],[-75.76937,8.2988],[-75.76557,8.29698],[-75.76438,8.29198],[-75.76476,8.29005],[-75.76759,8.28537],[-75.76975,8.28381],[-75.7705,8.2815],[-75.76897,8.27511],[-75.76767,8.27213],[-75.76645,8.27127],[-75.76501,8.26708],[-75.76341,8.26651],[-75.76302,8.26701],[-75.76169,8.26515],[-75.76034,8.26495],[-75.75866,8.26599],[-75.75756,8.26391],[-75.75421,8.26308],[-75.7564,8.25811],[-75.75642,8.25371],[-75.75609,8.2525],[-75.75325,8.2534],[-75.75484,8.24014],[-75.75199,8.23802],[-75.75554,8.23154],[-75.76274,8.223],[-75.76724,8.22693],[-75.77177,8.22],[-75.7725,8.21743],[-75.77421,8.2156],[-75.77506,8.21233],[-75.77445,8.2119],[-75.77851,8.20599],[-75.78027,8.2062],[-75.78295,8.20337],[-75.78602,8.19846],[-75.78581,8.19566],[-75.78753,8.19064],[-75.79056,8.18524],[-75.79037,8.18346],[-75.7936,8.18487],[-75.79528,8.17745],[-75.80039,8.16807],[-75.80084,8.17043],[-75.80306,8.17222],[-75.80679,8.16348],[-75.80955,8.16502],[-75.81159,8.16463],[-75.81451,8.16267],[-75.81532,8.16063],[-75.81715,8.16093],[-75.81949,8.157],[-75.81934,8.15518],[-75.82113,8.15344],[-75.82585,8.15413],[-75.82853,8.14916],[-75.83105,8.14903],[-75.83191,8.14763],[-75.83388,8.14752],[-75.83541,8.1465],[-75.83543,8.14516],[-75.83696,8.14325],[-75.83692,8.14119],[-75.83498,8.14013],[-75.83678,8.13597],[-75.83626,8.1337],[-76.17247,8.1337],[-76.17235,8.14727]]],[[[-76.17227,8.14984],[-76.17188,8.14922],[-76.17198,8.14894],[-76.17247,8.14896],[-76.17227,8.14984]]]]}}
]
}
