{
  "type": "FeatureCollection",
  "features": [
    {
      "type": "Feature",
      "geometry": {
        "type": "Polygon",
        "coordinates": [
          [
            [
              -75.9784931972654,
              9.293545672359242
            ],
            [
              -75.9784931972654,
              9.339539414906161
            ],
            [
              -76.02448693981232,
              9.339539414906161
            ],
            [
              -76.02448693981232,
              9.293545672359242
            ],
            [
              -75.9784931972654,
              9.293545672359242
            ]
          ]
        ]
      },
      "properties": {
        "id": "E3",
        "bounds": [
          -76.02448693981232,
          9.293545672359242,
          -75.9784931972654,
          9.339539414906161
        ],
        "flood_share": 0.21
      }
    },
    {
      "type": "Feature",
      "geometry": {
        "type": "Polygon",
        "coordinates": [
          [
            [
              -75.93249945471848,
              9.293545672359242
            ],
            [
              -75.93249945471848,
              9.339539414906161
            ],
            [
              -75.9784931972654,
              9.339539414906161
            ],
            [
              -75.9784931972654,
              9.293545672359242
            ],
            [
              -75.93249945471848,
              9.293545672359242
            ]
          ]
        ]
      },
      "properties": {
        "id": "F3",
        "bounds": [
          -75.9784931972654,
          9.293545672359242,
          -75.93249945471848,
          9.339539414906161
        ],
        "flood_share": 0.234
      }
    },
    {
      "type": "Feature",
      "geometry": {
        "type": "Polygon",
        "coordinates": [
          [
            [
              -75.88650571217156,
              9.293545672359242
            ],
            [
              -75.88650571217156,
              9.339539414906161
            ],
            [
              -75.93249945471848,
              9.339539414906161
            ],
            [
              -75.93249945471848,
              9.293545672359242
            ],
            [
              -75.88650571217156,
              9.293545672359242
            ]
          ]
        ]
      },
      "properties": {
        "id": "G3",
        "bounds": [
          -75.93249945471848,
          9.293545672359242,
          -75.88650571217156,
          9.339539414906161
        ],
        "flood_share": 0.081
      }
    },
    {
      "type": "Feature",
      "geometry": {
        "type": "Polygon",
        "coordinates": [
          [
            [
              -75.9784931972654,
              9.247551929812321
            ],
            [
              -75.9784931972654,
              9.293545672359242
            ],
            [
              -76.02448693981232,
              9.293545672359242
            ],
            [
              -76.02448693981232,
              9.247551929812321
            ],
            [
              -75.9784931972654,
              9.247551929812321
            ]
          ]
        ]
      },
      "properties": {
        "id": "E4",
        "bounds": [
          -76.02448693981232,
          9.247551929812321,
          -75.9784931972654,
          9.293545672359242
        ],
        "flood_share": 0.058
      }
    },
    {
      "type": "Feature",
      "geometry": {
        "type": "Polygon",
        "coordinates": [
          [
            [
              -75.93249945471848,
              9.247551929812321
            ],
            [
              -75.93249945471848,
              9.293545672359242
            ],
            [
              -75.9784931972654,
              9.293545672359242
            ],
            [
              -75.9784931972654,
              9.247551929812321
            ],
            [
              -75.93249945471848,
              9.247551929812321
            ]
          ]
        ]
      },
      "properties": {
        "id": "F4",
        "bounds": [
          -75.9784931972654,
          9.247551929812321,
          -75.93249945471848,
          9.293545672359242
        ],
        "flood_share": 0.222
      }
    },
    {
      "type": "Feature",
      "geometry": {
        "type": "Polygon",
        "coordinates": [
          [
            [
              -75.88650571217156,
              9.247551929812321
            ],
            [
              -75.88650571217156,
              9.293545672359242
            ],
            [
              -75.93249945471848,
              9.293545672359242
            ],
            [
              -75.93249945471848,
              9.247551929812321
            ],
            [
              -75.88650571217156,
              9.247551929812321
            ]
          ]
        ]
      },
      "properties": {
        "id": "G4",
        "bounds": [
          -75.93249945471848,
          9.247551929812321,
          -75.88650571217156,
          9.293545672359242
        ],
        "flood_share": 0.096
      }
    },
    {
      "type": "Feature",
      "geometry": {
        "type": "Polygon",
        "coordinates": [
          [
            [
              -75.93249945471848,
              9.201558187265402
            ],
            [
              -75.93249945471848,
              9.247551929812321
            ],
            [
              -75.9784931972654,
              9.247551929812321
            ],
            [
              -75.9784931972654,
              9.201558187265402
            ],
            [
              -75.93249945471848,
              9.201558187265402
            ]
          ]
        ]
      },
      "properties": {
        "id": "F5",
        "bounds": [
          -75.9784931972654,
          9.201558187265402,
          -75.93249945471848,
          9.247551929812321
        ],
        "flood_share": 0.064
      }
    },
    {
      "type": "Feature",
      "geometry": {
        "type": "Polygon",
        "coordinates": [
          [
            [
              -75.88650571217156,
              9.201558187265402
            ],
            [
              -75.88650571217156,
              9.247551929812321
            ],
            [
              -75.93249945471848,
              9.247551929812321
            ],
            [
              -75.93249945471848,
              9.201558187265402
            ],
            [
              -75.88650571217156,
              9.201558187265402
            ]
          ]
        ]
      },
      "properties": {
        "id": "G5",
        "bounds": [
          -75.93249945471848,
          9.201558187265402,
          -75.88650571217156,
          9.247551929812321
        ],
        "flood_share": 0.123
      }
    },
    {
      "type": "Feature",
      "geometry": {
        "type": "Polygon",
        "coordinates": [
          [
            [
              -75.70253074198388,
              9.201558187265402
            ],
            [
              -75.70253074198388,
              9.247551929812321
            ],
            [
              -75.7485244845308,
              9.247551929812321
            ],
            [
              -75.7485244845308,
              9.201558187265402
            ],
            [
              -75.70253074198388,
              9.201558187265402
            ]
          ]
        ]
      },
      "properties": {
        "id": "K5",
        "bounds": [
          -75.7485244845308,
          9.201558187265402,
          -75.70253074198388,
          9.247551929812321
        ],
        "flood_share": 0.069
      }
    },
    {
      "type": "Feature",
      "geometry": {
        "type": "Polygon",
        "coordinates": [
          [
            [
              -75.65653699943697,
              9.201558187265402
            ],
            [
              -75.65653699943697,
              9.247551929812321
            ],
            [
              -75.70253074198388,
              9.247551929812321
            ],
            [
              -75.70253074198388,
              9.201558187265402
            ],
            [
              -75.65653699943697,
              9.201558187265402
            ]
          ]
        ]
      },
      "properties": {
        "id": "L5",
        "bounds": [
          -75.70253074198388,
          9.201558187265402,
          -75.65653699943697,
          9.247551929812321
        ],
        "flood_share": 0.05
      }
    },
    {
      "type": "Feature",
      "geometry": {
        "type": "Polygon",
        "coordinates": [
          [
            [
              -75.88650571217156,
              9.155564444718483
            ],
            [
              -75.88650571217156,
              9.201558187265402
            ],
            [
              -75.93249945471848,
              9.201558187265402
            ],
            [
              -75.93249945471848,
              9.155564444718483
            ],
            [
              -75.88650571217156,
              9.155564444718483
            ]
          ]
        ]
      },
      "properties": {
        "id": "G6",
        "bounds": [
          -75.93249945471848,
          9.155564444718483,
          -75.88650571217156,
          9.201558187265402
        ],
        "flood_share": 0.095
      }
    },
    {
      "type": "Feature",
      "geometry": {
        "type": "Polygon",
        "coordinates": [
          [
            [
              -75.84051196962464,
              9.155564444718483
            ],
            [
              -75.84051196962464,
              9.201558187265402
            ],
            [
              -75.88650571217156,
              9.201558187265402
            ],
            [
              -75.88650571217156,
              9.155564444718483
            ],
            [
              -75.84051196962464,
              9.155564444718483
            ]
          ]
        ]
      },
      "properties": {
        "id": "H6",
        "bounds": [
          -75.88650571217156,
          9.155564444718483,
          -75.84051196962464,
          9.201558187265402
        ],
        "flood_share": 0.152
      }
    },
    {
      "type": "Feature",
      "geometry": {
        "type": "Polygon",
        "coordinates": [
          [
            [
              -75.79451822707772,
              9.155564444718483
            ],
            [
              -75.79451822707772,
              9.201558187265402
            ],
            [
              -75.84051196962464,
              9.201558187265402
            ],
            [
              -75.84051196962464,
              9.155564444718483
            ],
            [
              -75.79451822707772,
              9.155564444718483
            ]
          ]
        ]
      },
      "properties": {
        "id": "I6",
        "bounds": [
          -75.84051196962464,
          9.155564444718483,
          -75.79451822707772,
          9.201558187265402
        ],
        "flood_share": 0.058
      }
    },
    {
      "type": "Feature",
      "geometry": {
        "type": "Polygon",
        "coordinates": [
          [
            [
              -75.7485244845308,
              9.155564444718483
            ],
            [
              -75.7485244845308,
              9.201558187265402
            ],
            [
              -75.79451822707772,
              9.201558187265402
            ],
            [
              -75.79451822707772,
              9.155564444718483
            ],
            [
              -75.7485244845308,
              9.155564444718483
            ]
          ]
        ]
      },
      "properties": {
        "id": "J6",
        "bounds": [
          -75.79451822707772,
          9.155564444718483,
          -75.7485244845308,
          9.201558187265402
        ],
        "flood_share": 0.21
      }
    },
    {
      "type": "Feature",
      "geometry": {
        "type": "Polygon",
        "coordinates": [
          [
            [
              -75.70253074198388,
              9.155564444718483
            ],
            [
              -75.70253074198388,
              9.201558187265402
            ],
            [
              -75.7485244845308,
              9.201558187265402
            ],
            [
              -75.7485244845308,
              9.155564444718483
            ],
            [
              -75.70253074198388,
              9.155564444718483
            ]
          ]
        ]
      },
      "properties": {
        "id": "K6",
        "bounds": [
          -75.7485244845308,
          9.155564444718483,
          -75.70253074198388,
          9.201558187265402
        ],
        "flood_share": 0.206
      }
    },
    {
      "type": "Feature",
      "geometry": {
        "type": "Polygon",
        "coordinates": [
          [
            [
              -75.65653699943697,
              9.155564444718483
            ],
            [
              -75.65653699943697,
              9.201558187265402
            ],
            [
              -75.70253074198388,
              9.201558187265402
            ],
            [
              -75.70253074198388,
              9.155564444718483
            ],
            [
              -75.65653699943697,
              9.155564444718483
            ]
          ]
        ]
      },
      "properties": {
        "id": "L6",
        "bounds": [
          -75.70253074198388,
          9.155564444718483,
          -75.65653699943697,
          9.201558187265402
        ],
        "flood_share": 0.253
      }
    },
    {
      "type": "Feature",
      "geometry": {
        "type": "Polygon",
        "coordinates": [
          [
            [
              -75.61054325689004,
              9.155564444718483
            ],
            [
              -75.61054325689004,
              9.201558187265402
            ],
            [
              -75.65653699943697,
              9.201558187265402
            ],
            [
              -75.65653699943697,
              9.155564444718483
            ],
            [
              -75.61054325689004,
              9.155564444718483
            ]
          ]
        ]
      },
      "properties": {
        "id": "M6",
        "bounds": [
          -75.65653699943697,
          9.155564444718483,
          -75.61054325689004,
          9.201558187265402
        ],
        "flood_share": 0.054
      }
    },
    {
      "type": "Feature",
      "geometry": {
        "type": "Polygon",
        "coordinates": [
          [
            [
              -75.84051196962464,
              9.109570702171563
            ],
            [
              -75.84051196962464,
              9.155564444718483
            ],
            [
              -75.88650571217156,
              9.155564444718483
            ],
            [
              -75.88650571217156,
              9.109570702171563
            ],
            [
              -75.84051196962464,
              9.109570702171563
            ]
          ]
        ]
      },
      "properties": {
        "id": "H7",
        "bounds": [
          -75.88650571217156,
          9.109570702171563,
          -75.84051196962464,
          9.155564444718483
        ],
        "flood_share": 0.151
      }
    },
    {
      "type": "Feature",
      "geometry": {
        "type": "Polygon",
        "coordinates": [
          [
            [
              -75.7485244845308,
              9.109570702171563
            ],
            [
              -75.7485244845308,
              9.155564444718483
            ],
            [
              -75.79451822707772,
              9.155564444718483
            ],
            [
              -75.79451822707772,
              9.109570702171563
            ],
            [
              -75.7485244845308,
              9.109570702171563
            ]
          ]
        ]
      },
      "properties": {
        "id": "J7",
        "bounds": [
          -75.79451822707772,
          9.109570702171563,
          -75.7485244845308,
          9.155564444718483
        ],
        "flood_share": 0.219
      }
    },
    {
      "type": "Feature",
      "geometry": {
        "type": "Polygon",
        "coordinates": [
          [
            [
              -75.70253074198388,
              9.109570702171563
            ],
            [
              -75.70253074198388,
              9.155564444718483
            ],
            [
              -75.7485244845308,
              9.155564444718483
            ],
            [
              -75.7485244845308,
              9.109570702171563
            ],
            [
              -75.70253074198388,
              9.109570702171563
            ]
          ]
        ]
      },
      "properties": {
        "id": "K7",
        "bounds": [
          -75.7485244845308,
          9.109570702171563,
          -75.70253074198388,
          9.155564444718483
        ],
        "flood_share": 0.197
      }
    },
    {
      "type": "Feature",
      "geometry": {
        "type": "Polygon",
        "coordinates": [
          [
            [
              -75.65653699943697,
              9.109570702171563
            ],
            [
              -75.65653699943697,
              9.155564444718483
            ],
            [
              -75.70253074198388,
              9.155564444718483
            ],
            [
              -75.70253074198388,
              9.109570702171563
            ],
            [
              -75.65653699943697,
              9.109570702171563
            ]
          ]
        ]
      },
      "properties": {
        "id": "L7",
        "bounds": [
          -75.70253074198388,
          9.109570702171563,
          -75.65653699943697,
          9.155564444718483
        ],
        "flood_share": 0.123
      }
    },
    {
      "type": "Feature",
      "geometry": {
        "type": "Polygon",
        "coordinates": [
          [
            [
              -75.61054325689004,
              9.109570702171563
            ],
            [
              -75.61054325689004,
              9.155564444718483
            ],
            [
              -75.65653699943697,
              9.155564444718483
            ],
            [
              -75.65653699943697,
              9.109570702171563
            ],
            [
              -75.61054325689004,
              9.109570702171563
            ]
          ]
        ]
      },
      "properties": {
        "id": "M7",
        "bounds": [
          -75.65653699943697,
          9.109570702171563,
          -75.61054325689004,
          9.155564444718483
        ],
        "flood_share": 0.087
      }
    },
    {
      "type": "Feature",
      "geometry": {
        "type": "Polygon",
        "coordinates": [
          [
            [
              -75.84051196962464,
              9.063576959624644
            ],
            [
              -75.84051196962464,
              9.109570702171563
            ],
            [
              -75.88650571217156,
              9.109570702171563
            ],
            [
              -75.88650571217156,
              9.063576959624644
            ],
            [
              -75.84051196962464,
              9.063576959624644
            ]
          ]
        ]
      },
      "properties": {
        "id": "H8",
        "bounds": [
          -75.88650571217156,
          9.063576959624644,
          -75.84051196962464,
          9.109570702171563
        ],
        "flood_share": 0.219
      }
    },
    {
      "type": "Feature",
      "geometry": {
        "type": "Polygon",
        "coordinates": [
          [
            [
              -75.65653699943697,
              9.063576959624644
            ],
            [
              -75.65653699943697,
              9.109570702171563
            ],
            [
              -75.70253074198388,
              9.109570702171563
            ],
            [
              -75.70253074198388,
              9.063576959624644
            ],
            [
              -75.65653699943697,
              9.063576959624644
            ]
          ]
        ]
      },
      "properties": {
        "id": "L8",
        "bounds": [
          -75.70253074198388,
          9.063576959624644,
          -75.65653699943697,
          9.109570702171563
        ],
        "flood_share": 0.079
      }
    },
    {
      "type": "Feature",
      "geometry": {
        "type": "Polygon",
        "coordinates": [
          [
            [
              -75.84051196962464,
              9.017583217077725
            ],
            [
              -75.84051196962464,
              9.063576959624644
            ],
            [
              -75.88650571217156,
              9.063576959624644
            ],
            [
              -75.88650571217156,
              9.017583217077725
            ],
            [
              -75.84051196962464,
              9.017583217077725
            ]
          ]
        ]
      },
      "properties": {
        "id": "H9",
        "bounds": [
          -75.88650571217156,
          9.017583217077725,
          -75.84051196962464,
          9.063576959624644
        ],
        "flood_share": 0.227
      }
    },
    {
      "type": "Feature",
      "geometry": {
        "type": "Polygon",
        "coordinates": [
          [
            [
              -75.70253074198388,
              8.833608246890046
            ],
            [
              -75.70253074198388,
              8.879601989436965
            ],
            [
              -75.7485244845308,
              8.879601989436965
            ],
            [
              -75.7485244845308,
              8.833608246890046
            ],
            [
              -75.70253074198388,
              8.833608246890046
            ]
          ]
        ]
      },
      "properties": {
        "id": "K13",
        "bounds": [
          -75.7485244845308,
          8.833608246890046,
          -75.70253074198388,
          8.879601989436965
        ],
        "flood_share": 0.052
      }
    },
    {
      "type": "Feature",
      "geometry": {
        "type": "Polygon",
        "coordinates": [
          [
            [
              -75.61054325689004,
              8.833608246890046
            ],
            [
              -75.61054325689004,
              8.879601989436965
            ],
            [
              -75.65653699943697,
              8.879601989436965
            ],
            [
              -75.65653699943697,
              8.833608246890046
            ],
            [
              -75.61054325689004,
              8.833608246890046
            ]
          ]
        ]
      },
      "properties": {
        "id": "M13",
        "bounds": [
          -75.65653699943697,
          8.833608246890046,
          -75.61054325689004,
          8.879601989436965
        ],
        "flood_share": 0.075
      }
    },
    {
      "type": "Feature",
      "geometry": {
        "type": "Polygon",
        "coordinates": [
          [
            [
              -75.93249945471848,
              8.787614504343127
            ],
            [
              -75.93249945471848,
              8.833608246890046
            ],
            [
              -75.9784931972654,
              8.833608246890046
            ],
            [
              -75.9784931972654,
              8.787614504343127
            ],
            [
              -75.93249945471848,
              8.787614504343127
            ]
          ]
        ]
      },
      "properties": {
        "id": "F14",
        "bounds": [
          -75.9784931972654,
          8.787614504343127,
          -75.93249945471848,
          8.833608246890046
        ],
        "flood_share": 0.161
      }
    },
    {
      "type": "Feature",
      "geometry": {
        "type": "Polygon",
        "coordinates": [
          [
            [
              -75.88650571217156,
              8.787614504343127
            ],
            [
              -75.88650571217156,
              8.833608246890046
            ],
            [
              -75.93249945471848,
              8.833608246890046
            ],
            [
              -75.93249945471848,
              8.787614504343127
            ],
            [
              -75.88650571217156,
              8.787614504343127
            ]
          ]
        ]
      },
      "properties": {
        "id": "G14",
        "bounds": [
          -75.93249945471848,
          8.787614504343127,
          -75.88650571217156,
          8.833608246890046
        ],
        "flood_share": 0.055
      }
    },
    {
      "type": "Feature",
      "geometry": {
        "type": "Polygon",
        "coordinates": [
          [
            [
              -75.65653699943697,
              8.787614504343127
            ],
            [
              -75.65653699943697,
              8.833608246890046
            ],
            [
              -75.70253074198388,
              8.833608246890046
            ],
            [
              -75.70253074198388,
              8.787614504343127
            ],
            [
              -75.65653699943697,
              8.787614504343127
            ]
          ]
        ]
      },
      "properties": {
        "id": "L14",
        "bounds": [
          -75.70253074198388,
          8.787614504343127,
          -75.65653699943697,
          8.833608246890046
        ],
        "flood_share": 0.055
      }
    },
    {
      "type": "Feature",
      "geometry": {
        "type": "Polygon",
        "coordinates": [
          [
            [
              -75.9784931972654,
              8.741620761796208
            ],
            [
              -75.9784931972654,
              8.787614504343127
            ],
            [
              -76.02448693981232,
              8.787614504343127
            ],
            [
              -76.02448693981232,
              8.741620761796208
            ],
            [
              -75.9784931972654,
              8.741620761796208
            ]
          ]
        ]
      },
      "properties": {
        "id": "E15",
        "bounds": [
          -76.02448693981232,
          8.741620761796208,
          -75.9784931972654,
          8.787614504343127
        ],
        "flood_share": 0.069
      }
    },
    {
      "type": "Feature",
      "geometry": {
        "type": "Polygon",
        "coordinates": [
          [
            [
              -75.93249945471848,
              8.741620761796208
            ],
            [
              -75.93249945471848,
              8.787614504343127
            ],
            [
              -75.9784931972654,
              8.787614504343127
            ],
            [
              -75.9784931972654,
              8.741620761796208
            ],
            [
              -75.93249945471848,
              8.741620761796208
            ]
          ]
        ]
      },
      "properties": {
        "id": "F15",
        "bounds": [
          -75.9784931972654,
          8.741620761796208,
          -75.93249945471848,
          8.787614504343127
        ],
        "flood_share": 0.135
      }
    },
    {
      "type": "Feature",
      "geometry": {
        "type": "Polygon",
        "coordinates": [
          [
            [
              -75.9784931972654,
              8.695627019249288
            ],
            [
              -75.9784931972654,
              8.741620761796208
            ],
            [
              -76.02448693981232,
              8.741620761796208
            ],
            [
              -76.02448693981232,
              8.695627019249288
            ],
            [
              -75.9784931972654,
              8.695627019249288
            ]
          ]
        ]
      },
      "properties": {
        "id": "E16",
        "bounds": [
          -76.02448693981232,
          8.695627019249288,
          -75.9784931972654,
          8.741620761796208
        ],
        "flood_share": 0.145
      }
    },
    {
      "type": "Feature",
      "geometry": {
        "type": "Polygon",
        "coordinates": [
          [
            [
              -75.7485244845308,
              8.695627019249288
            ],
            [
              -75.7485244845308,
              8.741620761796208
            ],
            [
              -75.79451822707772,
              8.741620761796208
            ],
            [
              -75.79451822707772,
              8.695627019249288
            ],
            [
              -75.7485244845308,
              8.695627019249288
            ]
          ]
        ]
      },
      "properties": {
        "id": "J16",
        "bounds": [
          -75.79451822707772,
          8.695627019249288,
          -75.7485244845308,
          8.741620761796208
        ],
        "flood_share": 0.179
      }
    },
    {
      "type": "Feature",
      "geometry": {
        "type": "Polygon",
        "coordinates": [
          [
            [
              -76.02448693981232,
              8.649633276702367
            ],
            [
              -76.02448693981232,
              8.695627019249288
            ],
            [
              -76.07048068235923,
              8.695627019249288
            ],
            [
              -76.07048068235923,
              8.649633276702367
            ],
            [
              -76.02448693981232,
              8.649633276702367
            ]
          ]
        ]
      },
      "properties": {
        "id": "D17",
        "bounds": [
          -76.07048068235923,
          8.649633276702367,
          -76.02448693981232,
          8.695627019249288
        ],
        "flood_share": 0.106
      }
    },
    {
      "type": "Feature",
      "geometry": {
        "type": "Polygon",
        "coordinates": [
          [
            [
              -75.9784931972654,
              8.649633276702367
            ],
            [
              -75.9784931972654,
              8.695627019249288
            ],
            [
              -76.02448693981232,
              8.695627019249288
            ],
            [
              -76.02448693981232,
              8.649633276702367
            ],
            [
              -75.9784931972654,
              8.649633276702367
            ]
          ]
        ]
      },
      "properties": {
        "id": "E17",
        "bounds": [
          -76.02448693981232,
          8.649633276702367,
          -75.9784931972654,
          8.695627019249288
        ],
        "flood_share": 0.367
      }
    },
    {
      "type": "Feature",
      "geometry": {
        "type": "Polygon",
        "coordinates": [
          [
            [
              -76.02448693981232,
              8.603639534155448
            ],
            [
              -76.02448693981232,
              8.649633276702367
            ],
            [
              -76.07048068235923,
              8.649633276702367
            ],
            [
              -76.07048068235923,
              8.603639534155448
            ],
            [
              -76.02448693981232,
              8.603639534155448
            ]
          ]
        ]
      },
      "properties": {
        "id": "D18",
        "bounds": [
          -76.07048068235923,
          8.603639534155448,
          -76.02448693981232,
          8.649633276702367
        ],
        "flood_share": 0.245
      }
    },
    {
      "type": "Feature",
      "geometry": {
        "type": "Polygon",
        "coordinates": [
          [
            [
              -75.9784931972654,
              8.603639534155448
            ],
            [
              -75.9784931972654,
              8.649633276702367
            ],
            [
              -76.02448693981232,
              8.649633276702367
            ],
            [
              -76.02448693981232,
              8.603639534155448
            ],
            [
              -75.9784931972654,
              8.603639534155448
            ]
          ]
        ]
      },
      "properties": {
        "id": "E18",
        "bounds": [
          -76.02448693981232,
          8.603639534155448,
          -75.9784931972654,
          8.649633276702367
        ],
        "flood_share": 0.471
      }
    },
    {
      "type": "Feature",
      "geometry": {
        "type": "Polygon",
        "coordinates": [
          [
            [
              -76.07048068235923,
              8.557645791608529
            ],
            [
              -76.07048068235923,
              8.603639534155448
            ],
            [
              -76.11647442490616,
              8.603639534155448
            ],
            [
              -76.11647442490616,
              8.557645791608529
            ],
            [
              -76.07048068235923,
              8.557645791608529
            ]
          ]
        ]
      },
      "properties": {
        "id": "C19",
        "bounds": [
          -76.11647442490616,
          8.557645791608529,
          -76.07048068235923,
          8.603639534155448
        ],
        "flood_share": 0.084
      }
    },
    {
      "type": "Feature",
      "geometry": {
        "type": "Polygon",
        "coordinates": [
          [
            [
              -76.02448693981232,
              8.557645791608529
            ],
            [
              -76.02448693981232,
              8.603639534155448
            ],
            [
              -76.07048068235923,
              8.603639534155448
            ],
            [
              -76.07048068235923,
              8.557645791608529
            ],
            [
              -76.02448693981232,
              8.557645791608529
            ]
          ]
        ]
      },
      "properties": {
        "id": "D19",
        "bounds": [
          -76.07048068235923,
          8.557645791608529,
          -76.02448693981232,
          8.603639534155448
        ],
        "flood_share": 0.352
      }
    },
    {
      "type": "Feature",
      "geometry": {
        "type": "Polygon",
        "coordinates": [
          [
            [
              -75.9784931972654,
              8.557645791608529
            ],
            [
              -75.9784931972654,
              8.603639534155448
            ],
            [
              -76.02448693981232,
              8.603639534155448
            ],
            [
              -76.02448693981232,
              8.557645791608529
            ],
            [
              -75.9784931972654,
              8.557645791608529
            ]
          ]
        ]
      },
      "properties": {
        "id": "E19",
        "bounds": [
          -76.02448693981232,
          8.557645791608529,
          -75.9784931972654,
          8.603639534155448
        ],
        "flood_share": 0.056
      }
    },
    {
      "type": "Feature",
      "geometry": {
        "type": "Polygon",
        "coordinates": [
          [
            [
              -76.02448693981232,
              8.51165204906161
            ],
            [
              -76.02448693981232,
              8.557645791608529
            ],
            [
              -76.07048068235923,
              8.557645791608529
            ],
            [
              -76.07048068235923,
              8.51165204906161
            ],
            [
              -76.02448693981232,
              8.51165204906161
            ]
          ]
        ]
      },
      "properties": {
        "id": "D20",
        "bounds": [
          -76.07048068235923,
          8.51165204906161,
          -76.02448693981232,
          8.557645791608529
        ],
        "flood_share": 0.062
      }
    },
    {
      "type": "Feature",
      "geometry": {
        "type": "Polygon",
        "coordinates": [
          [
            [
              -75.9784931972654,
              8.51165204906161
            ],
            [
              -75.9784931972654,
              8.557645791608529
            ],
            [
              -76.02448693981232,
              8.557645791608529
            ],
            [
              -76.02448693981232,
              8.51165204906161
            ],
            [
              -75.9784931972654,
              8.51165204906161
            ]
          ]
        ]
      },
      "properties": {
        "id": "E20",
        "bounds": [
          -76.02448693981232,
          8.51165204906161,
          -75.9784931972654,
          8.557645791608529
        ],
        "flood_share": 0.097
      }
    },
    {
      "type": "Feature",
      "geometry": {
        "type": "Polygon",
        "coordinates": [
          [
            [
              -75.9784931972654,
              8.46565830651469
            ],
            [
              -75.9784931972654,
              8.51165204906161
            ],
            [
              -76.02448693981232,
              8.51165204906161
            ],
            [
              -76.02448693981232,
              8.46565830651469
            ],
            [
              -75.9784931972654,
              8.46565830651469
            ]
          ]
        ]
      },
      "properties": {
        "id": "E21",
        "bounds": [
          -76.02448693981232,
          8.46565830651469,
          -75.9784931972654,
          8.51165204906161
        ],
        "flood_share": 0.207
      }
    },
    {
      "type": "Feature",
      "geometry": {
        "type": "Polygon",
        "coordinates": [
          [
            [
              -76.02448693981232,
              8.419664563967771
            ],
            [
              -76.02448693981232,
              8.46565830651469
            ],
            [
              -76.07048068235923,
              8.46565830651469
            ],
            [
              -76.07048068235923,
              8.419664563967771
            ],
            [
              -76.02448693981232,
              8.419664563967771
            ]
          ]
        ]
      },
      "properties": {
        "id": "D22",
        "bounds": [
          -76.07048068235923,
          8.419664563967771,
          -76.02448693981232,
          8.46565830651469
        ],
        "flood_share": 0.053
      }
    },
    {
      "type": "Feature",
      "geometry": {
        "type": "Polygon",
        "coordinates": [
          [
            [
              -75.9784931972654,
              8.419664563967771
            ],
            [
              -75.9784931972654,
              8.46565830651469
            ],
            [
              -76.02448693981232,
              8.46565830651469
            ],
            [
              -76.02448693981232,
              8.419664563967771
            ],
            [
              -75.9784931972654,
              8.419664563967771
            ]
          ]
        ]
      },
      "properties": {
        "id": "E22",
        "bounds": [
          -76.02448693981232,
          8.419664563967771,
          -75.9784931972654,
          8.46565830651469
        ],
        "flood_share": 0.131
      }
    },
    {
      "type": "Feature",
      "geometry": {
        "type": "Polygon",
        "coordinates": [
          [
            [
              -76.02448693981232,
              8.373670821420852
            ],
            [
              -76.02448693981232,
              8.419664563967771
            ],
            [
              -76.07048068235923,
              8.419664563967771
            ],
            [
              -76.07048068235923,
              8.373670821420852
            ],
            [
              -76.02448693981232,
              8.373670821420852
            ]
          ]
        ]
      },
      "properties": {
        "id": "D23",
        "bounds": [
          -76.07048068235923,
          8.373670821420852,
          -76.02448693981232,
          8.419664563967771
        ],
        "flood_share": 0.262
      }
    },
    {
      "type": "Feature",
      "geometry": {
        "type": "Polygon",
        "coordinates": [
          [
            [
              -75.9784931972654,
              8.373670821420852
            ],
            [
              -75.9784931972654,
              8.419664563967771
            ],
            [
              -76.02448693981232,
              8.419664563967771
            ],
            [
              -76.02448693981232,
              8.373670821420852
            ],
            [
              -75.9784931972654,
              8.373670821420852
            ]
          ]
        ]
      },
      "properties": {
        "id": "E23",
        "bounds": [
          -76.02448693981232,
          8.373670821420852,
          -75.9784931972654,
          8.419664563967771
        ],
        "flood_share": 0.101
      }
    },
    {
      "type": "Feature",
      "geometry": {
        "type": "Polygon",
        "coordinates": [
          [
            [
              -76.07048068235923,
              8.327677078873933
            ],
            [
              -76.07048068235923,
              8.373670821420852
            ],
            [
              -76.11647442490616,
              8.373670821420852
            ],
            [
              -76.11647442490616,
              8.327677078873933
            ],
            [
              -76.07048068235923,
              8.327677078873933
            ]
          ]
        ]
      },
      "properties": {
        "id": "C24",
        "bounds": [
          -76.11647442490616,
          8.327677078873933,
          -76.07048068235923,
          8.373670821420852
        ],
        "flood_share": 0.131
      }
    },
    {
      "type": "Feature",
      "geometry": {
        "type": "Polygon",
        "coordinates": [
          [
            [
              -76.02448693981232,
              8.327677078873933
            ],
            [
              -76.02448693981232,
              8.373670821420852
            ],
            [
              -76.07048068235923,
              8.373670821420852
            ],
            [
              -76.07048068235923,
              8.327677078873933
            ],
            [
              -76.02448693981232,
              8.327677078873933
            ]
          ]
        ]
      },
      "properties": {
        "id": "D24",
        "bounds": [
          -76.07048068235923,
          8.327677078873933,
          -76.02448693981232,
          8.373670821420852
        ],
        "flood_share": 0.198
      }
    },
    {
      "type": "Feature",
      "geometry": {
        "type": "Polygon",
        "coordinates": [
          [
            [
              -76.11647442490616,
              8.281683336327012
            ],
            [
              -76.11647442490616,
              8.327677078873933
            ],
            [
              -76.16246816745307,
              8.327677078873933
            ],
            [
              -76.16246816745307,
              8.281683336327012
            ],
            [
              -76.11647442490616,
              8.281683336327012
            ]
          ]
        ]
      },
      "properties": {
        "id": "B25",
        "bounds": [
          -76.16246816745307,
          8.281683336327012,
          -76.11647442490616,
          8.327677078873933
        ],
        "flood_share": 0.061
      }
    },
    {
      "type": "Feature",
      "geometry": {
        "type": "Polygon",
        "coordinates": [
          [
            [
              -76.07048068235923,
              8.281683336327012
            ],
            [
              -76.07048068235923,
              8.327677078873933
            ],
            [
              -76.11647442490616,
              8.327677078873933
            ],
            [
              -76.11647442490616,
              8.281683336327012
            ],
            [
              -76.07048068235923,
              8.281683336327012
            ]
          ]
        ]
      },
      "properties": {
        "id": "C25",
        "bounds": [
          -76.11647442490616,
          8.281683336327012,
          -76.07048068235923,
          8.327677078873933
        ],
        "flood_share": 0.288
      }
    },
    {
      "type": "Feature",
      "geometry": {
        "type": "Polygon",
        "coordinates": [
          [
            [
              -76.07048068235923,
              8.235689593780092
            ],
            [
              -76.07048068235923,
              8.281683336327012
            ],
            [
              -76.11647442490616,
              8.281683336327012
            ],
            [
              -76.11647442490616,
              8.235689593780092
            ],
            [
              -76.07048068235923,
              8.235689593780092
            ]
          ]
        ]
      },
      "properties": {
        "id": "C26",
        "bounds": [
          -76.11647442490616,
          8.235689593780092,
          -76.07048068235923,
          8.281683336327012
        ],
        "flood_share": 0.197
      }
    },
    {
      "type": "Feature",
      "geometry": {
        "type": "Polygon",
        "coordinates": [
          [
            [
              -75.9784931972654,
              8.235689593780092
            ],
            [
              -75.9784931972654,
              8.281683336327012
            ],
            [
              -76.02448693981232,
              8.281683336327012
            ],
            [
              -76.02448693981232,
              8.235689593780092
            ],
            [
              -75.9784931972654,
              8.235689593780092
            ]
          ]
        ]
      },
      "properties": {
        "id": "E26",
        "bounds": [
          -76.02448693981232,
          8.235689593780092,
          -75.9784931972654,
          8.281683336327012
        ],
        "flood_share": 0.051
      }
    },
    {
      "type": "Feature",
      "geometry": {
        "type": "Polygon",
        "coordinates": [
          [
            [
              -75.93249945471848,
              8.235689593780092
            ],
            [
              -75.93249945471848,
              8.281683336327012
            ],
            [
              -75.9784931972654,
              8.281683336327012
            ],
            [
              -75.9784931972654,
              8.235689593780092
            ],
            [
              -75.93249945471848,
              8.235689593780092
            ]
          ]
        ]
      },
      "properties": {
        "id": "F26",
        "bounds": [
          -75.9784931972654,
          8.235689593780092,
          -75.93249945471848,
          8.281683336327012
        ],
        "flood_share": 0.084
      }
    },
    {
      "type": "Feature",
      "geometry": {
        "type": "Polygon",
        "coordinates": [
          [
            [
              -76.11647442490616,
              8.189695851233173
            ],
            [
              -76.11647442490616,
              8.235689593780092
            ],
            [
              -76.16246816745307,
              8.235689593780092
            ],
            [
              -76.16246816745307,
              8.189695851233173
            ],
            [
              -76.11647442490616,
              8.189695851233173
            ]
          ]
        ]
      },
      "properties": {
        "id": "B27",
        "bounds": [
          -76.16246816745307,
          8.189695851233173,
          -76.11647442490616,
          8.235689593780092
        ],
        "flood_share": 0.082
      }
    },
    {
      "type": "Feature",
      "geometry": {
        "type": "Polygon",
        "coordinates": [
          [
            [
              -76.07048068235923,
              8.189695851233173
            ],
            [
              -76.07048068235923,
              8.235689593780092
            ],
            [
              -76.11647442490616,
              8.235689593780092
            ],
            [
              -76.11647442490616,
              8.189695851233173
            ],
            [
              -76.07048068235923,
              8.189695851233173
            ]
          ]
        ]
      },
      "properties": {
        "id": "C27",
        "bounds": [
          -76.11647442490616,
          8.189695851233173,
          -76.07048068235923,
          8.235689593780092
        ],
        "flood_share": 0.119
      }
    },
    {
      "type": "Feature",
      "geometry": {
        "type": "Polygon",
        "coordinates": [
          [
            [
              -76.02448693981232,
              8.189695851233173
            ],
            [
              -76.02448693981232,
              8.235689593780092
            ],
            [
              -76.07048068235923,
              8.235689593780092
            ],
            [
              -76.07048068235923,
              8.189695851233173
            ],
            [
              -76.02448693981232,
              8.189695851233173
            ]
          ]
        ]
      },
      "properties": {
        "id": "D27",
        "bounds": [
          -76.07048068235923,
          8.189695851233173,
          -76.02448693981232,
          8.235689593780092
        ],
        "flood_share": 0.094
      }
    },
    {
      "type": "Feature",
      "geometry": {
        "type": "Polygon",
        "coordinates": [
          [
            [
              -76.07048068235923,
              8.143702108686254
            ],
            [
              -76.07048068235923,
              8.189695851233173
            ],
            [
              -76.11647442490616,
              8.189695851233173
            ],
            [
              -76.11647442490616,
              8.143702108686254
            ],
            [
              -76.07048068235923,
              8.143702108686254
            ]
          ]
        ]
      },
      "properties": {
        "id": "C28",
        "bounds": [
          -76.11647442490616,
          8.143702108686254,
          -76.07048068235923,
          8.189695851233173
        ],
        "flood_share": 0.06
      }
    }
  ]
}