{
"type": "FeatureCollection",
"name": "districts",
"crs": { "type": "name", "properties": { "name": "urn:ogc:def:crs:OGC:1.3:CRS84" } },
"features": [
{"type":"Feature","properties":{"id":31,"name":"Jalalaqsi","area_km2":3820.4045804644488},"geometry":{"type":"Polygon","coordinates":[[[45.07,3.249999997000032],[45.150002000000143,3.210000002000015],[45.27,3.200000003000127],[45.702418726871883,3.232270101250606],[45.979047008706857,3.367144025058167],[45.868241217054504,3.61653314980498],[45.62784500000015,3.63228],[45.388744241450411,3.598230267301858],[45.137252728215401,3.595698473544473],[45.07,3.249999997000032]]]}},
{"type":"Feature","properties":{"id":33,"name":"Wanleweyne","area_km2":3446.0131684464686},"geometry":{"type":"Polygon","coordinates":[[[44.619999,2.480000001000064],[44.88000099858175,2.339999901103226],[44.939775515000122,2.346442226000079],[44.951626234,2.369773328000122],[45.115684615000134,2.488650846000041],[45.207095123641011,2.469967117388705],[45.242381133902825,2.63935813457374],[45.177098509397126,2.956946549933264],[45.119999000000178,3.040000002000056],[44.659999997466969,2.75000000140318],[44.619999,2.480000001000064]]]}},
{"type":"Feature","properties":{"id":54,"name":"Balad","area_km2":2240.6901586156664},"geometry":{"type":"Polygon","coordinates":[[[45.207095123641011,2.469967117388705],[45.1812339008099,2.361996293631819],[45.252089907851541,2.258988657768668],[45.223556688000144,2.205049547000158],[45.266346890000136,2.178508788000045],[45.281975198863194,2.132810039400661],[45.2898678520001,2.140607285000101],[45.317237963000139,2.143136020000156],[45.316279640000175,2.148033781000152],[45.39495731749588,2.151668750069177],[45.393995936031445,2.148859326714046],[45.503783237,2.121711841000092],[45.544055901000092,2.147404633000122],[45.550445257000092,2.152685433000102],[45.55420334500019,2.15357800400011],[45.556033563000085,2.154924769000104],[45.557104060000142,2.15723626700003],[45.560623428887311,2.159020038220206],[45.62420073700855,2.317844964073231],[45.576095349000184,2.394142433000184],[45.598172743082671,2.600805664145582],[45.512773976918595,2.619218316837021],[45.390943620000087,2.657367152000177],[45.242381133902825,2.63935813457374],[45.207095123641011,2.469967117388705]]]}},
{"type":"Feature","properties":{"id":56,"name":"Jowhar","area_km2":2664.4301528356659},"geometry":{"type":"Polygon","coordinates":[[[45.939998998473811,2.97805934270508],[45.876291983515102,3.019818332574687],[45.716827530472301,2.985096047696572],[45.543376595918232,2.899186180126492],[45.313849710673423,2.977092929234232],[45.177098509397126,2.956946549933264],[45.242381133902825,2.63935813457374],[45.390943620000087,2.657367152000177],[45.512773976918595,2.619218316837021],[45.598172743082671,2.600805664145582],[45.687471346004827,2.677981604283161],[45.854023932214602,2.716092033849236],[45.939999,2.825969692000172],[45.939998998473811,2.97805934270508]]]}},
{"type":"Feature","properties":{"id":57,"name":"Mahaday","area_km2":3282.8245565711395},"geometry":{"type":"Polygon","coordinates":[[[45.119999000000178,3.040000002000056],[45.177098509397126,2.956946549933264],[45.313849710673423,2.977092929234232],[45.543376595918232,2.899186180126492],[45.716827530472301,2.985096047696572],[45.876291983515102,3.019818332574687],[45.939998998473811,2.97805934270508],[46.131378017000088,3.184647893000033],[45.979047008706857,3.367144025058167],[45.702418726871883,3.232270101250606],[45.27,3.200000003000127],[45.150002000000143,3.210000002000015],[45.07,3.249999997000032],[45.119999000000178,3.040000002000056]]]}},
{"type":"Feature","properties":{"id":61,"name":"Bulo Burti","area_km2":8694.6317960223387},"geometry":{"type":"Polygon","coordinates":[[[45.07,3.249999997000032],[45.137252728215401,3.595698473544473],[45.388744241450411,3.598230267301858],[45.62784500000015,3.63228],[45.868241217054504,3.61653314980498],[45.913610294272416,3.66516914030467],[45.736784500249826,4.003729685830024],[45.70848935800035,4.408867572000361],[45.671978411862483,4.48931541948815],[45.389999,4.369999902000075],[45.35390861500008,4.357262129000048],[45.332276129000036,4.117943814000057],[44.776332294000042,3.959402195000052],[44.799999000000184,3.859999903000187],[44.770000000000152,3.699999997000077],[44.779999,3.270000000999971],[45.07,3.249999997000032]]]}},
{"type":"Feature","properties":{"id":63,"name":"Belet Weyne","area_km2":9658.2228569746512},"geometry":{"type":"Polygon","coordinates":[[[45.671978411862483,4.48931541948815],[45.623012,4.621723],[45.726734020000038,4.64691434700012],[45.629232862786637,4.835708226518818],[45.502092364589771,4.863640608698688],[45.122519044000057,5.123559359000069],[44.998347300000034,4.945823700000062],[44.978011300000048,4.923383400000034],[44.932522100000028,4.92670030000005],[44.901248200000055,4.922909600000025],[44.729715900000031,4.929069500000026],[44.67759280000007,4.923383400000034],[44.624995900000044,4.932860300000073],[44.591469406000044,4.932022107000023],[44.68,4.409999802000073],[44.75,4.070000198000059],[44.776332294000042,3.959402195000052],[45.332276129000036,4.117943814000057],[45.35390861500008,4.357262129000048],[45.389999,4.369999902000075],[45.671978411862483,4.48931541948815]]]}}
]
}
